{
  "type": "FeatureCollection",
  "features": [
    {
      "id": 3170,
      "type": "Feature",
      "geometry": {
        "type": "MultiPolygon",
        "coordinates": [
          [
            [
              [
                89.376814621,
                26.864838457
              ],
              [
                89.376881708,
                26.864997217
              ],
              [
                89.376935547,
                26.865093229
              ],
              [
                89.378336892,
                26.864475556
              ],
              [
                89.378320451,
                26.864464165
              ],
              [
                89.378126124,
                26.864139418
              ],
              [
                89.378008365,
                26.864015263
              ],
              [
                89.377958218,
                26.863954095
              ],
              [
                89.377872705,
                26.863614154
              ],
              [
                89.377522483,
                26.863748438
              ],
              [
                89.377094445,
                26.86391024
              ],
              [
                89.377254989,
                26.864375891
              ],
              [
                89.377287595,
                26.864449171
              ],
              [
                89.37725648,
                26.864458176
              ],
              [
                89.377202475,
                26.864481011
              ],
              [
                89.37716056,
                26.864512171
              ],
              [
                89.377188728,
                26.864598057
              ],
              [
                89.376932098,
                26.864659615
              ],
              [
                89.376935905,
                26.864673563
              ],
              [
                89.376914471,
                26.864687399
              ],
              [
                89.376863866,
                26.864709814
              ],
              [
                89.376776353,
                26.864735549
              ],
              [
                89.376814621,
                26.864838457
              ]
            ]
          ],
          [
            [
              [
                89.375691401,
                26.86607509
              ],
              [
                89.375836821,
                26.866465796
              ],
              [
                89.376105946,
                26.866251056
              ],
              [
                89.376541474,
                26.866141531
              ],
              [
                89.377097152,
                26.866074326
              ],
              [
                89.37726411,
                26.866078544
              ],
              [
                89.377540578,
                26.865940453
              ],
              [
                89.377879539,
                26.865736465
              ],
              [
                89.378269323,
                26.86547001
              ],
              [
                89.378682499,
                26.865186244
              ],
              [
                89.379056366,
                26.864989372
              ],
              [
                89.37960109,
                26.864793249
              ],
              [
                89.380285738,
                26.864573357
              ],
              [
                89.380197337,
                26.864405799
              ],
              [
                89.37986354,
                26.864376474
              ],
              [
                89.379791584,
                26.864041817
              ],
              [
                89.379718109,
                26.863985771
              ],
              [
                89.379049148,
                26.864177867
              ],
              [
                89.379049224,
                26.864163936
              ],
              [
                89.37693942,
                26.865094987
              ],
              [
                89.376694247,
                26.865191423
              ],
              [
                89.376292926,
                26.865436925
              ],
              [
                89.376044041,
                26.865501999
              ],
              [
                89.375663299,
                26.865535145
              ],
              [
                89.375596999,
                26.865587093
              ],
              [
                89.375564441,
                26.865858601
              ],
              [
                89.375691401,
                26.86607509
              ]
            ]
          ]
        ]
      },
      "properties": {
        "id": 3170,
        "name": "EA 5 & EA 3 ",
        "isRBA": false,
        "areaCode": "05",
        "isActive": true,
        "description": "Building Opposite to Hyundai motors & Building Opposite to Truck Parking-1",
        "deactivatedAt": null,
        "deactivatedReason": null,
        "subAdministrativeZoneId": null
      }
    }
  ]
}