{"type": "FeatureCollection", "features": [{"type": "Feature", "geometry": {"type": "MultiPolygon", "coordinates": [[[[91.231120201, 27.268618411], [91.231133098, 27.269099929], [91.230973696, 27.269101331], [91.230813, 27.26966731], [91.230399749, 27.270050779], [91.230425506, 27.270321864], [91.230813536, 27.270404931], [91.230887335, 27.270902815], [91.231435498, 27.272084975], [91.231482775, 27.272586483], [91.232381081, 27.273511203], [91.23301059, 27.27277651], [91.232459365, 27.272350661], [91.232782737, 27.272076502], [91.232347814, 27.271871764], [91.232095628, 27.271717981], [91.231505867, 27.270549756], [91.231291335, 27.270368509], [91.230922245, 27.26993766], [91.230875063, 27.269788854], [91.230873094, 27.26961015], [91.230929679, 27.269929311], [91.231521034, 27.270548193], [91.232095588, 27.271708208], [91.232626024, 27.271964702], [91.232790535, 27.272081965], [91.232469846, 27.272349721], [91.233019192, 27.272777282], [91.232378756, 27.273553616], [91.233309875, 27.274083619], [91.233382387, 27.274462858], [91.234050738, 27.275176019], [91.233995555, 27.275678487], [91.234321797, 27.276347179], [91.235095166, 27.276944088], [91.235628053, 27.276389916], [91.235940271, 27.275790207], [91.235892324, 27.275573558], [91.236904856, 27.27514403], [91.236105051, 27.273529835], [91.235385437, 27.272986725], [91.235913265, 27.272663237], [91.235090687, 27.27241951], [91.235247768, 27.272207834], [91.234784227, 27.271479304], [91.233704476, 27.27131924], [91.233536909, 27.270581312], [91.233788324, 27.26997536], [91.232506104, 27.26866387], [91.231518087, 27.26821468], [91.231120201, 27.268618411]]]]}, "properties": {"saz_id": 1397, "town": "Mongar", "db_town": "Monggar Town", "dzongkhag": "Monggar", "lap_name": "Lap 1", "area_code": "01", "zone_type": "lap", "local_area_group": "LA 1", "division": null, "index": 64.0133, "has_data": true, "category": "High Liveable", "color": "#92D050"}}, {"type": "Feature", "geometry": {"type": "MultiPolygon", "coordinates": [[[[91.238114205, 27.273956194], [91.238646331, 27.273937893], [91.239676698, 27.273589005], [91.23997452, 27.273015566], [91.240049955, 27.272960535], [91.241052158, 27.272815744], [91.239377497, 27.272667503], [91.241151818, 27.272203289], [91.240452266, 27.272209493], [91.239825886, 27.271956826], [91.239974493, 27.271642927], [91.239835514, 27.271453892], [91.240286309, 27.27096064], [91.240208763, 27.270825422], [91.239620648, 27.27127912], [91.238120526, 27.273154299], [91.237766079, 27.272736131], [91.237801313, 27.273170714], [91.237495501, 27.273023924], [91.237307144, 27.271122922], [91.236132685, 27.272193361], [91.235879566, 27.272684855], [91.235365358, 27.272947616], [91.236102549, 27.273593448], [91.236617045, 27.274730502], [91.236908761, 27.275014672], [91.236520217, 27.275601149], [91.236516141, 27.276606881], [91.236807355, 27.276808164], [91.237065746, 27.276792289], [91.238045549, 27.275995374], [91.238439908, 27.27589675], [91.23882192, 27.276056453], [91.238774035, 27.27585302], [91.237996009, 27.27564246], [91.238953971, 27.275620389], [91.238676758, 27.275310262], [91.239346668, 27.275372282], [91.239778528, 27.275912074], [91.239987973, 27.275597637], [91.239939482, 27.275339848], [91.240773814, 27.275142184], [91.24230705, 27.273511312], [91.242153461, 27.273376771], [91.241226841, 27.273480128], [91.241711377, 27.273285562], [91.241664696, 27.273190843], [91.240035803, 27.273055794], [91.239691906, 27.27358887], [91.238676747, 27.273937624], [91.238175036, 27.273955656], [91.236920407, 27.275004446], [91.238114205, 27.273956194]]]]}, "properties": {"saz_id": 1398, "town": "Mongar", "db_town": "Monggar Town", "dzongkhag": "Monggar", "lap_name": "Lap 2", "area_code": "02", "zone_type": "lap", "local_area_group": "LA 2", "division": null, "index": 67.36, "has_data": true, "category": "High Liveable", "color": "#92D050"}}, {"type": "Feature", "geometry": {"type": "MultiPolygon", "coordinates": [[[[91.240764241, 27.279414772], [91.240882156, 27.279760284], [91.240867249, 27.279787597], [91.241002013, 27.279596135], [91.241239311, 27.279050411], [91.241997171, 27.278812646], [91.242418021, 27.278360424], [91.242256112, 27.277478482], [91.243395458, 27.275986999], [91.245110041, 27.275618398], [91.244140046, 27.273194334], [91.244065823, 27.27335808], [91.242356561, 27.274202287], [91.24210271, 27.274625846], [91.24185611, 27.275701682], [91.240789013, 27.27685275], [91.239472979, 27.277503168], [91.238699461, 27.277700286], [91.239111898, 27.277859719], [91.239157976, 27.277900083], [91.238623268, 27.277687371], [91.237033508, 27.277498225], [91.236740063, 27.277255546], [91.236401868, 27.276932364], [91.236535433, 27.276632193], [91.23653981, 27.275653639], [91.236883879, 27.275134159], [91.236292268, 27.275275294], [91.235900165, 27.275577749], [91.235635288, 27.276381927], [91.23510916, 27.276943783], [91.234926209, 27.276904627], [91.234887946, 27.277570898], [91.234692941, 27.277817248], [91.234762639, 27.278618472], [91.234256661, 27.279628633], [91.234419413, 27.280592121], [91.23484511, 27.280574773], [91.234987249, 27.281049185], [91.235395634, 27.280841722], [91.23560495, 27.280513702], [91.235942552, 27.280782529], [91.236667776, 27.280347519], [91.238073903, 27.281640266], [91.239423289, 27.281934101], [91.239702906, 27.281089015], [91.240867174, 27.279780802], [91.240812358, 27.279638589], [91.240764241, 27.279414772]]]]}, "properties": {"saz_id": 1399, "town": "Mongar", "db_town": "Monggar Town", "dzongkhag": "Monggar", "lap_name": "Lap 3", "area_code": "03", "zone_type": "lap", "local_area_group": "LA 3", "division": null, "index": 65.85, "has_data": true, "category": "High Liveable", "color": "#92D050"}}, {"type": "Feature", "geometry": {"type": "MultiPolygon", "coordinates": [[[[91.238899221, 27.275595288], [91.239061974, 27.276923265], [91.239537602, 27.277030967], [91.240429356, 27.276331223], [91.241654384, 27.275567471], [91.242396381, 27.274031375], [91.241585535, 27.27415388], [91.240516164, 27.275262171], [91.239890173, 27.275284677], [91.239943385, 27.275633517], [91.239812779, 27.275834765], [91.239486851, 27.275535821], [91.238899221, 27.275595288]]], [[[91.23886661, 27.277616836], [91.239412579, 27.27756452], [91.240914216, 27.276757627], [91.241730913, 27.275794014], [91.242042683, 27.275160451], [91.241555963, 27.275761653], [91.239431361, 27.277204868], [91.239111369, 27.277099179], [91.238887718, 27.276782371], [91.238920636, 27.277012693], [91.238883438, 27.27708085], [91.238785292, 27.277129198], [91.238561645, 27.277151263], [91.238909232, 27.277011098], [91.238759412, 27.276164581], [91.238389674, 27.276022026], [91.238184911, 27.276210364], [91.238280181, 27.276073866], [91.238389636, 27.276018635], [91.238567966, 27.276013665], [91.238479251, 27.275885578], [91.237935094, 27.276100659], [91.237042647, 27.277081878], [91.236515442, 27.276771989], [91.236999744, 27.277491766], [91.238961996, 27.277661774], [91.238786593, 27.277588717], [91.238679465, 27.277511665], [91.238583196, 27.277387036], [91.238566962, 27.277292221], [91.23837732, 27.277304074], [91.238339181, 27.277287455], [91.238219499, 27.276420323], [91.238342901, 27.277280639], [91.238563197, 27.277190261], [91.23886661, 27.277616836]]]]}, "properties": {"saz_id": 1400, "town": "Mongar", "db_town": "Monggar Town", "dzongkhag": "Monggar", "lap_name": "Lap 4", "area_code": "04", "zone_type": "lap", "local_area_group": "LA 4", "division": null, "index": 67.7133, "has_data": true, "category": "High Liveable", "color": "#92D050"}}, {"type": "Feature", "geometry": {"type": "MultiPolygon", "coordinates": [[[[91.244268696, 27.273013004], [91.244130062, 27.273181436], [91.245114035, 27.275637305], [91.245882909, 27.275958126], [91.246373105, 27.276359722], [91.247241337, 27.276474298], [91.247716587, 27.276809821], [91.24844476, 27.27664024], [91.248760486, 27.276311251], [91.248535723, 27.275253202], [91.248685239, 27.273661785], [91.249479541, 27.273967274], [91.250089224, 27.272725097], [91.250036454, 27.272086817], [91.24899459, 27.271403009], [91.247802304, 27.272229074], [91.247245432, 27.272202091], [91.247212779, 27.272012245], [91.246478569, 27.271638255], [91.246013501, 27.272213197], [91.245540852, 27.272108682], [91.245264843, 27.271907282], [91.245246303, 27.271608456], [91.244849392, 27.271476084], [91.24458496, 27.270948408], [91.244328098, 27.271100188], [91.243288242, 27.270592994], [91.242786246, 27.270583863], [91.242220096, 27.27027631], [91.241985036, 27.269653234], [91.241095806, 27.27038142], [91.240761394, 27.270397977], [91.241219638, 27.271805165], [91.2407059, 27.272108713], [91.240143217, 27.272113701], [91.24114828, 27.272227103], [91.23941928, 27.272663736], [91.241078281, 27.272771343], [91.240031662, 27.273025252], [91.240642237, 27.273223696], [91.241646102, 27.273228381], [91.24123821, 27.273476629], [91.242302606, 27.273453592], [91.24174747, 27.274138043], [91.244051051, 27.273397284], [91.244161593, 27.272872265], [91.244268696, 27.273013004]]]]}, "properties": {"saz_id": 1401, "town": "Mongar", "db_town": "Monggar Town", "dzongkhag": "Monggar", "lap_name": "Lap 5", "area_code": "05", "zone_type": "lap", "local_area_group": "LA 5", "division": null, "index": 63.8733, "has_data": true, "category": "High Liveable", "color": "#92D050"}}]}