{"type": "FeatureCollection", "features": [{"type": "Feature", "geometry": {"type": "Polygon", "coordinates": [[[89.327360081, 26.876369647], [89.328612307, 26.880025462], [89.331823988, 26.883356206], [89.334677953, 26.885791014], [89.335072844, 26.885676203], [89.334282295, 26.883385223], [89.335302581, 26.881592957], [89.336652476, 26.881877916], [89.337723637, 26.882676124], [89.338290401, 26.883390119], [89.34041635, 26.883804051], [89.342157083, 26.883672859], [89.350025784, 26.885032698], [89.351525786, 26.886251569], [89.354113153, 26.887503261], [89.357744153, 26.888286007], [89.364205925, 26.888510265], [89.366394138, 26.88893802], [89.369735967, 26.88866042], [89.370261944, 26.889066759], [89.370506364, 26.8898175], [89.370774359, 26.889818694], [89.371698789, 26.888762325], [89.373141231, 26.888146199], [89.375333227, 26.887891222], [89.376573944, 26.888286765], [89.377695954, 26.887664825], [89.378165151, 26.887095727], [89.37696143, 26.886329452], [89.376986492, 26.885654788], [89.376299809, 26.885159826], [89.376475174, 26.885052636], [89.376309201, 26.884863838], [89.376527372, 26.88438767], [89.375728675, 26.884488624], [89.375559491, 26.884177916], [89.37188837, 26.883627049], [89.368833253, 26.885455786], [89.366875331, 26.885530611], [89.356761662, 26.88311147], [89.351070798, 26.880910504], [89.345279769, 26.877596125], [89.339609305, 26.874978615], [89.333451837, 26.870686889], [89.331555144, 26.870956548], [89.328374178, 26.873003224], [89.327467133, 26.874029788], [89.327360081, 26.876369647]]]}, "properties": {"saz_id": 84, "town": "Phuentsholing", "db_town": "Phuentshogling Thromde", "dzongkhag": "Chhukha", "lap_name": "Lap 1", "area_code": "01", "zone_type": "lap", "local_area_group": "Toorsatar", "division": null, "index": null, "has_data": false, "category": "Data not available", "color": "#FFFFFF"}}, {"type": "Feature", "geometry": {"type": "Polygon", "coordinates": [[[89.374999127, 26.866916193], [89.375512911, 26.868060033], [89.374616263, 26.868361085], [89.374573232, 26.869476886], [89.374610824, 26.868362385], [89.375505253, 26.868060191], [89.374987933, 26.866920169], [89.374577192, 26.867085951], [89.37093342, 26.867182059], [89.371989711, 26.869378908], [89.37308209, 26.874141119], [89.373555471, 26.873892776], [89.375918403, 26.873338309], [89.375440707, 26.871886], [89.375944011, 26.873351416], [89.373592052, 26.873907077], [89.373093434, 26.874183483], [89.373242791, 26.876954765], [89.372678076, 26.88118624], [89.371887398, 26.883704207], [89.375543244, 26.88420799], [89.375697065, 26.884487286], [89.376481977, 26.884421098], [89.376293184, 26.884852121], [89.376447352, 26.885068729], [89.376283734, 26.885158557], [89.376964539, 26.885663071], [89.377063838, 26.885969987], [89.376953066, 26.886338665], [89.377348381, 26.886493647], [89.378067352, 26.887123701], [89.378972263, 26.885713702], [89.379399183, 26.885771301], [89.379672879, 26.885438163], [89.379597294, 26.885054733], [89.380854684, 26.883813439], [89.381193356, 26.882958175], [89.380941581, 26.882121222], [89.381326397, 26.881349746], [89.381165823, 26.880882359], [89.381685293, 26.879630857], [89.382392885, 26.878778075], [89.381784752, 26.878481997], [89.381724358, 26.878161323], [89.383133246, 26.877610246], [89.383589696, 26.877946578], [89.384623562, 26.877797844], [89.384486318, 26.877323598], [89.384169752, 26.876973947], [89.384294215, 26.876939662], [89.384056718, 26.876332635], [89.383777518, 26.876254798], [89.383639524, 26.875919856], [89.383128579, 26.877039061], [89.382382064, 26.877196005], [89.381194654, 26.87698533], [89.381284412, 26.874794226], [89.381025873, 26.873776141], [89.381059294, 26.872987453], [89.380492998, 26.872859594], [89.38026924, 26.872586961], [89.379697029, 26.870696819], [89.379409814, 26.870667697], [89.37918077, 26.870924312], [89.378830724, 26.870623376], [89.378184128, 26.869509079], [89.378152885, 26.86933714], [89.378527593, 26.868944663], [89.377941237, 26.867783448], [89.377228015, 26.867964326], [89.377935798, 26.867784749], [89.37788799, 26.867567363], [89.376993163, 26.866761986], [89.377017625, 26.86661053], [89.377476537, 26.86639163], [89.377347324, 26.86605849], [89.376090687, 26.86620285], [89.375460277, 26.866743562], [89.375570761, 26.867039021], [89.375457753, 26.866754566], [89.374999127, 26.866916193]]]}, "properties": {"saz_id": 1381, "town": "Phuentsholing", "db_town": "Phuentshogling Thromde", "dzongkhag": "Chhukha", "lap_name": "Lap 2", "area_code": "02", "zone_type": "lap", "local_area_group": "Amo Chu lap", "division": null, "index": 62.0633, "has_data": true, "category": "High Liveable", "color": "#91cf60"}}, {"type": "Feature", "geometry": {"type": "Polygon", "coordinates": [[[89.386885619, 26.870374363], [89.389297716, 26.870554805], [89.38956628, 26.870441906], [89.39015411, 26.868727027], [89.390073072, 26.86826957], [89.390762194, 26.867396202], [89.39070553, 26.866375521], [89.390138844, 26.866324319], [89.38924595, 26.865913856], [89.388480274, 26.866038318], [89.387933697, 26.866580346], [89.387445313, 26.866771521], [89.386565197, 26.867682572], [89.386627826, 26.86786068], [89.385980094, 26.868254463], [89.385907898, 26.86814009], [89.384848132, 26.86878588], [89.384372436, 26.868244858], [89.384169632, 26.86876377], [89.383328011, 26.8687453], [89.382615005, 26.870071715], [89.381637783, 26.869814511], [89.380781329, 26.870200826], [89.380634027, 26.870507965], [89.380565142, 26.870321338], [89.380282713, 26.870482917], [89.380245622, 26.870163215], [89.379689255, 26.870709303], [89.380269359, 26.872576406], [89.380477582, 26.872848971], [89.381040912, 26.872986829], [89.381033782, 26.873761267], [89.381272882, 26.874783184], [89.381184171, 26.876989095], [89.382388079, 26.877172415], [89.383120916, 26.877031083], [89.384173001, 26.874772778], [89.384412741, 26.874606652], [89.384700793, 26.8735866], [89.385015314, 26.873236214], [89.385784433, 26.8728434], [89.385502204, 26.872608831], [89.385794264, 26.871922264], [89.386608937, 26.871361601], [89.386942814, 26.871380463], [89.387539841, 26.870850196], [89.388068464, 26.870761935], [89.388283351, 26.870520816], [89.386885619, 26.870374363]]]}, "properties": {"saz_id": 86, "town": "Phuentsholing", "db_town": "Phuentshogling Thromde", "dzongkhag": "Chhukha", "lap_name": "Lap 3", "area_code": "03", "zone_type": "lap", "local_area_group": "Dhamdara lap", "division": null, "index": 65.36, "has_data": true, "category": "High Liveable", "color": "#91cf60"}}, {"type": "Feature", "geometry": {"type": "Polygon", "coordinates": [[[89.376381101, 26.861385172], [89.367576143, 26.858241218], [89.369403789, 26.863368974], [89.370979589, 26.867193921], [89.374044054, 26.867097818], [89.375488807, 26.866715015], [89.375830265, 26.866410915], [89.375569268, 26.865852527], [89.375609592, 26.865581054], [89.375129974, 26.865234145], [89.375186346, 26.864515649], [89.374794273, 26.863255349], [89.375366503, 26.862293165], [89.375884268, 26.862055144], [89.376381101, 26.861385172]]]}, "properties": {"saz_id": 87, "town": "Phuentsholing", "db_town": "Phuentshogling Thromde", "dzongkhag": "Chhukha", "lap_name": "Lap 4a", "area_code": "04", "zone_type": "lap", "local_area_group": "Core a, b, c, d, e, f, g, h, i, j, k, l, m", "division": null, "index": 68.63, "has_data": true, "category": "High Liveable", "color": "#91cf60"}}, {"type": "Feature", "geometry": {"type": "Polygon", "coordinates": [[[89.376379276, 26.861374934], [89.375878579, 26.862041406], [89.375314199, 26.862282704], [89.374780742, 26.863255507], [89.375183415, 26.864530002], [89.375125185, 26.865233254], [89.375626466, 26.865564005], [89.375564441, 26.865858601], [89.375836821, 26.866465796], [89.376105946, 26.866251056], [89.37726411, 26.866078544], [89.379056366, 26.864989372], [89.380285738, 26.864573357], [89.380197337, 26.864405799], [89.37986354, 26.864376474], [89.379718109, 26.863985771], [89.378873957, 26.864241281], [89.379045341, 26.864163919], [89.378865074, 26.862331217], [89.376379276, 26.861374934]]]}, "properties": {"saz_id": 88, "town": "Phuentsholing", "db_town": "Phuentshogling Thromde", "dzongkhag": "Chhukha", "lap_name": "Lap 4b", "area_code": "05", "zone_type": "lap", "local_area_group": "Core a, b, c, d, e, f, g, h, i, j, k, l, m", "division": null, "index": 68.63, "has_data": true, "category": "High Liveable", "color": "#91cf60"}}, {"type": "Feature", "geometry": {"type": "Polygon", "coordinates": [[[89.379868356, 26.86472825], [89.377385613, 26.866039899], [89.377448539, 26.866392599], [89.376988524, 26.866752977], [89.377851148, 26.867542999], [89.378378182, 26.868454307], [89.378527021, 26.868932094], [89.378148038, 26.869351835], [89.378863253, 26.87065055], [89.379191854, 26.870923646], [89.379414669, 26.870656455], [89.379833861, 26.870696605], [89.380232867, 26.870165499], [89.380281603, 26.870486123], [89.380565884, 26.870341095], [89.380642545, 26.870526015], [89.380787784, 26.870241068], [89.380638668, 26.869812041], [89.380797681, 26.869137091], [89.382115776, 26.867408465], [89.382642055, 26.867034631], [89.382149639, 26.866179213], [89.381614034, 26.865820308], [89.381842004, 26.865901428], [89.382348073, 26.86531506], [89.382282292, 26.865061558], [89.38235001, 26.865315939], [89.383672352, 26.864940353], [89.383776464, 26.864717913], [89.383544183, 26.864598894], [89.383786664, 26.864716651], [89.384243288, 26.863577397], [89.383422616, 26.863462373], [89.38290554, 26.863575046], [89.381654913, 26.864243706], [89.379868356, 26.86472825]]]}, "properties": {"saz_id": 89, "town": "Phuentsholing", "db_town": "Phuentshogling Thromde", "dzongkhag": "Chhukha", "lap_name": "Lap 4c", "area_code": "06", "zone_type": "lap", "local_area_group": "Core a, b, c, d, e, f, g, h, i, j, k, l, m", "division": null, "index": 68.63, "has_data": true, "category": "High Liveable", "color": "#91cf60"}}, {"type": "Feature", "geometry": {"type": "MultiPolygon", "coordinates": [[[[89.378836573, 26.862764468], [89.378940636, 26.862758161], [89.378837467, 26.862764477], [89.378887453, 26.863210484], [89.379097915, 26.863191063], [89.378887444, 26.863212226], [89.378942075, 26.863518945], [89.379284642, 26.863524691], [89.378941095, 26.863520682], [89.379048178, 26.864177645], [89.379708374, 26.863990735], [89.379846449, 26.862882095], [89.379566285, 26.862891127], [89.379845487, 26.862880349], [89.379649623, 26.862561464], [89.379846675, 26.862306576], [89.380203707, 26.862346452], [89.380372124, 26.861725525], [89.380019442, 26.861600342], [89.378908916, 26.86230246], [89.379081432, 26.86246081], [89.378858308, 26.862325746], [89.378836573, 26.862764468]]]]}, "properties": {"saz_id": 90, "town": "Phuentsholing", "db_town": "Phuentshogling Thromde", "dzongkhag": "Chhukha", "lap_name": "Lap 4d", "area_code": "07", "zone_type": "lap", "local_area_group": "Core a, b, c, d, e, f, g, h, i, j, k, l, m", "division": null, "index": 68.63, "has_data": true, "category": "High Liveable", "color": "#91cf60"}}, {"type": "Feature", "geometry": {"type": "Polygon", "coordinates": [[[89.381536696, 26.862691365], [89.379860166, 26.862820064], [89.37984951, 26.863216395], [89.380192053, 26.863171362], [89.379847566, 26.863216822], [89.379703102, 26.86398391], [89.379864027, 26.864381646], [89.380437687, 26.86457571], [89.38143715, 26.864304952], [89.381360429, 26.864131642], [89.381437169, 26.86430147], [89.381717227, 26.864215627], [89.382356273, 26.863810942], [89.382076004, 26.863221138], [89.381077144, 26.863141405], [89.381536696, 26.862691365]]]}, "properties": {"saz_id": 91, "town": "Phuentsholing", "db_town": "Phuentshogling Thromde", "dzongkhag": "Chhukha", "lap_name": "Lap 4e", "area_code": "08", "zone_type": "lap", "local_area_group": "Core a, b, c, d, e, f, g, h, i, j, k, l, m", "division": null, "index": 68.63, "has_data": true, "category": "High Liveable", "color": "#91cf60"}}, {"type": "Feature", "geometry": {"type": "MultiPolygon", "coordinates": [[[[89.380363063, 26.861718193], [89.380196586, 26.862339455], [89.379771077, 26.862395054], [89.379840436, 26.862849853], [89.381655208, 26.862604978], [89.381683393, 26.862420518], [89.381507117, 26.862400457], [89.381679514, 26.86241963], [89.381809333, 26.861397148], [89.380409341, 26.86138173], [89.380022058, 26.861587837], [89.380363063, 26.861718193]]]]}, "properties": {"saz_id": 92, "town": "Phuentsholing", "db_town": "Phuentshogling Thromde", "dzongkhag": "Chhukha", "lap_name": "Lap 4f", "area_code": "09", "zone_type": "lap", "local_area_group": "Core a, b, c, d, e, f, g, h, i, j, k, l, m", "division": null, "index": 68.63, "has_data": true, "category": "High Liveable", "color": "#91cf60"}}, {"type": "Feature", "geometry": {"type": "Polygon", "coordinates": [[[89.381831165, 26.861276328], [89.381668688, 26.862619077], [89.381139505, 26.862967428], [89.381121172, 26.863192092], [89.382073401, 26.863214542], [89.382356752, 26.863773015], [89.383195916, 26.863387485], [89.383756831, 26.8634031], [89.383761517, 26.863075745], [89.383282849, 26.862909099], [89.383490731, 26.861720656], [89.383341303, 26.861349095], [89.381831165, 26.861276328]]]}, "properties": {"saz_id": 93, "town": "Phuentsholing", "db_town": "Phuentshogling Thromde", "dzongkhag": "Chhukha", "lap_name": "Lap 4g", "area_code": "10", "zone_type": "lap", "local_area_group": "Core a, b, c, d, e, f, g, h, i, j, k, l, m", "division": null, "index": 68.63, "has_data": true, "category": "High Liveable", "color": "#91cf60"}}, {"type": "Feature", "geometry": {"type": "MultiPolygon", "coordinates": [[[[89.383381243, 26.868773772], [89.384169998, 26.868773705], [89.384374283, 26.868250192], [89.384846185, 26.868794246], [89.386638069, 26.867869371], [89.386581475, 26.867690805], [89.387175408, 26.867195961], [89.387158106, 26.867008181], [89.387014762, 26.866906668], [89.386320283, 26.867126555], [89.386122628, 26.867121716], [89.387012165, 26.866903137], [89.387168546, 26.867012919], [89.38721235, 26.867137464], [89.387441901, 26.866777125], [89.387937386, 26.866586873], [89.388466144, 26.866047162], [89.389428125, 26.864242306], [89.389409792, 26.863758885], [89.388801219, 26.863575588], [89.387706138, 26.863861793], [89.385565814, 26.863922897], [89.384228267, 26.863569822], [89.383647834, 26.864953968], [89.38228283, 26.865319901], [89.381850601, 26.865904592], [89.382644836, 26.867030043], [89.382068575, 26.867436518], [89.380786555, 26.869131988], [89.380631173, 26.869800008], [89.380767403, 26.870246405], [89.381770471, 26.869815554], [89.382623241, 26.870080896], [89.383945954, 26.867396597], [89.383381243, 26.868773772]]]]}, "properties": {"saz_id": 94, "town": "Phuentsholing", "db_town": "Phuentshogling Thromde", "dzongkhag": "Chhukha", "lap_name": "Lap 4h", "area_code": "11", "zone_type": "lap", "local_area_group": "Core a, b, c, d, e, f, g, h, i, j, k, l, m", "division": null, "index": 68.63, "has_data": true, "category": "High Liveable", "color": "#91cf60"}}, {"type": "Feature", "geometry": {"type": "Polygon", "coordinates": [[[89.384838392, 26.858304642], [89.384571337, 26.858143275], [89.384468402, 26.857791072], [89.385023691, 26.857069081], [89.38511929, 26.856623708], [89.384995611, 26.856337587], [89.384778284, 26.856315745], [89.384449712, 26.856760104], [89.38357823, 26.859222946], [89.380388216, 26.861377867], [89.381809262, 26.861410208], [89.381817861, 26.861257006], [89.383347358, 26.861340305], [89.383500026, 26.861695991], [89.383724884, 26.861763143], [89.383974127, 26.861585087], [89.386255699, 26.86190149], [89.386497068, 26.861787607], [89.386805492, 26.860400209], [89.384547042, 26.859762636], [89.384838392, 26.858304642]]]}, "properties": {"saz_id": 95, "town": "Phuentsholing", "db_town": "Phuentshogling Thromde", "dzongkhag": "Chhukha", "lap_name": "Lap 4i", "area_code": "12", "zone_type": "lap", "local_area_group": "Core a, b, c, d, e, f, g, h, i, j, k, l, m", "division": null, "index": 68.63, "has_data": true, "category": "High Liveable", "color": "#91cf60"}}, {"type": "Feature", "geometry": {"type": "Polygon", "coordinates": [[[89.38627459, 26.85608983], [89.385136816, 26.85538486], [89.384999701, 26.857045523], [89.384452084, 26.85778496], [89.384558864, 26.858144146], [89.38482198, 26.858315944], [89.384875655, 26.8581284], [89.384517566, 26.859766262], [89.38730325, 26.860513706], [89.387436698, 26.859889135], [89.385853721, 26.859645443], [89.386065283, 26.858539019], [89.38667384, 26.858778322], [89.387654042, 26.858787958], [89.386994873, 26.858060737], [89.387345432, 26.857689562], [89.387364143, 26.857459784], [89.388389694, 26.858099821], [89.38914879, 26.857744382], [89.389552351, 26.857794883], [89.389568929, 26.857599922], [89.388444947, 26.857211965], [89.388602246, 26.856843476], [89.388093097, 26.8562109], [89.38627459, 26.85608983]]]}, "properties": {"saz_id": 96, "town": "Phuentsholing", "db_town": "Phuentshogling Thromde", "dzongkhag": "Chhukha", "lap_name": "Lap 4j", "area_code": "13", "zone_type": "lap", "local_area_group": "Core a, b, c, d, e, f, g, h, i, j, k, l, m", "division": null, "index": 68.63, "has_data": true, "category": "High Liveable", "color": "#91cf60"}}, {"type": "Feature", "geometry": {"type": "Polygon", "coordinates": [[[89.386486448, 26.861776678], [89.387438946, 26.861927518], [89.387568694, 26.86135909], [89.387405621, 26.861332728], [89.387573562, 26.861356499], [89.387445797, 26.862007215], [89.387798649, 26.862102776], [89.388049054, 26.861031182], [89.388561086, 26.860816354], [89.389585693, 26.861231116], [89.39031264, 26.861805419], [89.392071635, 26.862544366], [89.3922364, 26.862231629], [89.390936353, 26.861355353], [89.390581614, 26.86088714], [89.390424539, 26.861213839], [89.387618587, 26.858763806], [89.386671037, 26.858780595], [89.386066576, 26.858541146], [89.385843227, 26.859633752], [89.387441698, 26.859884477], [89.387321944, 26.860489952], [89.387621299, 26.860554715], [89.386812765, 26.860401547], [89.386486448, 26.861776678]]]}, "properties": {"saz_id": 97, "town": "Phuentsholing", "db_town": "Phuentshogling Thromde", "dzongkhag": "Chhukha", "lap_name": "Lap 4k", "area_code": "14", "zone_type": "lap", "local_area_group": "Core a, b, c, d, e, f, g, h, i, j, k, l, m", "division": null, "index": 68.63, "has_data": true, "category": "High Liveable", "color": "#91cf60"}}, {"type": "Feature", "geometry": {"type": "MultiPolygon", "coordinates": [[[[89.383762569, 26.863070567], [89.383756942, 26.863393741], [89.385296123, 26.86384623], [89.387225769, 26.863903365], [89.388508809, 26.863609407], [89.389378364, 26.863661923], [89.389620353, 26.863070905], [89.389258817, 26.862783761], [89.388966501, 26.862984495], [89.387225919, 26.863066437], [89.387436018, 26.861907806], [89.386551472, 26.861757696], [89.386256403, 26.861904431], [89.383958426, 26.861593617], [89.38372844, 26.861756302], [89.383519417, 26.861633496], [89.383301878, 26.862454469], [89.383299536, 26.862886316], [89.384010853, 26.863116229], [89.383762569, 26.863070567]]]]}, "properties": {"saz_id": 98, "town": "Phuentsholing", "db_town": "Phuentshogling Thromde", "dzongkhag": "Chhukha", "lap_name": "lap 4l", "area_code": "15", "zone_type": "lap", "local_area_group": "Core a, b, c, d, e, f, g, h, i, j, k, l, m", "division": null, "index": 68.63, "has_data": true, "category": "High Liveable", "color": "#91cf60"}}, {"type": "Feature", "geometry": {"type": "Polygon", "coordinates": [[[89.390261288, 26.86177554], [89.388500421, 26.860847625], [89.388039309, 26.861026732], [89.387801107, 26.861995639], [89.388866794, 26.862366747], [89.388799948, 26.862656454], [89.388865031, 26.862367669], [89.387437994, 26.862002773], [89.38723038, 26.863058879], [89.38896854, 26.862977593], [89.38924917, 26.862783773], [89.388948839, 26.862669287], [89.389475956, 26.862854407], [89.38961849, 26.863067469], [89.389409526, 26.863655147], [89.390533696, 26.863658256], [89.392205373, 26.864029398], [89.393680734, 26.864078396], [89.393719834, 26.86329974], [89.393057772, 26.862386167], [89.39224506, 26.862234659], [89.39207448, 26.86254563], [89.390261288, 26.86177554]]]}, "properties": {"saz_id": 99, "town": "Phuentsholing", "db_town": "Phuentshogling Thromde", "dzongkhag": "Chhukha", "lap_name": "Lap 4m", "area_code": "16", "zone_type": "lap", "local_area_group": "Core a, b, c, d, e, f, g, h, i, j, k, l, m", "division": null, "index": 68.63, "has_data": true, "category": "High Liveable", "color": "#91cf60"}}, {"type": "Feature", "geometry": {"type": "Polygon", "coordinates": [[[89.392220262, 26.864024945], [89.391348199, 26.863714714], [89.389422399, 26.863664617], [89.389311128, 26.864137786], [89.389427024, 26.864249734], [89.389096575, 26.865042367], [89.388455017, 26.865917239], [89.388462109, 26.866042648], [89.389456693, 26.865956396], [89.390130388, 26.866328473], [89.390686131, 26.866188925], [89.390534502, 26.866281457], [89.390781982, 26.866477557], [89.390769252, 26.867403906], [89.390136319, 26.868118617], [89.39016391, 26.868766522], [89.389668858, 26.869837063], [89.389516579, 26.870714051], [89.389897895, 26.870576389], [89.390056742, 26.869922323], [89.390243963, 26.869769891], [89.391237161, 26.869948308], [89.392465856, 26.869661046], [89.392720444, 26.86998255], [89.393030701, 26.870060503], [89.393820328, 26.869592126], [89.394996861, 26.870232402], [89.39585362, 26.86977983], [89.396720138, 26.869682532], [89.3972957, 26.870060477], [89.397238706, 26.870733261], [89.396831141, 26.871428067], [89.39679793, 26.871831921], [89.397075899, 26.872690727], [89.397449667, 26.87251122], [89.397311194, 26.872259873], [89.397421259, 26.872009587], [89.397841552, 26.871844207], [89.3983135, 26.87237472], [89.398894153, 26.872545232], [89.399373194, 26.873020919], [89.400194793, 26.873344818], [89.401686038, 26.873351139], [89.402386744, 26.873033693], [89.400459896, 26.873150911], [89.399839133, 26.873036829], [89.399266372, 26.872658262], [89.3991463, 26.871863691], [89.398837838, 26.871444452], [89.398793889, 26.870942753], [89.399140191, 26.870080511], [89.398941056, 26.86955029], [89.398228295, 26.869212916], [89.397764807, 26.868737292], [89.396913776, 26.866465539], [89.396336093, 26.866637737], [89.396871357, 26.866409635], [89.396594944, 26.865809427], [89.395517697, 26.866163318], [89.396594944, 26.865809427], [89.396598809, 26.865812926], [89.396525842, 26.865659374], [89.395357027, 26.864919525], [89.394883624, 26.864123438], [89.392748423, 26.864016767], [89.392669496, 26.864253252], [89.392740657, 26.864016733], [89.392220262, 26.864024945]]]}, "properties": {"saz_id": 100, "town": "Phuentsholing", "db_town": "Phuentshogling Thromde", "dzongkhag": "Chhukha", "lap_name": "Lap 5", "area_code": "17", "zone_type": "lap", "local_area_group": "Kabraytar LAP", "division": null, "index": 67.7733, "has_data": true, "category": "High Liveable", "color": "#91cf60"}}, {"type": "Feature", "geometry": {"type": "Polygon", "coordinates": [[[89.389947252, 26.842006489], [89.385243068, 26.854691117], [89.385153938, 26.855376826], [89.38609789, 26.856021749], [89.388255181, 26.856323647], [89.388609708, 26.856826693], [89.388436914, 26.85718815], [89.388591406, 26.857342058], [89.389584007, 26.857611033], [89.388556524, 26.858052383], [89.388075342, 26.857994578], [89.387347829, 26.857531707], [89.386972218, 26.858059454], [89.387064507, 26.858227024], [89.388688073, 26.859585351], [89.389366839, 26.860451999], [89.390403676, 26.86116695], [89.390591019, 26.860875752], [89.390955991, 26.861359138], [89.391591094, 26.861682284], [89.392240319, 26.862270174], [89.393016784, 26.862301371], [89.393248802, 26.862483469], [89.393632653, 26.86332097], [89.394333169, 26.863031424], [89.394744722, 26.861584372], [89.39525921, 26.86122437], [89.395786192, 26.861435587], [89.395850393, 26.861045796], [89.39661324, 26.860714712], [89.396953025, 26.861078365], [89.397310264, 26.861079889], [89.397003462, 26.860354173], [89.397415118, 26.858879252], [89.39728323, 26.857388082], [89.397625884, 26.85720844], [89.397865126, 26.856025331], [89.397539483, 26.855926427], [89.397713352, 26.855356], [89.397314395, 26.854868733], [89.398445712, 26.853806255], [89.398521872, 26.85335513], [89.398182252, 26.852963619], [89.39797979, 26.85233456], [89.398275636, 26.851458171], [89.398718257, 26.851461359], [89.398874743, 26.85123913], [89.39871072, 26.850683372], [89.398929144, 26.850496233], [89.399282515, 26.850488592], [89.399906387, 26.849989727], [89.400120143, 26.850687181], [89.399838974, 26.850992468], [89.400984142, 26.851777456], [89.401737652, 26.850992242], [89.40158003, 26.850693366], [89.40185534, 26.849884099], [89.402175686, 26.849651065], [89.402087847, 26.848633735], [89.402305931, 26.848509278], [89.402369736, 26.848189136], [89.401796577, 26.847908094], [89.401393965, 26.844730136], [89.400126387, 26.84361029], [89.399541255, 26.842660503], [89.397498426, 26.841314445], [89.389947252, 26.842006489]]]}, "properties": {"saz_id": 102, "town": "Phuentsholing", "db_town": "Phuentshogling Thromde", "dzongkhag": "Chhukha", "lap_name": "Lap 6", "area_code": "18", "zone_type": "lap", "local_area_group": "Rinchending", "division": null, "index": 67.63, "has_data": true, "category": "High Liveable", "color": "#91cf60"}}, {"type": "Feature", "geometry": {"type": "Polygon", "coordinates": [[[89.393657057, 26.86352329], [89.393779534, 26.863858157], [89.394927604, 26.864113831], [89.395512953, 26.865035775], [89.39622568, 26.865373162], [89.396657047, 26.866043687], [89.397823079, 26.868779115], [89.398131825, 26.869142633], [89.398906276, 26.869563855], [89.399182783, 26.870150128], [89.398869759, 26.870594586], [89.398833977, 26.871486011], [89.399174095, 26.871793937], [89.399231518, 26.872685758], [89.399758046, 26.872994474], [89.401124429, 26.873111718], [89.402274368, 26.873033], [89.402337528, 26.872838235], [89.402897621, 26.872673431], [89.401850564, 26.870913711], [89.400614497, 26.869654694], [89.399319857, 26.867726735], [89.39867469, 26.866358764], [89.399361373, 26.865748724], [89.398523341, 26.865605851], [89.398121997, 26.865130492], [89.397533674, 26.864765783], [89.396041507, 26.864954449], [89.395642397, 26.864061165], [89.39682612, 26.863453261], [89.396828927, 26.862923899], [89.397425358, 26.861756246], [89.397211156, 26.861142373], [89.396281594, 26.860692618], [89.395751432, 26.861080418], [89.395749804, 26.861386891], [89.395347153, 26.861162275], [89.394848791, 26.861410899], [89.394657807, 26.862273798], [89.394408104, 26.862495623], [89.394249813, 26.863052181], [89.393845229, 26.863189755], [89.393657057, 26.86352329]]]}, "properties": {"saz_id": 103, "town": "Phuentsholing", "db_town": "Phuentshogling Thromde", "dzongkhag": "Chhukha", "lap_name": "Lap 7", "area_code": "19", "zone_type": "lap", "local_area_group": "Kareyphu LAP", "division": null, "index": null, "has_data": false, "category": "Data not available", "color": "#FFFFFF"}}, {"type": "Feature", "geometry": {"type": "Polygon", "coordinates": [[[89.407727261, 26.840593781], [89.397395945, 26.841364236], [89.39778083, 26.841632305], [89.397322287, 26.841710455], [89.399321288, 26.842533918], [89.399812259, 26.842933034], [89.400874247, 26.844384614], [89.401335416, 26.845285112], [89.40161513, 26.8478374], [89.402190634, 26.848411002], [89.401971525, 26.848730488], [89.402126229, 26.849584412], [89.40151169, 26.850525633], [89.401636851, 26.851090366], [89.400926259, 26.851836145], [89.401800401, 26.851738846], [89.402480474, 26.850888452], [89.403100014, 26.85047314], [89.403245645, 26.850097619], [89.403933879, 26.849908971], [89.404371799, 26.850067539], [89.404497648, 26.850503411], [89.404138016, 26.8509651], [89.404207138, 26.851482577], [89.405017083, 26.851409367], [89.406397842, 26.850955449], [89.407065913, 26.851283016], [89.407049747, 26.851777497], [89.407221158, 26.852041162], [89.40759155, 26.852121076], [89.408269028, 26.851948469], [89.408468119, 26.852303235], [89.408708324, 26.852405239], [89.409200443, 26.851850058], [89.408769134, 26.850790375], [89.409289285, 26.850443404], [89.409833492, 26.85032378], [89.410659166, 26.850584946], [89.411276963, 26.850500451], [89.411897077, 26.851094226], [89.412494366, 26.850845951], [89.414753654, 26.850940646], [89.415227281, 26.850576918], [89.415276539, 26.85043607], [89.414717189, 26.850103767], [89.413795975, 26.850298468], [89.413478367, 26.850147393], [89.412598335, 26.849321379], [89.412340589, 26.848669471], [89.411320533, 26.847707476], [89.411270096, 26.84694977], [89.40996115, 26.845547737], [89.409510565, 26.844838861], [89.408593573, 26.842733196], [89.408100649, 26.841957095], [89.407727261, 26.840593781]]]}, "properties": {"saz_id": 104, "town": "Phuentsholing", "db_town": "Phuentshogling Thromde", "dzongkhag": "Chhukha", "lap_name": "Lap 8", "area_code": "20", "zone_type": "lap", "local_area_group": "Ahlay LAP", "division": null, "index": null, "has_data": false, "category": "Data not available", "color": "#FFFFFF"}}, {"type": "Feature", "geometry": {"type": "Polygon", "coordinates": [[[89.418390312, 26.844303177], [89.420135721, 26.844644687], [89.420283752, 26.844547777], [89.420340697, 26.84403953], [89.420598535, 26.843727139], [89.420267589, 26.843147648], [89.420782729, 26.842627346], [89.420252191, 26.841978253], [89.420620376, 26.840961929], [89.421156283, 26.840936261], [89.421719412, 26.840137533], [89.422482045, 26.839806305], [89.422670516, 26.839389144], [89.4235026, 26.83914178], [89.423838487, 26.838746115], [89.425462373, 26.838536789], [89.42592013, 26.838608303], [89.426140347, 26.838051956], [89.429704101, 26.838099454], [89.430591067, 26.838517474], [89.431260066, 26.839047802], [89.433299036, 26.83968288], [89.434390322, 26.840397729], [89.436103284, 26.841017532], [89.439220697, 26.841844889], [89.4397775, 26.842306819], [89.440112311, 26.84290979], [89.439964919, 26.84209163], [89.439542585, 26.84152314], [89.439450507, 26.840905457], [89.439687015, 26.840181981], [89.439180011, 26.840646661], [89.432150008, 26.838093621], [89.422858341, 26.836036024], [89.413823289, 26.840378428], [89.407719113, 26.840574156], [89.408130365, 26.842122214], [89.408807949, 26.843225594], [89.409467126, 26.844886132], [89.411269527, 26.846965876], [89.411273581, 26.847683337], [89.412324571, 26.84866984], [89.412594929, 26.849323106], [89.413786749, 26.8502993], [89.414713788, 26.850104624], [89.415275056, 26.850441288], [89.415104219, 26.850062705], [89.413869815, 26.849814238], [89.413799319, 26.849178346], [89.413228155, 26.848503808], [89.413395318, 26.847710437], [89.413717084, 26.84742967], [89.414454164, 26.847551136], [89.415555287, 26.84709771], [89.416620145, 26.847089482], [89.417162802, 26.846888849], [89.417383186, 26.847259363], [89.41792094, 26.847637714], [89.418374799, 26.848478051], [89.419652692, 26.849144151], [89.420312066, 26.849279199], [89.420580624, 26.849151438], [89.420410021, 26.848342743], [89.419818983, 26.847751736], [89.419670883, 26.847099856], [89.419415877, 26.846855017], [89.419232731, 26.846223889], [89.418858148, 26.845826188], [89.418789229, 26.845256477], [89.418390312, 26.844303177]]]}, "properties": {"saz_id": 105, "town": "Phuentsholing", "db_town": "Phuentshogling Thromde", "dzongkhag": "Chhukha", "lap_name": "Lap 9", "area_code": "21", "zone_type": "lap", "local_area_group": "Pasakha Lap", "division": null, "index": 68.45, "has_data": true, "category": "High Liveable", "color": "#91cf60"}}, {"type": "Feature", "geometry": {"type": "Polygon", "coordinates": [[[89.443168467, 26.840517829], [89.443180235, 26.839699428], [89.443410902, 26.838577147], [89.442391897, 26.838156945], [89.441165716, 26.839607898], [89.440866143, 26.840526161], [89.440715088, 26.841243011], [89.440864704, 26.842399876], [89.441411854, 26.842171856], [89.440069078, 26.842736297], [89.440523028, 26.843587885], [89.441442132, 26.84459455], [89.441351212, 26.845715637], [89.440786103, 26.846939332], [89.442903938, 26.846850589], [89.440836542, 26.846946497], [89.440770433, 26.847757716], [89.441877088, 26.849322359], [89.442051199, 26.850239009], [89.442432246, 26.850717331], [89.44256765, 26.851419086], [89.443697865, 26.852147948], [89.443634106, 26.852482041], [89.442894391, 26.85447126], [89.440634264, 26.856106194], [89.44007218, 26.856703001], [89.439836118, 26.857328961], [89.440360016, 26.858180825], [89.440308759, 26.859127928], [89.440802152, 26.859868222], [89.441158226, 26.860106457], [89.441856145, 26.860318178], [89.442557345, 26.859861222], [89.442836581, 26.859931978], [89.442772405, 26.860349654], [89.445690548, 26.860751193], [89.447523416, 26.860744436], [89.44796136, 26.860119252], [89.448233719, 26.858406804], [89.449043739, 26.857922378], [89.448766327, 26.857475505], [89.44877193, 26.856319254], [89.448108599, 26.85538329], [89.448034659, 26.854616797], [89.447600254, 26.854517584], [89.447138714, 26.853610265], [89.446009615, 26.852644608], [89.446107413, 26.851697683], [89.445816057, 26.850930337], [89.44650077, 26.850654398], [89.448490202, 26.850355689], [89.448239795, 26.850342582], [89.448488269, 26.85035394], [89.448722952, 26.849999614], [89.449151127, 26.849778386], [89.449593853, 26.849759214], [89.451321424, 26.849006687], [89.451418939, 26.848736176], [89.451337072, 26.848982368], [89.453235137, 26.848296651], [89.454038764, 26.849125168], [89.455190947, 26.849331611], [89.455395662, 26.849555296], [89.455955017, 26.849505207], [89.456114639, 26.84941527], [89.455876693, 26.848021253], [89.455631187, 26.847396895], [89.454479247, 26.846333699], [89.454170338, 26.845169267], [89.453932176, 26.843219745], [89.453275641, 26.841885926], [89.452726482, 26.841438009], [89.449284576, 26.840254445], [89.448857902, 26.841924348], [89.44926524, 26.840238697], [89.447109663, 26.839610358], [89.444499215, 26.839438], [89.443418768, 26.838556282], [89.44317234, 26.840519585], [89.44300453, 26.840710399], [89.443168467, 26.840517829]]]}, "properties": {"saz_id": 107, "town": "Phuentsholing", "db_town": "Phuentshogling Thromde", "dzongkhag": "Chhukha", "lap_name": "Lap 10", "area_code": "22", "zone_type": "lap", "local_area_group": "Pasakha Lap", "division": null, "index": 68.45, "has_data": true, "category": "High Liveable", "color": "#91cf60"}}, {"type": "Feature", "geometry": {"type": "Polygon", "coordinates": [[[89.462772882, 26.835542766], [89.463016962, 26.834826243], [89.462747871, 26.834261014], [89.462353075, 26.834008755], [89.461662415, 26.833929508], [89.460565208, 26.834440778], [89.457698679, 26.834743268], [89.455825534, 26.833517109], [89.451144221, 26.833062116], [89.446846785, 26.833956815], [89.44513138, 26.835440718], [89.445130023, 26.835719334], [89.445933655, 26.836516552], [89.446993054, 26.839010868], [89.447874504, 26.839780517], [89.452758215, 26.841471218], [89.453438306, 26.842142537], [89.45373083, 26.842673046], [89.454048602, 26.844415651], [89.454545695, 26.844389707], [89.454303828, 26.843009602], [89.453441049, 26.841571375], [89.45243304, 26.840711627], [89.451831362, 26.839639182], [89.451941007, 26.839444572], [89.4516485, 26.83891406], [89.452024755, 26.838177173], [89.455208963, 26.83803623], [89.455626118, 26.838483629], [89.456992222, 26.838586397], [89.457630115, 26.838338085], [89.459648445, 26.838443326], [89.460645416, 26.837792371], [89.460572497, 26.836917203], [89.460679412, 26.837377182], [89.461053099, 26.83716964], [89.46202202, 26.83587774], [89.462772882, 26.835542766]]]}, "properties": {"saz_id": 108, "town": "Phuentsholing", "db_town": "Phuentshogling Thromde", "dzongkhag": "Chhukha", "lap_name": "Lap 11", "area_code": "23", "zone_type": "lap", "local_area_group": "Pekarzhing LAP", "division": null, "index": null, "has_data": false, "category": "Data not available", "color": "#FFFFFF"}}, {"type": "Feature", "geometry": {"type": "MultiPolygon", "coordinates": [[[[89.455746708, 26.849552545], [89.455692366, 26.850000489], [89.458704595, 26.853432115], [89.459980699, 26.854537544], [89.4611903, 26.854932226], [89.462861576, 26.854590309], [89.462832881, 26.854088684], [89.461868235, 26.852803362], [89.461354437, 26.851429201], [89.460298495, 26.849753453], [89.457798776, 26.84959065], [89.457511212, 26.848826824], [89.457460525, 26.848972905], [89.457739924, 26.848089357], [89.457571579, 26.847566298], [89.455746283, 26.846033839], [89.455287375, 26.846192279], [89.455117809, 26.845926936], [89.455058957, 26.84524409], [89.454485778, 26.844942363], [89.45452684, 26.844475832], [89.454061074, 26.844446173], [89.454275964, 26.845784381], [89.454594777, 26.846503058], [89.455646538, 26.847405661], [89.456110727, 26.849392617], [89.456444607, 26.849429967], [89.455746708, 26.849552545]]]]}, "properties": {"saz_id": 109, "town": "Phuentsholing", "db_town": "Phuentshogling Thromde", "dzongkhag": "Chhukha", "lap_name": "Lap 11a", "area_code": "24", "zone_type": "lap", "local_area_group": "Pasakha Industrail Estate", "division": null, "index": null, "has_data": false, "category": "Data not available", "color": "#FFFFFF"}}]}