{"type": "FeatureCollection", "features": [{"type": "Feature", "geometry": {"type": "Polygon", "coordinates": [[[91.506332753, 26.793206071], [91.502221358, 26.792555448], [91.50149532, 26.792740973], [91.501012203, 26.792343375], [91.49985063, 26.792204009], [91.499917842, 26.792883215], [91.500518372, 26.792903003], [91.500938035, 26.793792908], [91.501579041, 26.794230673], [91.501461423, 26.794592799], [91.501592071, 26.795392731], [91.501316634, 26.796100612], [91.501541525, 26.796582014], [91.501474593, 26.796810234], [91.501780744, 26.797044958], [91.501970736, 26.796867733], [91.502729125, 26.796702783], [91.504347804, 26.796587529], [91.505349839, 26.796116628], [91.504515614, 26.795612942], [91.504645433, 26.795455967], [91.504522933, 26.79561548], [91.505403016, 26.796061146], [91.505615585, 26.79582876], [91.506156484, 26.794421335], [91.506672702, 26.793793458], [91.506281804, 26.793761006], [91.505774019, 26.793703645], [91.506573504, 26.793784053], [91.507165171, 26.793573782], [91.506332753, 26.793206071]]]}, "properties": {"saz_id": 1502, "town": "Samdrup Jongkhar", "db_town": "Samdrupjongkhar Thromde", "dzongkhag": "Samdrup Jongkhar", "lap_name": "Lap 1", "area_code": "01", "zone_type": "lap", "local_area_group": "Core", "division": null, "index": 70.104, "has_data": true, "category": "High Liveable", "color": "#92D050"}}, {"type": "Feature", "geometry": {"type": "Polygon", "coordinates": [[[91.50454147, 26.798366485], [91.504517864, 26.797262941], [91.504215329, 26.796610776], [91.502458385, 26.796771464], [91.501774609, 26.797042493], [91.501450705, 26.796826792], [91.501178599, 26.798055216], [91.501339245, 26.798321346], [91.502569856, 26.798024226], [91.503050216, 26.797987339], [91.501339325, 26.798327432], [91.501540801, 26.798860961], [91.502225245, 26.799669374], [91.50224862, 26.800413782], [91.501802833, 26.800558515], [91.50146422, 26.800943566], [91.501190509, 26.80144967], [91.501135993, 26.802074684], [91.500249226, 26.802043503], [91.499939692, 26.802233454], [91.500060991, 26.802516234], [91.499741376, 26.803315003], [91.498698501, 26.804137663], [91.498713426, 26.80492883], [91.498238083, 26.805579095], [91.498314271, 26.80587047], [91.499100749, 26.806182731], [91.499271921, 26.805787285], [91.499598912, 26.805548453], [91.500239094, 26.806255891], [91.500811454, 26.806448669], [91.500928876, 26.806264811], [91.500799353, 26.805529644], [91.500904632, 26.805110546], [91.501241382, 26.804926391], [91.501716964, 26.804982218], [91.50284913, 26.804759183], [91.502751468, 26.804179289], [91.502886565, 26.803825429], [91.504342574, 26.803298647], [91.504343976, 26.802890797], [91.505474388, 26.801852088], [91.505099338, 26.801415031], [91.505474335, 26.801848031], [91.505848841, 26.801442299], [91.506007704, 26.80114437], [91.505916883, 26.800431116], [91.50454147, 26.798366485]]]}, "properties": {"saz_id": 128, "town": "Samdrup Jongkhar", "db_town": "Samdrupjongkhar Thromde", "dzongkhag": "Samdrup Jongkhar", "lap_name": "Lap 2", "area_code": "02", "zone_type": "lap", "local_area_group": "Service Center", "division": null, "index": 67.635, "has_data": true, "category": "High Liveable", "color": "#92D050"}}, {"type": "Feature", "geometry": {"type": "Polygon", "coordinates": [[[91.506447929, 26.80148282], [91.506678804, 26.800871054], [91.505887056, 26.800497679], [91.505986327, 26.801173924], [91.506112207, 26.801225168], [91.505986344, 26.801175231], [91.505660775, 26.80167817], [91.50434275, 26.802885303], [91.504342375, 26.803298487], [91.502886478, 26.803831733], [91.502790751, 26.804528355], [91.502834647, 26.804763245], [91.503006608, 26.804774634], [91.501253592, 26.804936761], [91.500917791, 26.805107686], [91.50079509, 26.805527397], [91.50092725, 26.806268673], [91.500801932, 26.806489667], [91.501540224, 26.806785184], [91.502156787, 26.807573621], [91.502330794, 26.807509013], [91.502899502, 26.808203811], [91.503145099, 26.808263965], [91.504206208, 26.807844743], [91.505251521, 26.806557642], [91.506335497, 26.806661014], [91.506615388, 26.806229166], [91.506031948, 26.805743744], [91.506082026, 26.804681497], [91.506431754, 26.804683006], [91.508653564, 26.803890518], [91.508524112, 26.803797756], [91.508577958, 26.803462455], [91.507552618, 26.802615639], [91.507157176, 26.802682611], [91.506494679, 26.801946985], [91.506447929, 26.80148282]]]}, "properties": {"saz_id": 129, "town": "Samdrup Jongkhar", "db_town": "Samdrupjongkhar Thromde", "dzongkhag": "Samdrup Jongkhar", "lap_name": "Lap 3a", "area_code": "03", "zone_type": "lap", "local_area_group": "Service Center", "division": null, "index": 67.635, "has_data": true, "category": "High Liveable", "color": "#92D050"}}, {"type": "Feature", "geometry": {"type": "Polygon", "coordinates": [[[91.506301469, 26.794327745], [91.50572229, 26.795712128], [91.505958183, 26.796111368], [91.505850578, 26.796226519], [91.50595704, 26.796110366], [91.50571189, 26.795694992], [91.50533304, 26.796112943], [91.504193287, 26.796611011], [91.504496247, 26.797252518], [91.50442918, 26.797995858], [91.505619639, 26.800009702], [91.506120067, 26.79975571], [91.50563093, 26.800008567], [91.506090713, 26.800667171], [91.506667548, 26.80085785], [91.506406764, 26.801656006], [91.506510528, 26.801979548], [91.507162141, 26.802694948], [91.507556789, 26.802615671], [91.508547234, 26.803475575], [91.508652509, 26.803912724], [91.509036644, 26.80355152], [91.508845017, 26.803423705], [91.509040595, 26.800946201], [91.509658481, 26.799967707], [91.509818772, 26.799095542], [91.509241876, 26.798387474], [91.50911581, 26.798429725], [91.509237341, 26.798386508], [91.508579674, 26.797286522], [91.509323559, 26.796487428], [91.509553146, 26.795726122], [91.509060869, 26.795431072], [91.509570874, 26.795015771], [91.509246972, 26.79445921], [91.509447862, 26.793921404], [91.509881257, 26.793868086], [91.509792408, 26.793304962], [91.508271939, 26.79373306], [91.507094331, 26.793416895], [91.507139911, 26.793615255], [91.506435059, 26.794000156], [91.506173905, 26.794427003], [91.506299161, 26.794324219], [91.506431766, 26.794337664], [91.506301469, 26.794327745]]]}, "properties": {"saz_id": 130, "town": "Samdrup Jongkhar", "db_town": "Samdrupjongkhar Thromde", "dzongkhag": "Samdrup Jongkhar", "lap_name": "Lap 3b", "area_code": "04", "zone_type": "lap", "local_area_group": "Football ground side a and b", "division": null, "index": 67.75, "has_data": true, "category": "High Liveable", "color": "#92D050"}}, {"type": "Feature", "geometry": {"type": "Polygon", "coordinates": [[[91.493334555, 26.81132154], [91.494086204, 26.81256969], [91.495197976, 26.813243084], [91.496057583, 26.81301831], [91.495923676, 26.812512217], [91.495450122, 26.811984339], [91.495419681, 26.81181972], [91.495786773, 26.811777778], [91.49677047, 26.812389075], [91.498081154, 26.812058016], [91.498718206, 26.81211471], [91.500053219, 26.812826936], [91.500233661, 26.812301657], [91.500131855, 26.812087045], [91.501530767, 26.813087225], [91.502352626, 26.813218067], [91.502574155, 26.812860461], [91.502400649, 26.812570486], [91.502590219, 26.81193409], [91.502466346, 26.811386664], [91.502915668, 26.811147171], [91.503514296, 26.811239143], [91.504376105, 26.810915965], [91.504528953, 26.809908843], [91.505054155, 26.80925936], [91.505557219, 26.809342824], [91.505861992, 26.809133407], [91.505324484, 26.808047985], [91.504077695, 26.807858236], [91.50292276, 26.808200384], [91.502319447, 26.807483591], [91.502150966, 26.807574192], [91.501631651, 26.806793066], [91.500124561, 26.806161974], [91.499536415, 26.805521133], [91.499106333, 26.806147386], [91.498324938, 26.805863842], [91.498236446, 26.805585649], [91.497815659, 26.805843856], [91.498317472, 26.806371429], [91.498115081, 26.807109457], [91.498232851, 26.807463466], [91.497983043, 26.807821365], [91.496780534, 26.808849102], [91.495989651, 26.808920902], [91.495391203, 26.80857197], [91.495174153, 26.809272087], [91.494796924, 26.809618639], [91.494809319, 26.810294128], [91.494494874, 26.810306964], [91.49431474, 26.810587996], [91.493848352, 26.810605607], [91.493470283, 26.810888726], [91.493334555, 26.81132154]]]}, "properties": {"saz_id": 131, "town": "Samdrup Jongkhar", "db_town": "Samdrupjongkhar Thromde", "dzongkhag": "Samdrup Jongkhar", "lap_name": "Lap 4", "area_code": "05", "zone_type": "lap", "local_area_group": "Behind Dzong", "division": null, "index": null, "has_data": false, "category": "Data not available", "color": "#FFFFFF"}}, {"type": "Feature", "geometry": {"type": "Polygon", "coordinates": [[[91.451567874, 26.8597231], [91.45266279, 26.859058433], [91.453805233, 26.858792933], [91.454859873, 26.858851866], [91.455182988, 26.859229173], [91.456841126, 26.858362015], [91.457928194, 26.858192211], [91.458331633, 26.858765342], [91.4590299, 26.858612228], [91.460343546, 26.859562932], [91.461256952, 26.860739796], [91.462004673, 26.861131728], [91.462378222, 26.861578278], [91.464633617, 26.861675052], [91.465746706, 26.862253902], [91.466123092, 26.862370531], [91.466130857, 26.86187563], [91.465340152, 26.861991675], [91.466341264, 26.861188311], [91.466602973, 26.860640024], [91.466461157, 26.860064205], [91.46582086, 26.859227112], [91.465834309, 26.858624306], [91.465549342, 26.857916749], [91.464530071, 26.857857529], [91.463078535, 26.85828491], [91.462959181, 26.857804012], [91.463139218, 26.857503987], [91.4629659, 26.857226651], [91.461409896, 26.857230057], [91.460980541, 26.857393091], [91.460233893, 26.856531695], [91.460271819, 26.855078557], [91.459889856, 26.855076158], [91.45861099, 26.855730089], [91.45788307, 26.855775661], [91.457353, 26.856358419], [91.456789762, 26.856560884], [91.4560998, 26.856257142], [91.455569485, 26.856268947], [91.455474292, 26.856568089], [91.455131417, 26.856857093], [91.454406408, 26.857130997], [91.451883962, 26.857334554], [91.450005072, 26.858641647], [91.450191015, 26.859356598], [91.451567874, 26.8597231]]]}, "properties": {"saz_id": 132, "town": "Samdrup Jongkhar", "db_town": "Samdrupjongkhar Thromde", "dzongkhag": "Samdrup Jongkhar", "lap_name": "Lap 5a", "area_code": "06", "zone_type": "lap", "local_area_group": "Deothang 5a, 5b, 5ba, 5c", "division": null, "index": 65.5425, "has_data": true, "category": "High Liveable", "color": "#92D050"}}, {"type": "Feature", "geometry": {"type": "Polygon", "coordinates": [[[91.468345395, 26.856154315], [91.468716198, 26.855517617], [91.468349678, 26.854679373], [91.467504351, 26.85469338], [91.467011002, 26.854871095], [91.466449471, 26.854735706], [91.465688062, 26.854021843], [91.465100484, 26.854127306], [91.464725411, 26.855339354], [91.464380237, 26.85570381], [91.463926327, 26.856681317], [91.463893323, 26.857288355], [91.463718409, 26.857290166], [91.463135478, 26.858211475], [91.46424993, 26.858037802], [91.464527369, 26.857846643], [91.464951863, 26.857980843], [91.465569118, 26.857914299], [91.465861165, 26.858630415], [91.465810409, 26.859216716], [91.466220673, 26.859829617], [91.467242741, 26.858315927], [91.467338117, 26.858482176], [91.467243572, 26.858321878], [91.466207874, 26.859854593], [91.466443322, 26.860024745], [91.466625966, 26.860645822], [91.466341884, 26.861202578], [91.465337259, 26.861981825], [91.466134781, 26.861874183], [91.466129593, 26.86237633], [91.467393586, 26.863168654], [91.468201875, 26.863442687], [91.46889093, 26.863966386], [91.470130133, 26.86509367], [91.470313039, 26.865708922], [91.470627554, 26.86612929], [91.471446111, 26.866293365], [91.471895571, 26.865875505], [91.472098507, 26.865334689], [91.472439547, 26.865101011], [91.47297273, 26.86484441], [91.474098347, 26.864853595], [91.474504329, 26.863782416], [91.473962273, 26.863578865], [91.474274828, 26.863622676], [91.474297913, 26.863379235], [91.474823221, 26.863415596], [91.474483478, 26.863073952], [91.473892068, 26.862886606], [91.472810777, 26.862921412], [91.471555791, 26.86260237], [91.471370742, 26.862722847], [91.471714786, 26.862271217], [91.469947534, 26.860867414], [91.471727914, 26.862271734], [91.472787404, 26.862129946], [91.474321107, 26.862582053], [91.475546058, 26.862383602], [91.476151094, 26.862497578], [91.476830838, 26.862302193], [91.477424507, 26.861990027], [91.477809553, 26.861554518], [91.478019388, 26.861547094], [91.479061962, 26.862571751], [91.479220785, 26.862677307], [91.479411428, 26.862539328], [91.479411248, 26.86230136], [91.478538084, 26.861748259], [91.478181942, 26.860818408], [91.477898614, 26.860779529], [91.47777594, 26.859865541], [91.47835296, 26.859843817], [91.478377225, 26.85969189], [91.478126063, 26.859435626], [91.478012244, 26.858754285], [91.477589595, 26.858539039], [91.477510788, 26.858756912], [91.477727977, 26.85886709], [91.47751829, 26.859109867], [91.476993466, 26.858660331], [91.476691663, 26.859892562], [91.476431155, 26.860039112], [91.476315555, 26.85966898], [91.475839552, 26.859611189], [91.475857753, 26.85944102], [91.475402395, 26.859401318], [91.475265986, 26.859224917], [91.474893733, 26.859257567], [91.475058865, 26.858879275], [91.474241477, 26.85857661], [91.474060292, 26.858319608], [91.473467586, 26.858030285], [91.473237653, 26.858286342], [91.472373084, 26.858167212], [91.471702455, 26.857713944], [91.471426253, 26.85777435], [91.47132665, 26.858188567], [91.471190142, 26.858229214], [91.470165101, 26.858101279], [91.470095423, 26.858575331], [91.469808834, 26.858057913], [91.469145938, 26.857750995], [91.46910375, 26.85741932], [91.468512006, 26.857203188], [91.468391011, 26.856187184], [91.466930394, 26.857094381], [91.468345395, 26.856154315]]]}, "properties": {"saz_id": 133, "town": "Samdrup Jongkhar", "db_town": "Samdrupjongkhar Thromde", "dzongkhag": "Samdrup Jongkhar", "lap_name": "Lap 5b", "area_code": "07", "zone_type": "lap", "local_area_group": "Deothang 5a, 5b, 5ba, 5c", "division": null, "index": 65.5425, "has_data": true, "category": "High Liveable", "color": "#92D050"}}, {"type": "Feature", "geometry": {"type": "Polygon", "coordinates": [[[91.465685163, 26.854014658], [91.465767796, 26.854115303], [91.466558652, 26.854015116], [91.467076432, 26.852484045], [91.467489594, 26.852438522], [91.468600793, 26.851678409], [91.468706937, 26.851134907], [91.468422, 26.850703312], [91.468558013, 26.85055599], [91.469191697, 26.851431204], [91.467813304, 26.852860201], [91.468919208, 26.851963747], [91.469409376, 26.851857152], [91.469774778, 26.851399768], [91.469628101, 26.850995286], [91.469785081, 26.850828714], [91.470941603, 26.851114848], [91.471522302, 26.850899459], [91.471932734, 26.851190176], [91.472188965, 26.850768814], [91.472480131, 26.850860939], [91.47274647, 26.850674194], [91.472883124, 26.851123184], [91.472475523, 26.851051303], [91.472210414, 26.851333193], [91.472447554, 26.851622541], [91.473142753, 26.851510626], [91.473503614, 26.85124994], [91.474065681, 26.851507351], [91.474577674, 26.851175304], [91.474544496, 26.850525405], [91.474890055, 26.850176061], [91.474022973, 26.849848879], [91.47417349, 26.849729948], [91.474564108, 26.849855924], [91.475155071, 26.849615038], [91.475075352, 26.849466789], [91.475382384, 26.849146393], [91.474372854, 26.848468615], [91.474674789, 26.847209383], [91.475029507, 26.847294497], [91.475283828, 26.847000027], [91.475291062, 26.846467068], [91.475728493, 26.846113592], [91.476174394, 26.846140657], [91.476386199, 26.845840285], [91.476278402, 26.845708189], [91.476441902, 26.845500307], [91.476342322, 26.844911368], [91.475788342, 26.844730007], [91.477317394, 26.844298519], [91.477937506, 26.843854314], [91.479085275, 26.843471199], [91.479082521, 26.841082768], [91.478808624, 26.840413184], [91.479690846, 26.839461895], [91.480661713, 26.839074275], [91.480639443, 26.838449639], [91.48022073, 26.838063874], [91.479118631, 26.837875573], [91.478717263, 26.837191461], [91.479989778, 26.833898379], [91.479620815, 26.833258337], [91.479835878, 26.831850923], [91.479716673, 26.830840325], [91.479432616, 26.830475352], [91.480065788, 26.828594118], [91.480796177, 26.828209015], [91.480970468, 26.828289661], [91.481166617, 26.828148043], [91.481104995, 26.828031326], [91.481453109, 26.827884945], [91.481315505, 26.827363017], [91.480478161, 26.826591487], [91.480539667, 26.825883503], [91.481003965, 26.825428229], [91.481093623, 26.824710434], [91.481734991, 26.82427868], [91.482046505, 26.823222337], [91.484629661, 26.820416646], [91.485212576, 26.820385154], [91.486523588, 26.820882067], [91.487674507, 26.820489341], [91.489912344, 26.821569625], [91.490359165, 26.822484778], [91.491525383, 26.822450286], [91.49160436, 26.819842132], [91.493384484, 26.818637057], [91.495082183, 26.816811135], [91.495063092, 26.816433878], [91.494731576, 26.815955248], [91.495864159, 26.815518243], [91.49597871, 26.814819209], [91.495710532, 26.814587322], [91.496085838, 26.813016425], [91.495201365, 26.813231947], [91.495294974, 26.81363062], [91.495527095, 26.813808967], [91.495119456, 26.814263687], [91.495193689, 26.81480213], [91.494715684, 26.815013354], [91.493727483, 26.814329137], [91.493246983, 26.814350067], [91.493092287, 26.814954365], [91.493359502, 26.815652541], [91.494349833, 26.816228893], [91.494549649, 26.816639133], [91.493989839, 26.817352383], [91.492466154, 26.818700669], [91.490908274, 26.819059659], [91.490389734, 26.819417205], [91.490227317, 26.820243616], [91.487677132, 26.819607517], [91.486324464, 26.819710546], [91.484599215, 26.819436839], [91.481859691, 26.822450342], [91.48093465, 26.824176042], [91.48022025, 26.824973329], [91.479635943, 26.825988115], [91.479790962, 26.827578803], [91.478106352, 26.827992905], [91.477446783, 26.828659557], [91.477674273, 26.829297911], [91.478750826, 26.828886999], [91.479059623, 26.829251715], [91.478709298, 26.830045188], [91.478605111, 26.830734586], [91.479051462, 26.831345274], [91.479146171, 26.832647947], [91.478572732, 26.832869633], [91.478224975, 26.833317338], [91.479389857, 26.833987125], [91.478751663, 26.835484604], [91.477875802, 26.836924298], [91.47703399, 26.83771973], [91.476062381, 26.838050238], [91.475723479, 26.838364623], [91.475965616, 26.83904089], [91.477203267, 26.839592572], [91.477786571, 26.839583306], [91.477797472, 26.839878182], [91.47740616, 26.840513483], [91.477614846, 26.841063219], [91.478059794, 26.841562906], [91.478050849, 26.842235447], [91.477696699, 26.843009926], [91.475862415, 26.843352617], [91.473355406, 26.844447699], [91.473161889, 26.844795455], [91.471457089, 26.845583984], [91.471056949, 26.845540568], [91.470342004, 26.845763695], [91.470060558, 26.84560168], [91.46910516, 26.845551342], [91.468903995, 26.84640351], [91.468381685, 26.846757847], [91.4681111, 26.847163492], [91.468210436, 26.84773658], [91.46844678, 26.847965677], [91.467530834, 26.848508071], [91.469085622, 26.848967716], [91.469604527, 26.848622927], [91.469901381, 26.849155898], [91.469306818, 26.849666414], [91.469164583, 26.850153197], [91.46828958, 26.850580981], [91.468535607, 26.851285767], [91.468447402, 26.851575329], [91.467514689, 26.852190851], [91.4668904, 26.852317863], [91.466401641, 26.853905727], [91.465685163, 26.854014658]]]}, "properties": {"saz_id": 134, "town": "Samdrup Jongkhar", "db_town": "Samdrupjongkhar Thromde", "dzongkhag": "Samdrup Jongkhar", "lap_name": "Lap 5ba", "area_code": "08", "zone_type": "lap", "local_area_group": "Deothang 5a, 5b, 5ba, 5c", "division": null, "index": 65.5425, "has_data": true, "category": "High Liveable", "color": "#92D050"}}, {"type": "Feature", "geometry": {"type": "Polygon", "coordinates": [[[91.474297657, 26.862572491], [91.472769818, 26.862122938], [91.471693107, 26.862285826], [91.471581367, 26.862663558], [91.471788352, 26.862886298], [91.473876017, 26.862885466], [91.474487854, 26.863063056], [91.475855736, 26.863846351], [91.474695741, 26.863197261], [91.474778051, 26.863473599], [91.474304405, 26.863373937], [91.474278438, 26.863620024], [91.473997274, 26.863523584], [91.474040259, 26.863690499], [91.47451994, 26.863805789], [91.474090364, 26.864856294], [91.474864775, 26.864764533], [91.475288257, 26.86504254], [91.475752168, 26.866413218], [91.476518903, 26.867525762], [91.47762134, 26.868273261], [91.479588101, 26.868833227], [91.479724097, 26.868528456], [91.479562032, 26.868174506], [91.479634884, 26.867499059], [91.479354195, 26.866543767], [91.480197612, 26.867048607], [91.481368221, 26.867376299], [91.481675382, 26.867676426], [91.482102677, 26.867797468], [91.482450419, 26.867631687], [91.482952151, 26.867647344], [91.483173887, 26.867909659], [91.482991199, 26.868517093], [91.483197367, 26.869121622], [91.483468459, 26.869338441], [91.484531752, 26.869484179], [91.485917442, 26.87020183], [91.486242986, 26.871014302], [91.486679582, 26.870507621], [91.486591655, 26.870027377], [91.486712551, 26.869461254], [91.486063619, 26.868892768], [91.485463573, 26.867602011], [91.485630573, 26.866993564], [91.486364482, 26.866033969], [91.486439003, 26.865489255], [91.486636019, 26.865393041], [91.486676511, 26.864921906], [91.486510925, 26.864745824], [91.486621933, 26.864315788], [91.486248218, 26.864277877], [91.485421665, 26.86350205], [91.482890661, 26.864386364], [91.482306838, 26.863440608], [91.481550694, 26.8626954], [91.481605185, 26.862401942], [91.481172434, 26.861412756], [91.480631115, 26.861041859], [91.479813879, 26.860977195], [91.479648309, 26.860801105], [91.479468628, 26.860436877], [91.479423031, 26.859621456], [91.479695275, 26.859032834], [91.479470995, 26.858825977], [91.479017714, 26.858945782], [91.477973769, 26.85848599], [91.477624756, 26.8585524], [91.478118323, 26.858840127], [91.478115226, 26.859499154], [91.478350623, 26.859664056], [91.47832934, 26.859821183], [91.477770288, 26.859879329], [91.477898725, 26.860788027], [91.478191342, 26.860868649], [91.478540804, 26.861733194], [91.47941163, 26.862330776], [91.479402963, 26.862560991], [91.479189655, 26.86284593], [91.479358294, 26.862601338], [91.479230767, 26.862660204], [91.478589443, 26.862222355], [91.478014964, 26.861543217], [91.477810892, 26.861545351], [91.477443168, 26.861967604], [91.476846754, 26.862292874], [91.476178807, 26.862498596], [91.475541702, 26.862384955], [91.474297657, 26.862572491]]]}, "properties": {"saz_id": 135, "town": "Samdrup Jongkhar", "db_town": "Samdrupjongkhar Thromde", "dzongkhag": "Samdrup Jongkhar", "lap_name": "lap 5c", "area_code": "09", "zone_type": "lap", "local_area_group": "Deothang 5a, 5b, 5ba, 5c", "division": null, "index": 65.5425, "has_data": true, "category": "High Liveable", "color": "#92D050"}}]}