{"type": "FeatureCollection", "features": [{"type": "Feature", "geometry": {"type": "MultiPolygon", "coordinates": [[[[89.63033, 27.49826], [89.63026, 27.498405], [89.630165, 27.498535], [89.630045, 27.49864], [89.629905, 27.49872], [89.629755, 27.49877], [89.629595, 27.49879], [89.629545, 27.49879], [89.629475, 27.498785], [89.6294, 27.49878], [89.62905, 27.498795], [89.628925, 27.498795], [89.628425, 27.49874], [89.62568, 27.49931], [89.62509, 27.49983], [89.62495, 27.499925], [89.6248, 27.49999], [89.624635, 27.500025], [89.624465, 27.50002], [89.623235, 27.499875], [89.622445, 27.499845], [89.622415, 27.49984], [89.62128, 27.499755], [89.621615, 27.500595], [89.621995, 27.50112], [89.622415, 27.501315], [89.62255, 27.5014], [89.62267, 27.501505], [89.622765, 27.50163], [89.622855, 27.501785], [89.623145, 27.50195], [89.62314, 27.501955], [89.62322, 27.502], [89.623305, 27.502065], [89.62342, 27.50217], [89.62351, 27.502295], [89.62358, 27.502435], [89.623615, 27.502585], [89.623625, 27.50274], [89.623625, 27.502775], [89.6236, 27.502925], [89.62345, 27.503895], [89.626315, 27.50379], [89.62648, 27.5038], [89.626645, 27.503845], [89.62679, 27.503925], [89.62692, 27.50403], [89.62698, 27.50411], [89.626985, 27.50411], [89.631105, 27.50945], [89.631185, 27.509575], [89.63124, 27.50971], [89.63127, 27.509855], [89.63131, 27.510285], [89.631315, 27.510355], [89.631315, 27.510425], [89.63131, 27.510425], [89.63175, 27.51461], [89.63175, 27.51476], [89.631745, 27.514765], [89.631745, 27.51477], [89.631745, 27.514785], [89.631745, 27.51479], [89.631765, 27.515025], [89.63177, 27.51507], [89.63209, 27.515615], [89.632145, 27.515725], [89.63218, 27.51584], [89.632185, 27.51588], [89.632285, 27.51606], [89.63251, 27.516345], [89.63281, 27.516665], [89.632835, 27.516705], [89.63284, 27.5167], [89.63289, 27.51676], [89.63289, 27.516765], [89.63293, 27.516805], [89.632965, 27.51684], [89.636275, 27.52041], [89.63628, 27.52041], [89.636845, 27.521025], [89.636935, 27.52114], [89.637, 27.521275], [89.637045, 27.52142], [89.637055, 27.521565], [89.63704, 27.521715], [89.63695, 27.522195], [89.636925, 27.52247], [89.63689, 27.522655], [89.635945, 27.52546], [89.636, 27.52638], [89.635995, 27.5265], [89.63599, 27.526535], [89.63599, 27.526565], [89.635985, 27.52657], [89.635995, 27.526745], [89.63598, 27.526935], [89.635925, 27.52712], [89.63592, 27.527125], [89.635915, 27.52713], [89.63599, 27.527485], [89.63646, 27.528365], [89.63647, 27.52838], [89.636525, 27.528465], [89.63715, 27.52941], [89.63723, 27.52956], [89.637275, 27.52972], [89.637285, 27.52989], [89.63726, 27.530055], [89.63633, 27.533575], [89.636115, 27.534385], [89.637065, 27.53578], [89.637105, 27.53584], [89.6371, 27.535845], [89.638565, 27.53801], [89.642895, 27.541945], [89.643015, 27.542075], [89.643045, 27.54212], [89.643045, 27.542125], [89.643055, 27.54213], [89.64309, 27.54215], [89.6432, 27.542235], [89.64569, 27.544525], [89.650575, 27.5478], [89.651105, 27.547345], [89.65099, 27.54721], [89.650955, 27.54718], [89.65092, 27.54715], [89.650925, 27.54715], [89.65087, 27.5471], [89.65078, 27.546985], [89.650715, 27.54685], [89.65068, 27.54671], [89.650675, 27.546685], [89.65067, 27.546635], [89.650645, 27.546565], [89.650615, 27.54642], [89.650615, 27.54627], [89.650635, 27.546125], [89.650675, 27.546015], [89.65068, 27.546015], [89.65078, 27.545725], [89.650935, 27.54529], [89.650945, 27.54525], [89.65108, 27.544925], [89.65087, 27.54449], [89.65031, 27.544265], [89.650205, 27.544215], [89.649825, 27.54399], [89.649775, 27.54396], [89.64935, 27.543665], [89.64934, 27.543665], [89.648855, 27.54332], [89.64853, 27.543095], [89.64839, 27.54297], [89.64831, 27.54288], [89.648215, 27.54274], [89.648145, 27.542585], [89.648115, 27.54242], [89.64809, 27.54214], [89.648095, 27.541975], [89.648145, 27.541565], [89.648185, 27.5414], [89.648255, 27.54125], [89.648295, 27.541185], [89.64833, 27.54095], [89.648415, 27.54031], [89.64839, 27.539935], [89.64834, 27.53979], [89.64831, 27.53964], [89.648305, 27.53949], [89.64833, 27.53934], [89.64838, 27.5392], [89.64839, 27.539175], [89.648395, 27.539175], [89.64845, 27.53903], [89.6485, 27.53892], [89.64857, 27.53882], [89.648785, 27.538545], [89.64879, 27.53854], [89.64906, 27.538195], [89.64913, 27.53801], [89.64906, 27.5375], [89.64898, 27.537065], [89.648895, 27.53673], [89.648875, 27.5366], [89.648865, 27.536495], [89.64883, 27.53631], [89.648785, 27.536215], [89.64873, 27.536065], [89.64873, 27.536055], [89.648705, 27.53589], [89.648705, 27.535815], [89.64871, 27.53569], [89.648735, 27.535565], [89.64876, 27.535475], [89.648765, 27.53543], [89.64877, 27.53539], [89.6488, 27.53525], [89.64882, 27.53518], [89.64882, 27.535025], [89.648675, 27.53472], [89.64862, 27.534575], [89.64859, 27.534425], [89.64859, 27.53442], [89.64858, 27.53425], [89.64859, 27.534065], [89.64864, 27.53389], [89.64871, 27.53371], [89.64871, 27.5337], [89.648715, 27.53367], [89.64872, 27.533595], [89.64875, 27.533465], [89.648765, 27.533435], [89.64875, 27.53292], [89.648725, 27.53258], [89.64869, 27.532325], [89.64869, 27.53216], [89.64869, 27.53214], [89.648695, 27.53211], [89.648695, 27.531955], [89.648715, 27.531795], [89.648765, 27.531635], [89.64879, 27.53159], [89.648835, 27.5315], [89.64888, 27.531425], [89.64891, 27.53138], [89.649, 27.53126], [89.64904, 27.53116], [89.649075, 27.530795], [89.648995, 27.530645], [89.648885, 27.530545], [89.64853, 27.530335], [89.64821, 27.530275], [89.648205, 27.530275], [89.648095, 27.530255], [89.64795, 27.5302], [89.64782, 27.53012], [89.647705, 27.530015], [89.647615, 27.529885], [89.64755, 27.529745], [89.64752, 27.529615], [89.647515, 27.5296], [89.647465, 27.52939], [89.647125, 27.52883], [89.646935, 27.52872], [89.64676, 27.52859], [89.646495, 27.528325], [89.646485, 27.528315], [89.645965, 27.527775], [89.645865, 27.52765], [89.645795, 27.527505], [89.64561, 27.52703], [89.645585, 27.52694], [89.64554, 27.526755], [89.645365, 27.526485], [89.645295, 27.526355], [89.6452, 27.52613], [89.64516, 27.525995], [89.64513, 27.52587], [89.645115, 27.525835], [89.645065, 27.525675], [89.64505, 27.525505], [89.64507, 27.525335], [89.645145, 27.525], [89.645185, 27.524795], [89.64524, 27.524625], [89.645265, 27.52456], [89.64529, 27.524325], [89.64532, 27.52416], [89.645385, 27.52401], [89.64548, 27.52387], [89.645535, 27.52381], [89.64554, 27.523815], [89.645725, 27.522935], [89.645725, 27.522605], [89.645675, 27.521985], [89.64556, 27.5215], [89.645535, 27.521305], [89.64554, 27.52057], [89.645545, 27.520505], [89.64577, 27.51813], [89.645535, 27.51631], [89.64553, 27.516235], [89.6455, 27.51521], [89.6455, 27.515185], [89.645495, 27.51492], [89.645505, 27.51477], [89.645545, 27.51463], [89.645605, 27.514495], [89.645695, 27.514375], [89.6458, 27.514275], [89.645925, 27.514195], [89.646065, 27.51414], [89.64621, 27.51411], [89.649035, 27.513805], [89.64916, 27.51378], [89.649135, 27.51205], [89.649135, 27.512015], [89.64915, 27.511465], [89.64915, 27.51146], [89.64915, 27.51142], [89.649095, 27.51137], [89.647635, 27.51113], [89.64758, 27.511115], [89.64704, 27.510985], [89.64691, 27.510945], [89.645425, 27.51031], [89.64527, 27.510225], [89.64512, 27.510115], [89.644, 27.509435], [89.643885, 27.509355], [89.64379, 27.50925], [89.643715, 27.509135], [89.64367, 27.509035], [89.643665, 27.509025], [89.643665, 27.50902], [89.643205, 27.50872], [89.643045, 27.508665], [89.64296, 27.50864], [89.64282, 27.508585], [89.64269, 27.508505], [89.64258, 27.5084], [89.642495, 27.50828], [89.64243, 27.508145], [89.64239, 27.507995], [89.642385, 27.507845], [89.642405, 27.507695], [89.64245, 27.507555], [89.642525, 27.50742], [89.64262, 27.507305], [89.642735, 27.50719], [89.64291, 27.506925], [89.643055, 27.50657], [89.6431, 27.506435], [89.64314, 27.50632], [89.6432, 27.50622], [89.64326, 27.50613], [89.64329, 27.505995], [89.643295, 27.505815], [89.643275, 27.50575], [89.64324, 27.505605], [89.643205, 27.505365], [89.643205, 27.50536], [89.643115, 27.50475], [89.64311, 27.504635], [89.64311, 27.50454], [89.643115, 27.504425], [89.64313, 27.504315], [89.643135, 27.5043], [89.64316, 27.50413], [89.643115, 27.50402], [89.64308, 27.50398], [89.643055, 27.50393], [89.643025, 27.50388], [89.642965, 27.50372], [89.64294, 27.50355], [89.64295, 27.503385], [89.64298, 27.503225], [89.64298, 27.50304], [89.64296, 27.50293], [89.642915, 27.502835], [89.64286, 27.50267], [89.642845, 27.5025], [89.642845, 27.50245], [89.642865, 27.50227], [89.64293, 27.5021], [89.64298, 27.501995], [89.64298, 27.50199], [89.64299, 27.501945], [89.643, 27.50187], [89.643015, 27.501795], [89.643015, 27.50166], [89.64299, 27.501625], [89.642965, 27.501585], [89.64297, 27.501585], [89.642925, 27.50151], [89.64287, 27.501365], [89.642845, 27.50121], [89.64285, 27.50105], [89.642885, 27.5009], [89.642895, 27.500885], [89.64291, 27.500835], [89.64292, 27.500825], [89.64292, 27.500585], [89.642895, 27.50056], [89.642875, 27.50053], [89.64288, 27.50053], [89.642825, 27.50045], [89.642765, 27.5003], [89.642735, 27.500145], [89.642735, 27.49998], [89.64277, 27.499825], [89.642835, 27.499675], [89.64293, 27.499545], [89.643045, 27.499435], [89.643065, 27.499425], [89.643105, 27.499395], [89.64312, 27.49939], [89.643265, 27.49924], [89.643045, 27.498705], [89.642745, 27.49828], [89.64266, 27.498125], [89.64261, 27.497955], [89.6426, 27.497775], [89.64263, 27.49728], [89.64234, 27.496465], [89.6423, 27.496295], [89.6423, 27.49612], [89.642305, 27.49605], [89.64233, 27.49591], [89.642385, 27.495775], [89.64275, 27.49503], [89.642755, 27.49502], [89.64341, 27.493715], [89.643435, 27.49367], [89.643805, 27.493035], [89.643845, 27.492975], [89.644485, 27.492085], [89.64458, 27.491975], [89.644695, 27.491885], [89.645245, 27.49152], [89.645425, 27.491255], [89.645375, 27.490945], [89.64535, 27.49092], [89.6453, 27.49083], [89.64529, 27.49081], [89.64527, 27.490765], [89.645205, 27.490705], [89.644955, 27.49058], [89.64476, 27.49055], [89.643395, 27.49049], [89.64222, 27.49045], [89.64191, 27.49044], [89.641855, 27.490435], [89.641825, 27.49043], [89.64181, 27.49043], [89.641745, 27.49043], [89.64093, 27.490385], [89.640795, 27.49037], [89.640475, 27.490295], [89.64033, 27.49025], [89.6402, 27.490175], [89.64008, 27.49008], [89.639985, 27.489965], [89.639915, 27.489835], [89.639865, 27.48969], [89.63985, 27.48954], [89.639855, 27.48939], [89.639895, 27.489245], [89.63981, 27.489475], [89.639805, 27.489475], [89.63978, 27.4895], [89.639275, 27.490035], [89.639265, 27.49003], [89.639195, 27.490045], [89.63913, 27.4901], [89.639115, 27.490105], [89.639115, 27.49014], [89.639095, 27.49045], [89.63903, 27.49107], [89.639015, 27.491075], [89.639005, 27.491075], [89.63889, 27.491435], [89.638805, 27.491465], [89.638675, 27.49143], [89.638495, 27.49133], [89.63841, 27.4913], [89.638275, 27.491315], [89.63821, 27.49134], [89.638185, 27.49137], [89.63813, 27.491395], [89.63802, 27.49143], [89.63794, 27.491415], [89.637865, 27.49141], [89.63782, 27.491415], [89.637755, 27.49142], [89.637455, 27.491425], [89.63738, 27.49141], [89.63736, 27.49138], [89.637345, 27.491355], [89.63731, 27.49128], [89.637305, 27.491265], [89.637295, 27.49124], [89.637235, 27.49116], [89.63721, 27.49117], [89.637095, 27.491205], [89.63712, 27.491385], [89.637155, 27.49165], [89.63715, 27.49166], [89.637165, 27.492025], [89.6372, 27.492385], [89.637015, 27.49239], [89.637, 27.49239], [89.637, 27.492395], [89.636955, 27.49243], [89.63696, 27.492435], [89.636955, 27.49244], [89.637105, 27.492755], [89.637095, 27.49282], [89.637135, 27.492925], [89.637145, 27.492915], [89.637145, 27.49292], [89.63717, 27.492985], [89.637245, 27.493195], [89.63732, 27.493445], [89.63736, 27.493595], [89.637375, 27.493925], [89.637375, 27.494005], [89.637325, 27.493975], [89.637065, 27.493875], [89.637055, 27.49387], [89.637045, 27.493865], [89.636925, 27.49382], [89.63671, 27.49373], [89.636475, 27.49362], [89.636395, 27.49358], [89.636375, 27.493565], [89.636335, 27.49352], [89.63623, 27.493455], [89.636215, 27.493445], [89.636145, 27.49338], [89.6361, 27.493355], [89.63604, 27.49332], [89.63589, 27.49315], [89.635875, 27.493115], [89.63583, 27.49298], [89.63581, 27.492785], [89.635775, 27.49273], [89.635805, 27.492795], [89.635825, 27.492975], [89.63575, 27.493025], [89.63532, 27.493285], [89.6353, 27.49335], [89.635265, 27.493385], [89.635245, 27.49346], [89.635245, 27.493505], [89.635235, 27.493525], [89.635245, 27.493545], [89.635245, 27.493555], [89.635285, 27.49369], [89.635325, 27.493725], [89.635375, 27.493765], [89.635435, 27.49383], [89.63548, 27.49392], [89.635505, 27.49399], [89.63552, 27.49437], [89.63552, 27.494475], [89.63548, 27.494665], [89.635425, 27.49484], [89.63542, 27.49487], [89.635405, 27.49492], [89.63541, 27.49495], [89.635405, 27.494975], [89.63542, 27.495035], [89.635425, 27.49511], [89.63547, 27.495165], [89.63548, 27.495195], [89.63552, 27.49527], [89.63556, 27.49539], [89.63559, 27.49552], [89.635595, 27.495585], [89.63561, 27.495595], [89.6356, 27.495595], [89.635595, 27.495765], [89.635525, 27.495975], [89.63547, 27.496085], [89.635415, 27.496185], [89.635355, 27.49628], [89.635265, 27.49641], [89.63521, 27.496535], [89.635195, 27.496755], [89.635195, 27.49677], [89.635195, 27.49678], [89.635235, 27.496935], [89.635255, 27.49702], [89.63527, 27.497055], [89.63532, 27.49719], [89.635415, 27.497365], [89.63544, 27.497415], [89.635585, 27.497745], [89.63559, 27.49776], [89.63563, 27.49787], [89.635675, 27.49802], [89.63569, 27.49809], [89.63569, 27.4981], [89.63569, 27.498105], [89.6357, 27.498155], [89.63572, 27.498615], [89.63571, 27.498665], [89.63568, 27.49872], [89.635505, 27.498915], [89.635505, 27.49892], [89.635415, 27.49892], [89.63524, 27.498915], [89.634975, 27.499], [89.634945, 27.499015], [89.634615, 27.499155], [89.6346, 27.499155], [89.634395, 27.499135], [89.634075, 27.49901], [89.634015, 27.49891], [89.634005, 27.49889], [89.634, 27.498865], [89.633985, 27.49871], [89.633955, 27.49864], [89.6339, 27.49853], [89.633845, 27.49841], [89.633785, 27.498275], [89.6337, 27.49804], [89.633595, 27.49758], [89.6335, 27.49739], [89.63348, 27.497345], [89.63347, 27.497315], [89.633435, 27.497175], [89.63333, 27.497065], [89.633295, 27.49703], [89.633225, 27.496955], [89.633145, 27.496885], [89.63308, 27.496825], [89.63295, 27.496705], [89.632805, 27.496545], [89.63268, 27.49642], [89.632325, 27.496205], [89.63226, 27.496135], [89.631935, 27.49568], [89.63198, 27.49515], [89.631825, 27.4948], [89.63181, 27.4948], [89.631885, 27.495015], [89.631765, 27.495715], [89.631085, 27.496015], [89.6311, 27.496025], [89.63122, 27.49613], [89.63132, 27.49626], [89.631385, 27.496405], [89.631425, 27.496565], [89.63143, 27.496725], [89.631405, 27.496885], [89.63135, 27.497035], [89.63126, 27.49717], [89.63115, 27.497285], [89.630375, 27.49794], [89.63038, 27.49795], [89.63037, 27.498105], [89.63033, 27.49826]]]]}, "properties": {"saz_id": null, "town": "Thimphu", "db_town": "Thimphu Thromde", "dzongkhag": "Thimphu", "lap_name": "Northern Thimphu", "area_code": "01", "zone_type": "division \u00b7 17 LAPs", "local_area_group": "Northern Thimphu", "division": "Northern Thimphu", "index": 60.5, "has_data": true, "category": "Moderate liveable", "color": "#fee08b"}}, {"type": "Feature", "geometry": {"type": "MultiPolygon", "coordinates": [[[[89.65695, 27.450975], [89.65698, 27.450945], [89.656975, 27.45091], [89.65689, 27.450785], [89.656817647, 27.450736765], [89.65695, 27.450975]]], [[[89.65603, 27.450685], [89.65536, 27.4512], [89.65504, 27.45146], [89.6561, 27.450735], [89.65603, 27.450685]]], [[[89.657685, 27.452095], [89.65762, 27.4518], [89.65758, 27.45178], [89.657685, 27.45214], [89.65768, 27.452095], [89.657685, 27.452095]]], [[[89.622195, 27.47128], [89.622195, 27.471285], [89.62214, 27.471435], [89.62206, 27.471575], [89.62195, 27.471695], [89.62182, 27.47179], [89.621675, 27.47186], [89.62152, 27.471895], [89.621255, 27.47193], [89.621205, 27.471935], [89.621035, 27.47195], [89.6208, 27.47193], [89.62077, 27.471925], [89.6206, 27.471865], [89.620445, 27.471765], [89.62032, 27.47164], [89.620295, 27.47161], [89.620025, 27.47133], [89.619675, 27.47131], [89.61981, 27.471485], [89.619875, 27.471585], [89.619925, 27.471695], [89.61997, 27.471815], [89.620005, 27.47195], [89.62002, 27.472085], [89.62001, 27.472225], [89.61995, 27.47259], [89.61995, 27.472595], [89.61995, 27.472615], [89.61995, 27.472745], [89.61992, 27.47291], [89.61985, 27.473065], [89.61975, 27.473205], [89.619345, 27.473655], [89.619245, 27.473745], [89.61914, 27.473815], [89.618315, 27.47428], [89.618315, 27.474285], [89.61829, 27.474315], [89.617645, 27.475205], [89.617545, 27.47532], [89.61742, 27.475415], [89.61728, 27.47548], [89.617135, 27.475525], [89.61698, 27.475535], [89.61691, 27.475535], [89.615995, 27.475695], [89.615885, 27.47571], [89.615635, 27.47572], [89.61558, 27.47572], [89.615405, 27.47572], [89.615215, 27.475695], [89.614855, 27.47561], [89.61482, 27.475605], [89.614785, 27.4756], [89.61469, 27.475585], [89.61456, 27.475545], [89.61444, 27.47548], [89.61414, 27.475285], [89.6138, 27.47523], [89.613325, 27.475195], [89.613235, 27.47518], [89.61206, 27.475], [89.61186, 27.47494], [89.610935, 27.474535], [89.60864, 27.473805], [89.607395, 27.47374], [89.607255, 27.47372], [89.60712, 27.473675], [89.607, 27.47361], [89.606885, 27.47352], [89.606035, 27.47271], [89.606035, 27.472705], [89.606005, 27.47268], [89.60469, 27.472735], [89.60452, 27.47272], [89.604355, 27.472675], [89.60308, 27.47215], [89.598535, 27.473495], [89.598635, 27.476385], [89.59864, 27.47639], [89.59865, 27.476465], [89.598645, 27.476465], [89.598655, 27.47654], [89.598765, 27.479305], [89.601705, 27.479565], [89.601835, 27.479585], [89.601935, 27.47962], [89.60194, 27.479625], [89.60194, 27.47963], [89.601945, 27.479625], [89.601975, 27.479625], [89.60206, 27.479615], [89.602215, 27.479625], [89.60537, 27.480205], [89.605415, 27.480215], [89.606255, 27.480415], [89.608125, 27.480485], [89.60822, 27.480495], [89.60994, 27.480765], [89.61039, 27.480795], [89.61053, 27.480815], [89.61056, 27.480825], [89.610605, 27.480835], [89.610605, 27.48084], [89.61062, 27.480835], [89.61063, 27.480835], [89.610725, 27.48083], [89.61087, 27.48084], [89.611285, 27.480915], [89.611585, 27.4808], [89.611735, 27.480765], [89.61189, 27.480755], [89.612285, 27.480765], [89.612365, 27.48077], [89.612555, 27.480795], [89.612715, 27.48078], [89.61293, 27.480785], [89.61317, 27.48082], [89.61339, 27.48089], [89.613735, 27.481055], [89.61384, 27.481115], [89.613935, 27.48119], [89.614345, 27.48156], [89.61517, 27.481575], [89.615775, 27.48147], [89.61589, 27.481455], [89.616675, 27.48143], [89.61677, 27.48143], [89.617235, 27.48147], [89.61871, 27.4815], [89.61998, 27.481455], [89.620015, 27.481455], [89.62142, 27.48147], [89.62141, 27.481465], [89.62142, 27.481465], [89.621555, 27.48138], [89.6217, 27.481325], [89.62465, 27.4805], [89.624825, 27.48047], [89.625005, 27.48048], [89.62656, 27.48076], [89.62736, 27.480825], [89.627525, 27.480855], [89.62768, 27.48092], [89.627815, 27.481015], [89.62793, 27.481135], [89.62802, 27.48128], [89.628075, 27.481435], [89.62836, 27.482655], [89.629235, 27.483395], [89.629355, 27.48352], [89.62944, 27.48367], [89.629865, 27.484585], [89.62992, 27.48473], [89.62994, 27.484875], [89.629935, 27.48503], [89.6299, 27.485175], [89.62984, 27.485315], [89.629755, 27.48544], [89.629645, 27.485545], [89.62952, 27.48563], [89.62844, 27.486205], [89.627715, 27.48677], [89.62797, 27.487435], [89.627975, 27.48744], [89.627985, 27.487455], [89.62803, 27.487565], [89.62807, 27.48771], [89.62809, 27.48786], [89.628075, 27.48801], [89.628035, 27.48816], [89.627965, 27.488295], [89.62787, 27.488415], [89.6271, 27.48924], [89.62724, 27.48944], [89.62756, 27.48989], [89.62762, 27.48998], [89.627905, 27.490375], [89.62793, 27.490415], [89.628045, 27.490515], [89.62805, 27.49052], [89.62869, 27.491095], [89.62878, 27.49119], [89.62885, 27.491295], [89.62923, 27.491975], [89.62926, 27.49203], [89.629265, 27.492035], [89.62926, 27.49204], [89.630145, 27.49314], [89.630235, 27.49328], [89.63053, 27.49387], [89.630585, 27.494], [89.63061, 27.49414], [89.630685, 27.494775], [89.63069, 27.49484], [89.63072, 27.4957], [89.631085, 27.496015], [89.631765, 27.495715], [89.631885, 27.495015], [89.63181, 27.4948], [89.631825, 27.4948], [89.63198, 27.49515], [89.631935, 27.49568], [89.63226, 27.496135], [89.632325, 27.496205], [89.63268, 27.49642], [89.632805, 27.496545], [89.63295, 27.496705], [89.63308, 27.496825], [89.63333, 27.497065], [89.633435, 27.497175], [89.63348, 27.497345], [89.633595, 27.49758], [89.6337, 27.49804], [89.633825, 27.498385], [89.633955, 27.49864], [89.633985, 27.49871], [89.634, 27.498885], [89.63404, 27.49897], [89.63408, 27.49903], [89.634155, 27.499065], [89.6344, 27.499135], [89.63458, 27.49916], [89.634675, 27.499135], [89.63482, 27.499075], [89.634975, 27.499], [89.63524, 27.498915], [89.63551, 27.498925], [89.63567, 27.498745], [89.63571, 27.498665], [89.635725, 27.4986], [89.635705, 27.4982], [89.635675, 27.49802], [89.635625, 27.497855], [89.63556, 27.497675], [89.635465, 27.49746], [89.63533, 27.4972], [89.635255, 27.49702], [89.635195, 27.496755], [89.63521, 27.496535], [89.635265, 27.49641], [89.635355, 27.49628], [89.635455, 27.49612], [89.63552, 27.49599], [89.635555, 27.495905], [89.63559, 27.495805], [89.635605, 27.495725], [89.63561, 27.495595], [89.6356, 27.495545], [89.63556, 27.49539], [89.63552, 27.49527], [89.63548, 27.495195], [89.63543, 27.495075], [89.635405, 27.494975], [89.635425, 27.49484], [89.63548, 27.494665], [89.63552, 27.494475], [89.63552, 27.49437], [89.6355, 27.493955], [89.63547, 27.493905], [89.635435, 27.493835], [89.635375, 27.493765], [89.635325, 27.493725], [89.635285, 27.49369], [89.635245, 27.493555], [89.635245, 27.49346], [89.635265, 27.493385], [89.63533, 27.493315], [89.635645, 27.4931], [89.635825, 27.492975], [89.635805, 27.492795], [89.635775, 27.49273], [89.63581, 27.492785], [89.63583, 27.492985], [89.63589, 27.49315], [89.63602, 27.49331], [89.636145, 27.49338], [89.636215, 27.493445], [89.636395, 27.49358], [89.636695, 27.49374], [89.637055, 27.49387], [89.637375, 27.494005], [89.63737, 27.493605], [89.637245, 27.493195], [89.63711, 27.492825], [89.63711, 27.492765], [89.636955, 27.49243], [89.637, 27.49239], [89.637225, 27.492395], [89.637165, 27.491715], [89.6371, 27.49121], [89.637235, 27.49116], [89.637295, 27.49124], [89.637345, 27.491365], [89.63738, 27.49141], [89.63746, 27.491425], [89.63753, 27.49144], [89.637845, 27.491415], [89.63801, 27.491435], [89.63812, 27.4914], [89.63815, 27.49139], [89.638205, 27.49136], [89.638255, 27.49132], [89.63841, 27.491305], [89.6385, 27.49134], [89.63866, 27.49145], [89.638805, 27.49147], [89.63889, 27.49144], [89.639015, 27.491075], [89.63904, 27.491085], [89.639115, 27.490615], [89.639115, 27.490105], [89.639265, 27.490045], [89.63978, 27.4895], [89.639805, 27.489475], [89.63981, 27.489475], [89.64001, 27.488925], [89.640015, 27.48824], [89.63969, 27.487585], [89.63963, 27.48742], [89.63959, 27.48725], [89.639445, 27.486825], [89.63907, 27.48601], [89.63901, 27.485835], [89.638995, 27.485655], [89.639, 27.485435], [89.639015, 27.4853], [89.639055, 27.48517], [89.639115, 27.48505], [89.639795, 27.4839], [89.640595, 27.48138], [89.64057, 27.48116], [89.640495, 27.4809], [89.640495, 27.48089], [89.640425, 27.480625], [89.6404, 27.480495], [89.6404, 27.48036], [89.64045, 27.479765], [89.64048, 27.4796], [89.640605, 27.479195], [89.64065, 27.47908], [89.64071, 27.478975], [89.64161, 27.47768], [89.641725, 27.477545], [89.642835, 27.47652], [89.64284, 27.47651], [89.64294, 27.47637], [89.643065, 27.476255], [89.643215, 27.47617], [89.64338, 27.47612], [89.643555, 27.476105], [89.64399, 27.47612], [89.64471, 27.47487], [89.64521, 27.47375], [89.645265, 27.47314], [89.64508, 27.472515], [89.64505, 27.472365], [89.64505, 27.472215], [89.64505, 27.47216], [89.645055, 27.47214], [89.64526, 27.47028], [89.64526, 27.470265], [89.645265, 27.470265], [89.645275, 27.47018], [89.645305, 27.47004], [89.64536, 27.46991], [89.64544, 27.46979], [89.645535, 27.469685], [89.64565, 27.4696], [89.646785, 27.468905], [89.64692, 27.46884], [89.647065, 27.4688], [89.647215, 27.46879], [89.64736, 27.468805], [89.647505, 27.46885], [89.648485, 27.46925], [89.64849, 27.46925], [89.648495, 27.469255], [89.6485, 27.469255], [89.648985, 27.469425], [89.649, 27.46943], [89.649725, 27.4697], [89.65066, 27.470035], [89.650665, 27.47004], [89.65108, 27.470195], [89.65126, 27.47029], [89.651805, 27.47067], [89.652035, 27.470745], [89.652165, 27.470695], [89.652325, 27.47057], [89.65238, 27.470235], [89.652265, 27.47012], [89.6522, 27.470085], [89.652075, 27.47001], [89.651965, 27.46991], [89.651875, 27.469795], [89.65181, 27.469665], [89.65173, 27.46946], [89.65172, 27.469455], [89.651645, 27.46934], [89.651585, 27.469195], [89.65156, 27.469045], [89.65156, 27.469], [89.65155, 27.468945], [89.65155, 27.468935], [89.65153, 27.46878], [89.651545, 27.468615], [89.651595, 27.468455], [89.651675, 27.46831], [89.651785, 27.468185], [89.65191, 27.46807], [89.65196, 27.46766], [89.651985, 27.46754], [89.651995, 27.46751], [89.652005, 27.46748], [89.65214, 27.46654], [89.65216, 27.466435], [89.65229, 27.46597], [89.652365, 27.46579], [89.65248, 27.465635], [89.652815, 27.46528], [89.652885, 27.465215], [89.653325, 27.46485], [89.65326, 27.46457], [89.65316, 27.46449], [89.653155, 27.464485], [89.653105, 27.464455], [89.653105, 27.46445], [89.653075, 27.464435], [89.65296, 27.464325], [89.652865, 27.464195], [89.652795, 27.46405], [89.65274, 27.463885], [89.65263, 27.46366], [89.65262, 27.463635], [89.652385, 27.463115], [89.651845, 27.462345], [89.65133, 27.462025], [89.651185, 27.46202], [89.651025, 27.46208], [89.650995, 27.46209], [89.65072, 27.462185], [89.650605, 27.462215], [89.649925, 27.46234], [89.64981, 27.462355], [89.649765, 27.462355], [89.649595, 27.462345], [89.649505, 27.46233], [89.649345, 27.462285], [89.649195, 27.462205], [89.649065, 27.4621], [89.64897, 27.461975], [89.64897, 27.46197], [89.648775, 27.461935], [89.648625, 27.461895], [89.64849, 27.46183], [89.64837, 27.46174], [89.64827, 27.461625], [89.64819, 27.461495], [89.648135, 27.461355], [89.64811, 27.461205], [89.648115, 27.461055], [89.648145, 27.460905], [89.648205, 27.460765], [89.64829, 27.46064], [89.64839, 27.46054], [89.648415, 27.460525], [89.648415, 27.46052], [89.648425, 27.46051], [89.648465, 27.46047], [89.648975, 27.45999], [89.64899, 27.459965], [89.649095, 27.45986], [89.64918, 27.45979], [89.6499, 27.45902], [89.650035, 27.458905], [89.650195, 27.45882], [89.650465, 27.45872], [89.650725, 27.45858], [89.65073, 27.45858], [89.650745, 27.458565], [89.65102, 27.458425], [89.651385, 27.45817], [89.651395, 27.458165], [89.65227, 27.45758], [89.65301, 27.45703], [89.653005, 27.45703], [89.65304, 27.456995], [89.65306, 27.456975], [89.653145, 27.45689], [89.65325, 27.456815], [89.65339, 27.456725], [89.6535, 27.45667], [89.653695, 27.45659], [89.65385, 27.45654], [89.65401, 27.456525], [89.65422, 27.45653], [89.654735, 27.45636], [89.655145, 27.456195], [89.655145, 27.45619], [89.655265, 27.456145], [89.655415, 27.4561], [89.65557, 27.456085], [89.65572, 27.4561], [89.65587, 27.456145], [89.656005, 27.456215], [89.65612, 27.45631], [89.65576, 27.455875], [89.656035, 27.45573], [89.656185, 27.45568], [89.65624, 27.455625], [89.656585, 27.455445], [89.6566, 27.45544], [89.656725, 27.455395], [89.65688, 27.45531], [89.657245, 27.45511], [89.657305, 27.455105], [89.65736, 27.455085], [89.657385, 27.45502], [89.6574, 27.455015], [89.657855, 27.455005], [89.659295, 27.455485], [89.65869, 27.455245], [89.65786, 27.455005], [89.657395, 27.454995], [89.657405, 27.45497], [89.657375, 27.4549], [89.657325, 27.45486], [89.65725, 27.45479], [89.65724, 27.45479], [89.657115, 27.45478], [89.65699, 27.45479], [89.656955, 27.454755], [89.6568, 27.45449], [89.656795, 27.45445], [89.656435, 27.454235], [89.656455, 27.454185], [89.65646, 27.454185], [89.656635, 27.45393], [89.65678, 27.45362], [89.65677, 27.453615], [89.65677, 27.45361], [89.655985, 27.453105], [89.654985, 27.452815], [89.654975, 27.4528], [89.65498, 27.45259], [89.65497, 27.45258], [89.65499, 27.4526], [89.65502, 27.452155], [89.655035, 27.451605], [89.65497, 27.451495], [89.654825, 27.45163], [89.654675, 27.451755], [89.65415, 27.452255], [89.65405, 27.452315], [89.65401, 27.45234], [89.65401, 27.452345], [89.65385, 27.45244], [89.653835, 27.45245], [89.653735, 27.452465], [89.653515, 27.4525], [89.65345, 27.45253], [89.65337, 27.452555], [89.65314, 27.452475], [89.65311, 27.45247], [89.653, 27.45243], [89.65305, 27.4521], [89.65301, 27.45188], [89.653015, 27.451375], [89.653015, 27.451365], [89.65316, 27.45102], [89.65321, 27.45094], [89.653505, 27.45078], [89.65377, 27.450435], [89.65388, 27.45041], [89.65454, 27.450305], [89.654555, 27.45031], [89.654545, 27.450295], [89.654585, 27.450315], [89.65478, 27.450275], [89.654985, 27.450145], [89.65524, 27.44988], [89.655575, 27.449545], [89.655625, 27.44947], [89.65589, 27.449215], [89.65611, 27.449035], [89.657045, 27.448205], [89.65703, 27.448195], [89.65799, 27.44733], [89.657985, 27.447325], [89.65871, 27.44685], [89.65913, 27.44662], [89.659445, 27.446815], [89.659415, 27.44702], [89.6601, 27.44511], [89.66019, 27.445095], [89.660205, 27.44464], [89.66012, 27.444465], [89.659985, 27.444345], [89.659915, 27.44426], [89.65923, 27.444075], [89.659195, 27.44409], [89.65916, 27.44409], [89.65908, 27.444065], [89.659, 27.444025], [89.658895, 27.443955], [89.65887, 27.443895], [89.65877, 27.44386], [89.6587, 27.44383], [89.65861, 27.443765], [89.658405, 27.443595], [89.65838, 27.443525], [89.65826, 27.44355], [89.658125, 27.443305], [89.658115, 27.443265], [89.65786, 27.442735], [89.657715, 27.442535], [89.65763, 27.44233], [89.65752, 27.44219], [89.657505, 27.44216], [89.657685, 27.441465], [89.65766, 27.441465], [89.657585, 27.44138], [89.65733, 27.4411], [89.657145, 27.440905], [89.65724, 27.44103], [89.65731, 27.44117], [89.65735, 27.441325], [89.65736, 27.441485], [89.657335, 27.44164], [89.65728, 27.44179], [89.6572, 27.441925], [89.65709, 27.442045], [89.656965, 27.44214], [89.65682, 27.442205], [89.656665, 27.44224], [89.653505, 27.44266], [89.65211, 27.443465], [89.650545, 27.444585], [89.650485, 27.44462], [89.65042, 27.44466], [89.650415, 27.44466], [89.64059, 27.45185], [89.64059, 27.451855], [89.640535, 27.4519], [89.6405, 27.451935], [89.63926, 27.452895], [89.639135, 27.452975], [89.63864, 27.45323], [89.63774, 27.45369], [89.636985, 27.45408], [89.636525, 27.45432], [89.63652, 27.45432], [89.63592, 27.45463], [89.63561, 27.454785], [89.6353, 27.45495], [89.635295, 27.45495], [89.634895, 27.455155], [89.63458, 27.455315], [89.634145, 27.455535], [89.63414, 27.45554], [89.633785, 27.45572], [89.633755, 27.455735], [89.63302, 27.456065], [89.633015, 27.45607], [89.63244, 27.456325], [89.63218, 27.456445], [89.63203, 27.456495], [89.631875, 27.456515], [89.63183, 27.45652], [89.631295, 27.456745], [89.62837, 27.458785], [89.62829, 27.458835], [89.62823, 27.458865], [89.627035, 27.45967], [89.626825, 27.45977], [89.62547, 27.46019], [89.6257, 27.461165], [89.626835, 27.46292], [89.62684, 27.462925], [89.62684, 27.46293], [89.62684, 27.462935], [89.62732, 27.46339], [89.62742, 27.463495], [89.627495, 27.46362], [89.627545, 27.46376], [89.62757, 27.4639], [89.62757, 27.464045], [89.62743, 27.4655], [89.62741, 27.465625], [89.62737, 27.46574], [89.62713, 27.466295], [89.627055, 27.46643], [89.626955, 27.46655], [89.626835, 27.46665], [89.62672, 27.46671], [89.626715, 27.46671], [89.62629, 27.46693], [89.62632, 27.467135], [89.626325, 27.46726], [89.626315, 27.46739], [89.62627, 27.467655], [89.62628, 27.467905], [89.62637, 27.468125], [89.626705, 27.46844], [89.62681, 27.46856], [89.62689, 27.468695], [89.62694, 27.468845], [89.62696, 27.469], [89.62695, 27.469155], [89.62691, 27.469305], [89.62684, 27.46945], [89.62674, 27.46957], [89.626625, 27.469675], [89.62647, 27.469785], [89.626425, 27.469835], [89.626295, 27.46996], [89.626135, 27.47005], [89.626085, 27.47007], [89.62607, 27.47011], [89.626065, 27.470115], [89.625985, 27.47024], [89.62588, 27.47035], [89.62576, 27.470435], [89.625625, 27.4705], [89.625485, 27.470535], [89.62546, 27.47054], [89.625455, 27.47054], [89.62545, 27.47054], [89.62481, 27.470645], [89.624805, 27.470645], [89.62355, 27.4709], [89.623545, 27.470905], [89.622245, 27.471195], [89.62221, 27.471205], [89.62221, 27.47121], [89.622195, 27.47128]]], [[[89.660675, 27.44345], [89.66083, 27.44347], [89.66099, 27.443525], [89.66104, 27.443525], [89.661255, 27.4435], [89.661255, 27.443495], [89.66126, 27.443495], [89.661375, 27.443415], [89.66136, 27.44339], [89.66122, 27.44327], [89.660405, 27.44331], [89.660125, 27.44333], [89.65964, 27.44332], [89.65944, 27.44335], [89.659705, 27.44336], [89.6599, 27.44341], [89.659885, 27.44336], [89.659955, 27.443375], [89.65996, 27.443425], [89.66004, 27.44346], [89.6604, 27.44346], [89.66064, 27.4434], [89.660675, 27.443415], [89.660685, 27.443445], [89.660675, 27.44345]]], [[[89.661135, 27.444925], [89.66197, 27.444775], [89.66199, 27.44477], [89.66199, 27.44476], [89.66196, 27.444775], [89.6617, 27.44478], [89.66131, 27.44488], [89.661135, 27.444925]]]]}, "properties": {"saz_id": null, "town": "Thimphu", "db_town": "Thimphu Thromde", "dzongkhag": "Thimphu", "lap_name": "Central Thimphu", "area_code": "02", "zone_type": "division \u00b7 43 LAPs", "local_area_group": "Central Thimphu", "division": "Central Thimphu", "index": 60.3, "has_data": true, "category": "Moderate liveable", "color": "#fee08b"}}, {"type": "Feature", "geometry": {"type": "Polygon", "coordinates": [[[89.652165, 27.41433], [89.652175, 27.414365], [89.65218, 27.41438], [89.65219, 27.414525], [89.652175, 27.41467], [89.652135, 27.41481], [89.6521, 27.41491], [89.65204, 27.415025], [89.651965, 27.415135], [89.65187, 27.415225], [89.65129, 27.415725], [89.651085, 27.41642], [89.65103, 27.41656], [89.65095, 27.416685], [89.650845, 27.416795], [89.650725, 27.41688], [89.65059, 27.416945], [89.65006, 27.41714], [89.6494, 27.418675], [89.6493, 27.41884], [89.64888, 27.419395], [89.648605, 27.4207], [89.64855, 27.42087], [89.64846, 27.421025], [89.64791, 27.42174], [89.647755, 27.42189], [89.64709, 27.42239], [89.646715, 27.42325], [89.64664, 27.42338], [89.646545, 27.423495], [89.64643, 27.42359], [89.644235, 27.425065], [89.644205, 27.42515], [89.644145, 27.42528], [89.644065, 27.425395], [89.64396, 27.4255], [89.643845, 27.42558], [89.64377, 27.425615], [89.643735, 27.425635], [89.643695, 27.425645], [89.64368, 27.425975], [89.643685, 27.425965], [89.643685, 27.425975], [89.643695, 27.425985], [89.64378, 27.426075], [89.64386, 27.42621], [89.643915, 27.42636], [89.64394, 27.426515], [89.64395, 27.42662], [89.64394, 27.42678], [89.643905, 27.426935], [89.643835, 27.427085], [89.6438, 27.42713], [89.643775, 27.427165], [89.64377, 27.42717], [89.64335, 27.428045], [89.643345, 27.42806], [89.64329, 27.428145], [89.64205, 27.43012], [89.64221, 27.43031], [89.645325, 27.43146], [89.645495, 27.43155], [89.64564, 27.43168], [89.64787, 27.434155], [89.648545, 27.434595], [89.648745, 27.43465], [89.648905, 27.43471], [89.64905, 27.43481], [89.649175, 27.43494], [89.65002, 27.43606], [89.65144, 27.43694], [89.6553, 27.438675], [89.65544, 27.438755], [89.65556, 27.43886], [89.655655, 27.43899], [89.655665, 27.439005], [89.655665, 27.439015], [89.65605, 27.439525], [89.65606, 27.43954], [89.65633, 27.43992], [89.65633, 27.439925], [89.656335, 27.439925], [89.65666, 27.44035], [89.657015, 27.440765], [89.65733, 27.4411], [89.657585, 27.44138], [89.65766, 27.441465], [89.657685, 27.441465], [89.6575, 27.442165], [89.65763, 27.44233], [89.657715, 27.442535], [89.65786, 27.442735], [89.658115, 27.443265], [89.65818, 27.44356], [89.65838, 27.443525], [89.658405, 27.443595], [89.65861, 27.443765], [89.6587, 27.44383], [89.65877, 27.44386], [89.65887, 27.443895], [89.658895, 27.443955], [89.659, 27.444025], [89.65908, 27.444065], [89.65916, 27.44409], [89.659195, 27.44409], [89.65923, 27.444075], [89.659915, 27.44426], [89.659985, 27.444345], [89.66012, 27.444465], [89.660205, 27.44464], [89.66019, 27.445095], [89.6601, 27.44511], [89.659415, 27.44702], [89.659445, 27.446815], [89.65913, 27.44662], [89.658265, 27.447095], [89.657965, 27.447295], [89.65799, 27.44733], [89.65703, 27.448195], [89.657045, 27.448205], [89.65611, 27.449035], [89.655705, 27.449365], [89.6557, 27.449365], [89.655575, 27.449545], [89.65524, 27.44988], [89.654985, 27.450145], [89.65478, 27.450275], [89.654585, 27.450315], [89.654545, 27.450295], [89.654555, 27.45031], [89.65454, 27.450305], [89.653775, 27.45043], [89.653505, 27.45078], [89.65321, 27.45094], [89.653025, 27.451235], [89.652985, 27.451765], [89.65305, 27.4521], [89.653, 27.45243], [89.653365, 27.45257], [89.653515, 27.4525], [89.65383, 27.45245], [89.65415, 27.452255], [89.654675, 27.451755], [89.654975, 27.45151], [89.654965, 27.45281], [89.655985, 27.453105], [89.65677, 27.45361], [89.656415, 27.454245], [89.656785, 27.454465], [89.656975, 27.45479], [89.65725, 27.45479], [89.65738, 27.454995], [89.65786, 27.455005], [89.65869, 27.455245], [89.659295, 27.455485], [89.657855, 27.455005], [89.6574, 27.455015], [89.65576, 27.455875], [89.656145, 27.45634], [89.6581, 27.45603], [89.65907, 27.456185], [89.659205, 27.45622], [89.659335, 27.45628], [89.65973, 27.4565], [89.659805, 27.45655], [89.65982, 27.45656], [89.662275, 27.458005], [89.66241, 27.458105], [89.66252, 27.45823], [89.662605, 27.45838], [89.66264, 27.45849], [89.66265, 27.45853], [89.66266, 27.45857], [89.66326, 27.45945], [89.664625, 27.45981], [89.664775, 27.459865], [89.66491, 27.459945], [89.665025, 27.460055], [89.665425, 27.46051], [89.666375, 27.460905], [89.66654, 27.461], [89.66668, 27.461135], [89.66708, 27.461615], [89.66734, 27.461675], [89.667485, 27.461725], [89.667615, 27.4618], [89.668115, 27.462155], [89.668135, 27.462165], [89.668145, 27.462175], [89.668695, 27.46242], [89.66932, 27.4624], [89.670305, 27.46214], [89.671155, 27.46096], [89.67125, 27.460565], [89.67129, 27.46045], [89.671495, 27.459945], [89.671415, 27.45783], [89.67142, 27.4577], [89.671425, 27.45766], [89.67143, 27.45766], [89.67142, 27.45762], [89.67142, 27.457605], [89.671425, 27.457445], [89.671465, 27.457285], [89.67153, 27.45714], [89.671565, 27.457095], [89.671585, 27.457065], [89.671595, 27.457055], [89.67159, 27.45704], [89.67158, 27.45699], [89.67158, 27.45682], [89.671615, 27.45666], [89.671685, 27.456505], [89.671725, 27.456435], [89.67144, 27.455845], [89.671385, 27.455685], [89.67136, 27.45552], [89.671375, 27.455355], [89.672115, 27.45135], [89.672105, 27.451065], [89.67212, 27.450905], [89.67216, 27.45075], [89.67223, 27.45061], [89.67251, 27.45017], [89.6725, 27.45016], [89.67249, 27.45015], [89.6724, 27.45002], [89.672335, 27.44988], [89.6723, 27.449725], [89.67229, 27.44957], [89.672315, 27.449415], [89.67237, 27.44927], [89.672455, 27.449135], [89.67591, 27.44459], [89.675905, 27.444585], [89.67595, 27.44452], [89.67598, 27.44446], [89.681335, 27.436765], [89.681375, 27.43615], [89.681375, 27.436115], [89.681375, 27.43611], [89.68138, 27.43611], [89.679895, 27.43274], [89.679855, 27.432625], [89.67983, 27.43251], [89.6796, 27.430535], [89.675745, 27.43086], [89.675605, 27.43086], [89.67547, 27.430835], [89.67534, 27.430785], [89.67522, 27.430715], [89.674425, 27.43016], [89.67432, 27.430065], [89.67423, 27.429955], [89.67416, 27.429835], [89.674115, 27.4297], [89.67409, 27.42956], [89.673995, 27.428205], [89.67319, 27.427745], [89.67154, 27.42786], [89.67091, 27.4288], [89.67081, 27.42893], [89.67068, 27.42903], [89.67053, 27.429105], [89.670375, 27.42915], [89.670145, 27.429185], [89.66935, 27.429755], [89.6693, 27.42979], [89.6693, 27.429785], [89.668975, 27.430015], [89.66885, 27.430085], [89.668715, 27.430135], [89.66857, 27.43016], [89.668425, 27.430155], [89.66704, 27.43], [89.667045, 27.430005], [89.66704, 27.430005], [89.667045, 27.430015], [89.66704, 27.430015], [89.667705, 27.432285], [89.66773, 27.432435], [89.66773, 27.432585], [89.667705, 27.432735], [89.667645, 27.432875], [89.667565, 27.433], [89.66746, 27.43311], [89.66694, 27.433565], [89.66697, 27.43371], [89.66699, 27.433865], [89.666975, 27.434025], [89.66693, 27.434175], [89.666855, 27.434315], [89.666755, 27.43444], [89.666685, 27.434495], [89.66669, 27.4345], [89.66643, 27.43471], [89.666435, 27.434715], [89.666425, 27.434735], [89.66639, 27.434845], [89.666315, 27.434985], [89.666215, 27.435105], [89.66609, 27.435205], [89.66595, 27.43528], [89.6658, 27.435325], [89.664645, 27.435535], [89.664635, 27.435545], [89.66462, 27.43556], [89.664545, 27.43562], [89.66441, 27.4357], [89.664265, 27.43575], [89.66411, 27.43577], [89.663955, 27.43576], [89.663805, 27.43572], [89.663665, 27.43565], [89.66354, 27.435555], [89.663435, 27.43544], [89.66336, 27.43531], [89.66335, 27.435285], [89.66279, 27.43461], [89.66256, 27.43444], [89.662525, 27.434445], [89.66249, 27.434445], [89.66249, 27.43444], [89.66241, 27.43444], [89.66227, 27.434415], [89.662135, 27.434365], [89.662015, 27.434295], [89.661385, 27.433845], [89.660115, 27.433445], [89.659975, 27.433385], [89.65985, 27.4333], [89.65974, 27.433195], [89.659655, 27.43307], [89.659595, 27.432935], [89.65956, 27.432785], [89.659555, 27.432635], [89.65958, 27.43249], [89.65963, 27.432345], [89.659645, 27.432305], [89.659675, 27.43226], [89.659845, 27.431705], [89.6599, 27.431575], [89.659975, 27.43146], [89.660065, 27.431355], [89.660505, 27.43095], [89.660745, 27.43012], [89.6608, 27.42998], [89.660885, 27.42985], [89.66099, 27.42974], [89.661115, 27.42965], [89.66141, 27.42948], [89.66235, 27.42785], [89.66101, 27.426545], [89.66101, 27.42655], [89.660975, 27.42652], [89.660395, 27.42616], [89.66028, 27.426075], [89.660215, 27.426005], [89.660205, 27.425995], [89.6602, 27.425985], [89.656315, 27.423975], [89.656185, 27.42389], [89.656075, 27.423785], [89.65599, 27.42366], [89.65544, 27.422695], [89.655385, 27.42258], [89.65535, 27.422455], [89.65523, 27.421815], [89.655215, 27.421635], [89.655235, 27.4211], [89.65526, 27.420935], [89.655315, 27.42078], [89.655405, 27.420635], [89.655535, 27.42047], [89.655615, 27.419765], [89.65543, 27.41905], [89.655405, 27.4189], [89.65541, 27.41874], [89.655445, 27.41859], [89.65551, 27.418445], [89.6556, 27.418325], [89.655605, 27.41832], [89.6556, 27.418315], [89.6556, 27.41827], [89.655615, 27.418095], [89.655665, 27.41793], [89.65575, 27.41778], [89.655825, 27.4177], [89.65582, 27.4177], [89.65585, 27.41767], [89.65588, 27.41764], [89.65573, 27.41677], [89.655725, 27.41677], [89.65572, 27.416745], [89.65568, 27.41665], [89.65566, 27.416495], [89.655665, 27.416335], [89.655685, 27.416235], [89.65569, 27.416215], [89.655695, 27.41621], [89.655635, 27.416045], [89.655595, 27.41588], [89.65559, 27.41571], [89.65562, 27.415545], [89.656115, 27.413845], [89.65618, 27.413695], [89.65627, 27.413555], [89.65639, 27.41344], [89.65653, 27.413355], [89.65668, 27.413295], [89.656845, 27.41327], [89.657065, 27.41326], [89.65733, 27.412745], [89.657405, 27.412635], [89.65749, 27.412535], [89.657595, 27.412455], [89.657755, 27.412345], [89.657765, 27.412295], [89.657805, 27.412145], [89.657875, 27.412005], [89.65797, 27.41188], [89.65809, 27.411775], [89.658225, 27.4117], [89.658375, 27.41165], [89.65852, 27.411615], [89.65853, 27.4116], [89.658605, 27.411495], [89.658715, 27.411395], [89.65884, 27.411315], [89.65898, 27.41126], [89.65992, 27.41099], [89.66011, 27.41076], [89.65878, 27.409745], [89.657985, 27.409935], [89.657835, 27.409955], [89.657685, 27.409945], [89.65754, 27.40991], [89.6574, 27.409845], [89.65728, 27.40976], [89.656515, 27.4091], [89.656025, 27.409665], [89.65593, 27.40976], [89.655825, 27.40983], [89.654845, 27.4104], [89.6548, 27.410685], [89.654765, 27.410825], [89.654705, 27.41096], [89.65462, 27.411075], [89.654515, 27.41118], [89.654395, 27.41126], [89.65435, 27.411285], [89.654335, 27.411285], [89.65402, 27.41161], [89.65379, 27.411995], [89.65379, 27.41216], [89.653775, 27.412325], [89.653725, 27.412475], [89.65365, 27.41262], [89.653545, 27.41274], [89.653415, 27.41284], [89.65327, 27.41291], [89.652965, 27.413025], [89.652965, 27.413035], [89.65294, 27.41308], [89.65294, 27.41309], [89.652865, 27.41321], [89.65277, 27.41332], [89.65256, 27.41351], [89.65247, 27.413855], [89.652405, 27.414025], [89.6523, 27.414175], [89.652165, 27.41433]]]}, "properties": {"saz_id": null, "town": "Thimphu", "db_town": "Thimphu Thromde", "dzongkhag": "Thimphu", "lap_name": "Southern Thimphu", "area_code": "03", "zone_type": "division \u00b7 17 LAPs", "local_area_group": "Southern Thimphu", "division": "Southern Thimphu", "index": 58.8, "has_data": true, "category": "Moderate liveable", "color": "#fee08b"}}]}