{"type": "FeatureCollection", "features": [{"type": "Feature", "geometry": {"type": "Polygon", "coordinates": [[[91.189525463, 27.222935617], [91.190377178, 27.224305767], [91.193746892, 27.226919219], [91.194273955, 27.227948879], [91.194215378, 27.228580426], [91.193397147, 27.22996567], [91.19130389, 27.23256724], [91.190296208, 27.234413514], [91.18977431, 27.239240553], [91.19031372, 27.241590948], [91.191116056, 27.244397481], [91.192174254, 27.24703028], [91.194447873, 27.249193426], [91.196243809, 27.250451775], [91.197722921, 27.253189377], [91.19748893, 27.254399276], [91.200571224, 27.253856309], [91.206044961, 27.253365307], [91.208735319, 27.253253331], [91.211435364, 27.254209171], [91.214541895, 27.255784654], [91.216850412, 27.257189645], [91.21835833, 27.25842308], [91.223163495, 27.260428631], [91.223639217, 27.258288646], [91.223605957, 27.255410207], [91.223689405, 27.255414007], [91.223817504, 27.253376352], [91.223182251, 27.25089256], [91.223148283, 27.247950915], [91.223445251, 27.24740536], [91.22460835, 27.247236192], [91.231605231, 27.247583417], [91.238896143, 27.247135242], [91.24179382, 27.246828914], [91.242917813, 27.245482483], [91.243489118, 27.243341603], [91.243456761, 27.240582835], [91.241534981, 27.23810697], [91.240491208, 27.236369645], [91.239866597, 27.236115435], [91.23406654, 27.234758052], [91.230704399, 27.233122001], [91.228837598, 27.232736224], [91.227155657, 27.231946941], [91.224527556, 27.232371442], [91.220868564, 27.232804731], [91.219578542, 27.232471463], [91.216791218, 27.230255545], [91.21445056, 27.227979323], [91.210448418, 27.226233093], [91.208190766, 27.22567764], [91.205558833, 27.225757502], [91.20331614, 27.226293492], [91.201258925, 27.226253272], [91.199836295, 27.225576625], [91.198986313, 27.224147814], [91.198256191, 27.222144508], [91.197876199, 27.220044559], [91.197717767, 27.220110238], [91.193223466, 27.220378229], [91.190524678, 27.22034322], [91.189953878, 27.221036616], [91.189515147, 27.222016777], [91.189525463, 27.222935617]]]}, "properties": {"saz_id": 1444, "town": "Mongar", "db_town": "Mongar", "dzongkhag": "Monggar", "lap_name": "Gyalpoizhing_Wangling", "area_code": "01", "zone_type": "chiwog", "local_area_group": "LA 1", "division": null, "index": 64.0133, "has_data": true, "category": "High Liveable", "color": "#91cf60"}}, {"type": "Feature", "geometry": {"type": "Polygon", "coordinates": [[[91.267426495, 27.243896024], [91.262303579, 27.248083304], [91.259904762, 27.249725304], [91.255182141, 27.253728687], [91.254431723, 27.254886034], [91.254310764, 27.254742154], [91.2541556, 27.256388428], [91.253418038, 27.258501218], [91.252457569, 27.260490581], [91.252988102, 27.261440317], [91.252705331, 27.261722714], [91.252146311, 27.261654709], [91.253035766, 27.262048294], [91.252001865, 27.262130556], [91.252484653, 27.262685967], [91.252042057, 27.26301792], [91.252361542, 27.263635772], [91.253058841, 27.263877814], [91.252417483, 27.265528437], [91.253961461, 27.266942243], [91.253859292, 27.26806575], [91.253584806, 27.268822837], [91.253812042, 27.269953676], [91.253846212, 27.271260532], [91.254023583, 27.271902254], [91.254189388, 27.272012806], [91.254944755, 27.27228613], [91.256602208, 27.271091198], [91.259367718, 27.27034013], [91.261003441, 27.269337762], [91.262284544, 27.269558595], [91.263491019, 27.270845187], [91.264864303, 27.271549298], [91.266495135, 27.269896347], [91.266692261, 27.268835672], [91.266508456, 27.26762711], [91.266792905, 27.266470829], [91.267329587, 27.26548164], [91.26739545, 27.264436809], [91.268107778, 27.263129959], [91.267545961, 27.262227314], [91.267578059, 27.261318253], [91.267036163, 27.258486118], [91.267650377, 27.256797444], [91.267114917, 27.250433299], [91.267426495, 27.243896024]]]}, "properties": {"saz_id": 1447, "town": "Mongar", "db_town": "Mongar", "dzongkhag": "Monggar", "lap_name": "Kidekhar", "area_code": "02", "zone_type": "chiwog", "local_area_group": "LA 2", "division": null, "index": 67.36, "has_data": true, "category": "High Liveable", "color": "#91cf60"}}, {"type": "Feature", "geometry": {"type": "Polygon", "coordinates": [[[91.242592396, 27.288404379], [91.243890757, 27.289168616], [91.244910718, 27.29033604], [91.245695971, 27.29153712], [91.246573994, 27.292670779], [91.248032675, 27.295230818], [91.251215417, 27.296475191], [91.254439557, 27.298219241], [91.256687589, 27.30122155], [91.257682976, 27.301576278], [91.25939856, 27.301681913], [91.262387887, 27.302582294], [91.264472737, 27.303329209], [91.269032114, 27.307157476], [91.269075141, 27.307371589], [91.269717432, 27.30631935], [91.270555957, 27.301815366], [91.270644788, 27.29868407], [91.272074883, 27.295654821], [91.274525074, 27.292730454], [91.277041767, 27.290089937], [91.280983908, 27.286585353], [91.278503796, 27.285749666], [91.277094841, 27.284846757], [91.276045482, 27.282942647], [91.275148218, 27.281909822], [91.273976937, 27.281213604], [91.271636831, 27.280443149], [91.271262257, 27.280197003], [91.270876679, 27.279244251], [91.268154607, 27.277603366], [91.267400484, 27.276903378], [91.266467804, 27.276702826], [91.265910566, 27.27682293], [91.265681055, 27.277078976], [91.263987359, 27.275598204], [91.262708124, 27.274952523], [91.260711137, 27.275168904], [91.259817813, 27.27487426], [91.25811441, 27.274056177], [91.257139943, 27.273951891], [91.256809322, 27.274635545], [91.251150846, 27.279678562], [91.248619797, 27.280705508], [91.246820289, 27.282459804], [91.246709494, 27.283784995], [91.245714008, 27.285552559], [91.244539112, 27.286470479], [91.242469933, 27.287018005], [91.241701118, 27.288073474], [91.242592396, 27.288404379]]]}, "properties": {"saz_id": 1445, "town": "Mongar", "db_town": "Mongar", "dzongkhag": "Monggar", "lap_name": "Koenbar_Tagchhu", "area_code": "03", "zone_type": "chiwog", "local_area_group": "LA 3", "division": null, "index": 65.85, "has_data": true, "category": "High Liveable", "color": "#91cf60"}}, {"type": "Feature", "geometry": {"type": "Polygon", "coordinates": [[[91.223639217, 27.258288645], [91.223163496, 27.260428631], [91.21835833, 27.258423079], [91.218004946, 27.258134026], [91.218051675, 27.258320284], [91.216046579, 27.256700432], [91.211435363, 27.254209171], [91.208735319, 27.253253331], [91.200571224, 27.253856309], [91.197711589, 27.254360056], [91.197157765, 27.255570811], [91.196639894, 27.258883665], [91.196347589, 27.259632329], [91.195972585, 27.259773203], [91.197557099, 27.263102608], [91.19732864, 27.26524946], [91.199016221, 27.269186472], [91.200321809, 27.271299392], [91.200128823, 27.272563851], [91.20158218, 27.272552736], [91.201649627, 27.276264041], [91.201950929, 27.278085828], [91.203881493, 27.280460581], [91.210189167, 27.283805206], [91.213333746, 27.287742103], [91.213486139, 27.288684581], [91.215349991, 27.291374719], [91.217272057, 27.293183779], [91.221418694, 27.292329833], [91.228580263, 27.290065744], [91.230205809, 27.290491997], [91.231472659, 27.290292524], [91.232329291, 27.290906024], [91.23560391, 27.290519795], [91.237021446, 27.290018672], [91.238427924, 27.289221854], [91.239566649, 27.288230919], [91.241155178, 27.28787051], [91.241701118, 27.288073474], [91.242469933, 27.287018005], [91.244539112, 27.28647048], [91.245714008, 27.285552559], [91.246709495, 27.283784995], [91.246820289, 27.282459804], [91.248619797, 27.280705508], [91.250891703, 27.279783569], [91.25034699, 27.279254374], [91.250138734, 27.278102449], [91.250254704, 27.277005252], [91.252154532, 27.273698901], [91.252176595, 27.270006025], [91.252335734, 27.268765305], [91.252727898, 27.267462248], [91.252444376, 27.265502688], [91.251453204, 27.263549348], [91.251491649, 27.261240383], [91.25120613, 27.259108118], [91.249468843, 27.254103099], [91.25081638, 27.253282971], [91.253899623, 27.251986965], [91.257102559, 27.249707684], [91.263978256, 27.246646183], [91.266107917, 27.245308699], [91.266795772, 27.244167666], [91.269243917, 27.241273156], [91.268185195, 27.240439295], [91.266782095, 27.239757506], [91.26626249, 27.238992212], [91.263823334, 27.238310572], [91.26278445, 27.238500413], [91.261318432, 27.238472764], [91.254944147, 27.240731574], [91.252837821, 27.240839302], [91.25152745, 27.24051215], [91.249970112, 27.240456962], [91.2492372, 27.240237611], [91.248015642, 27.24015462], [91.246432644, 27.239635637], [91.246455463, 27.239212097], [91.242771298, 27.237295795], [91.240491208, 27.236369646], [91.241534981, 27.238106971], [91.243456761, 27.240582835], [91.243489119, 27.243341603], [91.242917813, 27.245482483], [91.24179382, 27.246828914], [91.231605232, 27.247583417], [91.22460835, 27.247236192], [91.223445252, 27.24740536], [91.223148283, 27.247950914], [91.223182251, 27.25089256], [91.223817504, 27.253376352], [91.223639217, 27.258288645]]]}, "properties": {"saz_id": 1448, "town": "Mongar", "db_town": "Mongar", "dzongkhag": "Monggar", "lap_name": "Phosorong", "area_code": "04", "zone_type": "chiwog", "local_area_group": "LA 4", "division": null, "index": 67.7133, "has_data": true, "category": "High Liveable", "color": "#91cf60"}}, {"type": "Feature", "geometry": {"type": "Polygon", "coordinates": [[[91.266467804, 27.276702826], [91.267400484, 27.276903378], [91.268154607, 27.277603366], [91.270876679, 27.279244251], [91.271262257, 27.280197003], [91.271636831, 27.280443149], [91.273976937, 27.281213604], [91.275148218, 27.281909822], [91.276045482, 27.282942647], [91.277094841, 27.284846757], [91.278503796, 27.285749666], [91.280983908, 27.286585353], [91.277041767, 27.290089937], [91.274525074, 27.292730454], [91.272074883, 27.295654821], [91.270644788, 27.29868407], [91.270555957, 27.301815366], [91.269717432, 27.30631935], [91.269075141, 27.307371589], [91.269271628, 27.308363291], [91.269239172, 27.309451865], [91.270077027, 27.311418886], [91.270956452, 27.317053415], [91.272518937, 27.319335701], [91.275577228, 27.32212953], [91.277241061, 27.325459633], [91.277891647, 27.327603278], [91.278374037, 27.327129313], [91.279511323, 27.324971873], [91.27941323, 27.322926006], [91.279160086, 27.320814926], [91.278773271, 27.319778657], [91.278908268, 27.318603359], [91.279418401, 27.317290349], [91.279594666, 27.316182416], [91.279924057, 27.315608218], [91.281159501, 27.315094735], [91.283433287, 27.313665356], [91.283876845, 27.313123987], [91.284086416, 27.311847539], [91.284780805, 27.310097085], [91.285078426, 27.309825713], [91.286740511, 27.307596878], [91.287833068, 27.304701468], [91.288188085, 27.303122278], [91.288552956, 27.302145843], [91.290557314, 27.300215291], [91.291973883, 27.29922931], [91.292567409, 27.298553342], [91.292890138, 27.297442938], [91.294904248, 27.29611621], [91.295161431, 27.295644238], [91.295626381, 27.293761481], [91.296243343, 27.292112154], [91.297272071, 27.29002331], [91.297934306, 27.288977538], [91.298973178, 27.287927197], [91.300186769, 27.285870513], [91.301634406, 27.284347917], [91.302705348, 27.282827626], [91.303657983, 27.280940383], [91.304437564, 27.280194928], [91.308204008, 27.277913811], [91.309881735, 27.277025727], [91.311555331, 27.275601425], [91.312339725, 27.27463913], [91.312321121, 27.273748587], [91.312204068, 27.273482113], [91.312110017, 27.27180541], [91.312719974, 27.26961872], [91.313289967, 27.26706437], [91.313240025, 27.266092835], [91.310408689, 27.266069261], [91.307606686, 27.265554282], [91.304576536, 27.265394689], [91.302996451, 27.265783962], [91.302676541, 27.266285871], [91.302651496, 27.267951249], [91.301928867, 27.269829603], [91.29735992, 27.273242263], [91.295079283, 27.273408661], [91.293825099, 27.273793737], [91.290124221, 27.27586615], [91.287616791, 27.276513141], [91.286069374, 27.275862197], [91.281139407, 27.276447396], [91.279412025, 27.276171667], [91.277687659, 27.276145382], [91.275066593, 27.275128017], [91.273969153, 27.275100585], [91.273952098, 27.275153797], [91.271318305, 27.275177336], [91.269966904, 27.275473882], [91.267969192, 27.275207197], [91.267095506, 27.275499461], [91.265910566, 27.27682293], [91.266467804, 27.276702826]]]}, "properties": {"saz_id": 1446, "town": "Mongar", "db_town": "Mongar", "dzongkhag": "Monggar", "lap_name": "Themnangbi_Ketongri", "area_code": "05", "zone_type": "chiwog", "local_area_group": "LA 5", "division": null, "index": 63.8733, "has_data": true, "category": "High Liveable", "color": "#91cf60"}}, {"type": "Feature", "geometry": {"type": "Polygon", "coordinates": [[[91.267036163, 27.258486118], [91.267578059, 27.261318253], [91.267545961, 27.262227314], [91.268107778, 27.263129959], [91.26739545, 27.264436809], [91.267329587, 27.26548164], [91.266792905, 27.266470829], [91.266508456, 27.26762711], [91.266692261, 27.268835672], [91.266495135, 27.269896347], [91.264918089, 27.27267282], [91.264430364, 27.274379557], [91.262708124, 27.274952523], [91.263987359, 27.275598204], [91.265681055, 27.277078976], [91.267095506, 27.275499461], [91.267969192, 27.275207197], [91.269966904, 27.275473882], [91.271318305, 27.275177337], [91.275066594, 27.275128017], [91.277687659, 27.276145382], [91.279412025, 27.276171668], [91.281139408, 27.276447396], [91.286069374, 27.275862196], [91.287616791, 27.276513142], [91.290124221, 27.275866149], [91.293825099, 27.273793737], [91.295079282, 27.273408661], [91.29735992, 27.273242263], [91.301928867, 27.269829603], [91.302651496, 27.26795125], [91.302676541, 27.266285871], [91.302996451, 27.265783963], [91.304576536, 27.265394689], [91.307606687, 27.265554282], [91.310408689, 27.266069261], [91.313240025, 27.266092835], [91.312414259, 27.261070281], [91.312252266, 27.259190736], [91.312819728, 27.256434343], [91.312658184, 27.255429972], [91.310503163, 27.254275764], [91.307484731, 27.253196064], [91.306085723, 27.252470601], [91.302547992, 27.251698107], [91.297934718, 27.25039233], [91.295534295, 27.248781793], [91.294993916, 27.248198548], [91.292193565, 27.241132189], [91.291403252, 27.240149309], [91.290518043, 27.239466445], [91.28881024, 27.238675877], [91.288258438, 27.238185281], [91.285939833, 27.235158195], [91.283254506, 27.23439332], [91.282430722, 27.234393969], [91.280112782, 27.235592279], [91.278375978, 27.237417521], [91.276544373, 27.239979641], [91.275199994, 27.240823693], [91.274288776, 27.241123109], [91.271093578, 27.241525979], [91.269741652, 27.241475309], [91.269243917, 27.241273156], [91.266070976, 27.245178074], [91.267090661, 27.248876342], [91.267650377, 27.256797444], [91.267036163, 27.258486118]]]}, "properties": {"saz_id": 1449, "town": "Mongar", "db_town": "Mongar", "dzongkhag": "Monggar", "lap_name": "Wengkhar_Yagpoogang", "area_code": "06", "zone_type": "chiwog", "local_area_group": null, "division": null, "index": null, "has_data": false, "category": "Data not available", "color": "#FFFFFF"}}, {"type": "Feature", "geometry": {"type": "Polygon", "coordinates": [[[89.327360081, 26.876369647], [89.328612307, 26.880025462], [89.331823988, 26.883356206], [89.334677953, 26.885791014], [89.335072844, 26.885676203], [89.334282295, 26.883385223], [89.335302581, 26.881592957], [89.336652476, 26.881877916], [89.337723637, 26.882676124], [89.338290401, 26.883390119], [89.34041635, 26.883804051], [89.342157083, 26.883672859], [89.350025784, 26.885032698], [89.351525786, 26.886251569], [89.354113153, 26.887503261], [89.357744153, 26.888286007], [89.364205925, 26.888510265], [89.366394138, 26.88893802], [89.369735967, 26.88866042], [89.370261944, 26.889066759], [89.370506364, 26.8898175], [89.370774359, 26.889818694], [89.371698789, 26.888762325], [89.373141231, 26.888146199], [89.375333227, 26.887891222], [89.376573944, 26.888286765], [89.377695954, 26.887664825], [89.378165151, 26.887095727], [89.37696143, 26.886329452], [89.376986492, 26.885654788], [89.376299809, 26.885159826], [89.376475174, 26.885052636], [89.376309201, 26.884863838], [89.376527372, 26.88438767], [89.375728675, 26.884488624], [89.375559491, 26.884177916], [89.37188837, 26.883627049], [89.368833253, 26.885455786], [89.366875331, 26.885530611], [89.356761662, 26.88311147], [89.351070798, 26.880910504], [89.345279769, 26.877596125], [89.339609305, 26.874978615], [89.333451837, 26.870686889], [89.331555144, 26.870956548], [89.328374178, 26.873003224], [89.327467133, 26.874029788], [89.327360081, 26.876369647]]]}, "properties": {"saz_id": 84, "town": "Phuentsholing", "db_town": "Phuentshogling Thromde", "dzongkhag": "Chhukha", "lap_name": "Lap 1", "area_code": "01", "zone_type": "lap", "local_area_group": "Toorsatar", "division": null, "index": null, "has_data": false, "category": "Data not available", "color": "#FFFFFF"}}, {"type": "Feature", "geometry": {"type": "Polygon", "coordinates": [[[89.374999127, 26.866916193], [89.375512911, 26.868060033], [89.374616263, 26.868361085], [89.374573232, 26.869476886], [89.374610824, 26.868362385], [89.375505253, 26.868060191], [89.374987933, 26.866920169], [89.374577192, 26.867085951], [89.37093342, 26.867182059], [89.371989711, 26.869378908], [89.37308209, 26.874141119], [89.373555471, 26.873892776], [89.375918403, 26.873338309], [89.375440707, 26.871886], [89.375944011, 26.873351416], [89.373592052, 26.873907077], [89.373093434, 26.874183483], [89.373242791, 26.876954765], [89.372678076, 26.88118624], [89.371887398, 26.883704207], [89.375543244, 26.88420799], [89.375697065, 26.884487286], [89.376481977, 26.884421098], [89.376293184, 26.884852121], [89.376447352, 26.885068729], [89.376283734, 26.885158557], [89.376964539, 26.885663071], [89.377063838, 26.885969987], [89.376953066, 26.886338665], [89.377348381, 26.886493647], [89.378067352, 26.887123701], [89.378972263, 26.885713702], [89.379399183, 26.885771301], [89.379672879, 26.885438163], [89.379597294, 26.885054733], [89.380854684, 26.883813439], [89.381193356, 26.882958175], [89.380941581, 26.882121222], [89.381326397, 26.881349746], [89.381165823, 26.880882359], [89.381685293, 26.879630857], [89.382392885, 26.878778075], [89.381784752, 26.878481997], [89.381724358, 26.878161323], [89.383133246, 26.877610246], [89.383589696, 26.877946578], [89.384623562, 26.877797844], [89.384486318, 26.877323598], [89.384169752, 26.876973947], [89.384294215, 26.876939662], [89.384056718, 26.876332635], [89.383777518, 26.876254798], [89.383639524, 26.875919856], [89.383128579, 26.877039061], [89.382382064, 26.877196005], [89.381194654, 26.87698533], [89.381284412, 26.874794226], [89.381025873, 26.873776141], [89.381059294, 26.872987453], [89.380492998, 26.872859594], [89.38026924, 26.872586961], [89.379697029, 26.870696819], [89.379409814, 26.870667697], [89.37918077, 26.870924312], [89.378830724, 26.870623376], [89.378184128, 26.869509079], [89.378152885, 26.86933714], [89.378527593, 26.868944663], [89.377941237, 26.867783448], [89.377228015, 26.867964326], [89.377935798, 26.867784749], [89.37788799, 26.867567363], [89.376993163, 26.866761986], [89.377017625, 26.86661053], [89.377476537, 26.86639163], [89.377347324, 26.86605849], [89.376090687, 26.86620285], [89.375460277, 26.866743562], [89.375570761, 26.867039021], [89.375457753, 26.866754566], [89.374999127, 26.866916193]]]}, "properties": {"saz_id": 1381, "town": "Phuentsholing", "db_town": "Phuentshogling Thromde", "dzongkhag": "Chhukha", "lap_name": "Lap 2", "area_code": "02", "zone_type": "lap", "local_area_group": "Amo Chu lap", "division": null, "index": 62.0633, "has_data": true, "category": "High Liveable", "color": "#91cf60"}}, {"type": "Feature", "geometry": {"type": "Polygon", "coordinates": [[[89.386885619, 26.870374363], [89.389297716, 26.870554805], [89.38956628, 26.870441906], [89.39015411, 26.868727027], [89.390073072, 26.86826957], [89.390762194, 26.867396202], [89.39070553, 26.866375521], [89.390138844, 26.866324319], [89.38924595, 26.865913856], [89.388480274, 26.866038318], [89.387933697, 26.866580346], [89.387445313, 26.866771521], [89.386565197, 26.867682572], [89.386627826, 26.86786068], [89.385980094, 26.868254463], [89.385907898, 26.86814009], [89.384848132, 26.86878588], [89.384372436, 26.868244858], [89.384169632, 26.86876377], [89.383328011, 26.8687453], [89.382615005, 26.870071715], [89.381637783, 26.869814511], [89.380781329, 26.870200826], [89.380634027, 26.870507965], [89.380565142, 26.870321338], [89.380282713, 26.870482917], [89.380245622, 26.870163215], [89.379689255, 26.870709303], [89.380269359, 26.872576406], [89.380477582, 26.872848971], [89.381040912, 26.872986829], [89.381033782, 26.873761267], [89.381272882, 26.874783184], [89.381184171, 26.876989095], [89.382388079, 26.877172415], [89.383120916, 26.877031083], [89.384173001, 26.874772778], [89.384412741, 26.874606652], [89.384700793, 26.8735866], [89.385015314, 26.873236214], [89.385784433, 26.8728434], [89.385502204, 26.872608831], [89.385794264, 26.871922264], [89.386608937, 26.871361601], [89.386942814, 26.871380463], [89.387539841, 26.870850196], [89.388068464, 26.870761935], [89.388283351, 26.870520816], [89.386885619, 26.870374363]]]}, "properties": {"saz_id": 86, "town": "Phuentsholing", "db_town": "Phuentshogling Thromde", "dzongkhag": "Chhukha", "lap_name": "Lap 3", "area_code": "03", "zone_type": "lap", "local_area_group": "Dhamdara lap", "division": null, "index": 65.36, "has_data": true, "category": "High Liveable", "color": "#91cf60"}}, {"type": "Feature", "geometry": {"type": "Polygon", "coordinates": [[[89.376381101, 26.861385172], [89.367576143, 26.858241218], [89.369403789, 26.863368974], [89.370979589, 26.867193921], [89.374044054, 26.867097818], [89.375488807, 26.866715015], [89.375830265, 26.866410915], [89.375569268, 26.865852527], [89.375609592, 26.865581054], [89.375129974, 26.865234145], [89.375186346, 26.864515649], [89.374794273, 26.863255349], [89.375366503, 26.862293165], [89.375884268, 26.862055144], [89.376381101, 26.861385172]]]}, "properties": {"saz_id": 87, "town": "Phuentsholing", "db_town": "Phuentshogling Thromde", "dzongkhag": "Chhukha", "lap_name": "Lap 4a", "area_code": "04", "zone_type": "lap", "local_area_group": "Core a, b, c, d, e, f, g, h, i, j, k, l, m", "division": null, "index": 68.63, "has_data": true, "category": "High Liveable", "color": "#91cf60"}}, {"type": "Feature", "geometry": {"type": "Polygon", "coordinates": [[[89.376379276, 26.861374934], [89.375878579, 26.862041406], [89.375314199, 26.862282704], [89.374780742, 26.863255507], [89.375183415, 26.864530002], [89.375125185, 26.865233254], [89.375626466, 26.865564005], [89.375564441, 26.865858601], [89.375836821, 26.866465796], [89.376105946, 26.866251056], [89.37726411, 26.866078544], [89.379056366, 26.864989372], [89.380285738, 26.864573357], [89.380197337, 26.864405799], [89.37986354, 26.864376474], [89.379718109, 26.863985771], [89.378873957, 26.864241281], [89.379045341, 26.864163919], [89.378865074, 26.862331217], [89.376379276, 26.861374934]]]}, "properties": {"saz_id": 88, "town": "Phuentsholing", "db_town": "Phuentshogling Thromde", "dzongkhag": "Chhukha", "lap_name": "Lap 4b", "area_code": "05", "zone_type": "lap", "local_area_group": "Core a, b, c, d, e, f, g, h, i, j, k, l, m", "division": null, "index": 68.63, "has_data": true, "category": "High Liveable", "color": "#91cf60"}}, {"type": "Feature", "geometry": {"type": "Polygon", "coordinates": [[[89.379868356, 26.86472825], [89.377385613, 26.866039899], [89.377448539, 26.866392599], [89.376988524, 26.866752977], [89.377851148, 26.867542999], [89.378378182, 26.868454307], [89.378527021, 26.868932094], [89.378148038, 26.869351835], [89.378863253, 26.87065055], [89.379191854, 26.870923646], [89.379414669, 26.870656455], [89.379833861, 26.870696605], [89.380232867, 26.870165499], [89.380281603, 26.870486123], [89.380565884, 26.870341095], [89.380642545, 26.870526015], [89.380787784, 26.870241068], [89.380638668, 26.869812041], [89.380797681, 26.869137091], [89.382115776, 26.867408465], [89.382642055, 26.867034631], [89.382149639, 26.866179213], [89.381614034, 26.865820308], [89.381842004, 26.865901428], [89.382348073, 26.86531506], [89.382282292, 26.865061558], [89.38235001, 26.865315939], [89.383672352, 26.864940353], [89.383776464, 26.864717913], [89.383544183, 26.864598894], [89.383786664, 26.864716651], [89.384243288, 26.863577397], [89.383422616, 26.863462373], [89.38290554, 26.863575046], [89.381654913, 26.864243706], [89.379868356, 26.86472825]]]}, "properties": {"saz_id": 89, "town": "Phuentsholing", "db_town": "Phuentshogling Thromde", "dzongkhag": "Chhukha", "lap_name": "Lap 4c", "area_code": "06", "zone_type": "lap", "local_area_group": "Core a, b, c, d, e, f, g, h, i, j, k, l, m", "division": null, "index": 68.63, "has_data": true, "category": "High Liveable", "color": "#91cf60"}}, {"type": "Feature", "geometry": {"type": "MultiPolygon", "coordinates": [[[[89.378836573, 26.862764468], [89.378836496, 26.862764472], [89.378836486, 26.862766214], [89.378836573, 26.862764468]]], [[[89.378836573, 26.862764468], [89.378940636, 26.862758161], [89.378837467, 26.862764477], [89.378887453, 26.863210484], [89.379097915, 26.863191063], [89.378887444, 26.863212226], [89.378942075, 26.863518945], [89.379284642, 26.863524691], [89.378941095, 26.863520682], [89.379048178, 26.864177645], [89.379708374, 26.863990735], [89.379846449, 26.862882095], [89.379566285, 26.862891127], [89.379845487, 26.862880349], [89.379649623, 26.862561464], [89.379846675, 26.862306576], [89.380203707, 26.862346452], [89.380372124, 26.861725525], [89.380019442, 26.861600342], [89.378908916, 26.86230246], [89.379081432, 26.86246081], [89.378858308, 26.862325746], [89.378836573, 26.862764468]]]]}, "properties": {"saz_id": 90, "town": "Phuentsholing", "db_town": "Phuentshogling Thromde", "dzongkhag": "Chhukha", "lap_name": "Lap 4d", "area_code": "07", "zone_type": "lap", "local_area_group": "Core a, b, c, d, e, f, g, h, i, j, k, l, m", "division": null, "index": 68.63, "has_data": true, "category": "High Liveable", "color": "#91cf60"}}, {"type": "Feature", "geometry": {"type": "Polygon", "coordinates": [[[89.381536696, 26.862691365], [89.379860166, 26.862820064], [89.37984951, 26.863216395], [89.380192053, 26.863171362], [89.379847566, 26.863216822], [89.379703102, 26.86398391], [89.379864027, 26.864381646], [89.380437687, 26.86457571], [89.38143715, 26.864304952], [89.381360429, 26.864131642], [89.381437169, 26.86430147], [89.381717227, 26.864215627], [89.382356273, 26.863810942], [89.382076004, 26.863221138], [89.381077144, 26.863141405], [89.381536696, 26.862691365]]]}, "properties": {"saz_id": 91, "town": "Phuentsholing", "db_town": "Phuentshogling Thromde", "dzongkhag": "Chhukha", "lap_name": "Lap 4e", "area_code": "08", "zone_type": "lap", "local_area_group": "Core a, b, c, d, e, f, g, h, i, j, k, l, m", "division": null, "index": 68.63, "has_data": true, "category": "High Liveable", "color": "#91cf60"}}, {"type": "Feature", "geometry": {"type": "MultiPolygon", "coordinates": [[[[89.380363063, 26.861718193], [89.380196586, 26.862339455], [89.379771077, 26.862395054], [89.379840436, 26.862849853], [89.381655208, 26.862604978], [89.381683393, 26.862420518], [89.381507117, 26.862400457], [89.381679514, 26.86241963], [89.381809333, 26.861397148], [89.380409341, 26.86138173], [89.380022058, 26.861587837], [89.380363063, 26.861718193]]], [[[89.380409341, 26.86138173], [89.3804115, 26.861380581], [89.380395968, 26.861380513], [89.380409341, 26.86138173]]]]}, "properties": {"saz_id": 92, "town": "Phuentsholing", "db_town": "Phuentshogling Thromde", "dzongkhag": "Chhukha", "lap_name": "Lap 4f", "area_code": "09", "zone_type": "lap", "local_area_group": "Core a, b, c, d, e, f, g, h, i, j, k, l, m", "division": null, "index": 68.63, "has_data": true, "category": "High Liveable", "color": "#91cf60"}}, {"type": "Feature", "geometry": {"type": "Polygon", "coordinates": [[[89.381831165, 26.861276328], [89.381668688, 26.862619077], [89.381139505, 26.862967428], [89.381121172, 26.863192092], [89.382073401, 26.863214542], [89.382356752, 26.863773015], [89.383195916, 26.863387485], [89.383756831, 26.8634031], [89.383761517, 26.863075745], [89.383282849, 26.862909099], [89.383490731, 26.861720656], [89.383341303, 26.861349095], [89.381831165, 26.861276328]]]}, "properties": {"saz_id": 93, "town": "Phuentsholing", "db_town": "Phuentshogling Thromde", "dzongkhag": "Chhukha", "lap_name": "Lap 4g", "area_code": "10", "zone_type": "lap", "local_area_group": "Core a, b, c, d, e, f, g, h, i, j, k, l, m", "division": null, "index": 68.63, "has_data": true, "category": "High Liveable", "color": "#91cf60"}}, {"type": "Feature", "geometry": {"type": "MultiPolygon", "coordinates": [[[[89.383378591, 26.868772601], [89.383379873, 26.868777299], [89.383381243, 26.868773772], [89.383378591, 26.868772601]]], [[[89.383381243, 26.868773772], [89.384169998, 26.868773705], [89.384374283, 26.868250192], [89.384846185, 26.868794246], [89.386638069, 26.867869371], [89.386581475, 26.867690805], [89.387175408, 26.867195961], [89.387158106, 26.867008181], [89.387014762, 26.866906668], [89.386320283, 26.867126555], [89.386122628, 26.867121716], [89.387012165, 26.866903137], [89.387168546, 26.867012919], [89.38721235, 26.867137464], [89.387441901, 26.866777125], [89.387937386, 26.866586873], [89.388466144, 26.866047162], [89.389428125, 26.864242306], [89.389409792, 26.863758885], [89.388801219, 26.863575588], [89.387706138, 26.863861793], [89.385565814, 26.863922897], [89.384228267, 26.863569822], [89.383647834, 26.864953968], [89.38228283, 26.865319901], [89.381850601, 26.865904592], [89.382644836, 26.867030043], [89.382068575, 26.867436518], [89.380786555, 26.869131988], [89.380631173, 26.869800008], [89.380767403, 26.870246405], [89.381770471, 26.869815554], [89.382623241, 26.870080896], [89.383945954, 26.867396597], [89.383381243, 26.868773772]]]]}, "properties": {"saz_id": 94, "town": "Phuentsholing", "db_town": "Phuentshogling Thromde", "dzongkhag": "Chhukha", "lap_name": "Lap 4h", "area_code": "11", "zone_type": "lap", "local_area_group": "Core a, b, c, d, e, f, g, h, i, j, k, l, m", "division": null, "index": 68.63, "has_data": true, "category": "High Liveable", "color": "#91cf60"}}, {"type": "Feature", "geometry": {"type": "Polygon", "coordinates": [[[89.384838392, 26.858304642], [89.384571337, 26.858143275], [89.384468402, 26.857791072], [89.385023691, 26.857069081], [89.38511929, 26.856623708], [89.384995611, 26.856337587], [89.384778284, 26.856315745], [89.384449712, 26.856760104], [89.38357823, 26.859222946], [89.380388216, 26.861377867], [89.381809262, 26.861410208], [89.381817861, 26.861257006], [89.383347358, 26.861340305], [89.383500026, 26.861695991], [89.383724884, 26.861763143], [89.383974127, 26.861585087], [89.386255699, 26.86190149], [89.386497068, 26.861787607], [89.386805492, 26.860400209], [89.384547042, 26.859762636], [89.384838392, 26.858304642]]]}, "properties": {"saz_id": 95, "town": "Phuentsholing", "db_town": "Phuentshogling Thromde", "dzongkhag": "Chhukha", "lap_name": "Lap 4i", "area_code": "12", "zone_type": "lap", "local_area_group": "Core a, b, c, d, e, f, g, h, i, j, k, l, m", "division": null, "index": 68.63, "has_data": true, "category": "High Liveable", "color": "#91cf60"}}, {"type": "Feature", "geometry": {"type": "Polygon", "coordinates": [[[89.38627459, 26.85608983], [89.385136816, 26.85538486], [89.384999701, 26.857045523], [89.384452084, 26.85778496], [89.384558864, 26.858144146], [89.38482198, 26.858315944], [89.384875655, 26.8581284], [89.384517566, 26.859766262], [89.38730325, 26.860513706], [89.387436698, 26.859889135], [89.385853721, 26.859645443], [89.386065283, 26.858539019], [89.38667384, 26.858778322], [89.387654042, 26.858787958], [89.386994873, 26.858060737], [89.387345432, 26.857689562], [89.387364143, 26.857459784], [89.388389694, 26.858099821], [89.38914879, 26.857744382], [89.389552351, 26.857794883], [89.389568929, 26.857599922], [89.388444947, 26.857211965], [89.388602246, 26.856843476], [89.388093097, 26.8562109], [89.38627459, 26.85608983]]]}, "properties": {"saz_id": 96, "town": "Phuentsholing", "db_town": "Phuentshogling Thromde", "dzongkhag": "Chhukha", "lap_name": "Lap 4j", "area_code": "13", "zone_type": "lap", "local_area_group": "Core a, b, c, d, e, f, g, h, i, j, k, l, m", "division": null, "index": 68.63, "has_data": true, "category": "High Liveable", "color": "#91cf60"}}, {"type": "Feature", "geometry": {"type": "Polygon", "coordinates": [[[89.386486448, 26.861776678], [89.387438946, 26.861927518], [89.387568694, 26.86135909], [89.387405621, 26.861332728], [89.387573562, 26.861356499], [89.387445797, 26.862007215], [89.387798649, 26.862102776], [89.388049054, 26.861031182], [89.388561086, 26.860816354], [89.389585693, 26.861231116], [89.39031264, 26.861805419], [89.392071635, 26.862544366], [89.3922364, 26.862231629], [89.390936353, 26.861355353], [89.390581614, 26.86088714], [89.390424539, 26.861213839], [89.387618587, 26.858763806], [89.386671037, 26.858780595], [89.386066576, 26.858541146], [89.385843227, 26.859633752], [89.387441698, 26.859884477], [89.387321944, 26.860489952], [89.387621299, 26.860554715], [89.386812765, 26.860401547], [89.386486448, 26.861776678]]]}, "properties": {"saz_id": 97, "town": "Phuentsholing", "db_town": "Phuentshogling Thromde", "dzongkhag": "Chhukha", "lap_name": "Lap 4k", "area_code": "14", "zone_type": "lap", "local_area_group": "Core a, b, c, d, e, f, g, h, i, j, k, l, m", "division": null, "index": 68.63, "has_data": true, "category": "High Liveable", "color": "#91cf60"}}, {"type": "Feature", "geometry": {"type": "MultiPolygon", "coordinates": [[[[89.383762569, 26.863070567], [89.383756942, 26.863393741], [89.385296123, 26.86384623], [89.387225769, 26.863903365], [89.388508809, 26.863609407], [89.389378364, 26.863661923], [89.389620353, 26.863070905], [89.389258817, 26.862783761], [89.388966501, 26.862984495], [89.387225919, 26.863066437], [89.387436018, 26.861907806], [89.386551472, 26.861757696], [89.386256403, 26.861904431], [89.383958426, 26.861593617], [89.38372844, 26.861756302], [89.383519417, 26.861633496], [89.383301878, 26.862454469], [89.383299536, 26.862886316], [89.384010853, 26.863116229], [89.383762569, 26.863070567]]], [[[89.383762569, 26.863070567], [89.383762581, 26.863069872], [89.383758698, 26.863069855], [89.383762569, 26.863070567]]]]}, "properties": {"saz_id": 98, "town": "Phuentsholing", "db_town": "Phuentshogling Thromde", "dzongkhag": "Chhukha", "lap_name": "lap 4l", "area_code": "15", "zone_type": "lap", "local_area_group": "Core a, b, c, d, e, f, g, h, i, j, k, l, m", "division": null, "index": 68.63, "has_data": true, "category": "High Liveable", "color": "#91cf60"}}, {"type": "Feature", "geometry": {"type": "Polygon", "coordinates": [[[89.390261288, 26.86177554], [89.388500421, 26.860847625], [89.388039309, 26.861026732], [89.387801107, 26.861995639], [89.388866794, 26.862366747], [89.388799948, 26.862656454], [89.388865031, 26.862367669], [89.387437994, 26.862002773], [89.38723038, 26.863058879], [89.38896854, 26.862977593], [89.38924917, 26.862783773], [89.388948839, 26.862669287], [89.389475956, 26.862854407], [89.38961849, 26.863067469], [89.389409526, 26.863655147], [89.390533696, 26.863658256], [89.392205373, 26.864029398], [89.393680734, 26.864078396], [89.393719834, 26.86329974], [89.393057772, 26.862386167], [89.39224506, 26.862234659], [89.39207448, 26.86254563], [89.390261288, 26.86177554]]]}, "properties": {"saz_id": 99, "town": "Phuentsholing", "db_town": "Phuentshogling Thromde", "dzongkhag": "Chhukha", "lap_name": "Lap 4m", "area_code": "16", "zone_type": "lap", "local_area_group": "Core a, b, c, d, e, f, g, h, i, j, k, l, m", "division": null, "index": 68.63, "has_data": true, "category": "High Liveable", "color": "#91cf60"}}, {"type": "Feature", "geometry": {"type": "Polygon", "coordinates": [[[89.392220262, 26.864024945], [89.391348199, 26.863714714], [89.389422399, 26.863664617], [89.389311128, 26.864137786], [89.389427024, 26.864249734], [89.389096575, 26.865042367], [89.388455017, 26.865917239], [89.388462109, 26.866042648], [89.389456693, 26.865956396], [89.390130388, 26.866328473], [89.390686131, 26.866188925], [89.390534502, 26.866281457], [89.390781982, 26.866477557], [89.390769252, 26.867403906], [89.390136319, 26.868118617], [89.39016391, 26.868766522], [89.389668858, 26.869837063], [89.389516579, 26.870714051], [89.389897895, 26.870576389], [89.390056742, 26.869922323], [89.390243963, 26.869769891], [89.391237161, 26.869948308], [89.392465856, 26.869661046], [89.392720444, 26.86998255], [89.393030701, 26.870060503], [89.393820328, 26.869592126], [89.394996861, 26.870232402], [89.39585362, 26.86977983], [89.396720138, 26.869682532], [89.3972957, 26.870060477], [89.397238706, 26.870733261], [89.396831141, 26.871428067], [89.39679793, 26.871831921], [89.397075899, 26.872690727], [89.397449667, 26.87251122], [89.397311194, 26.872259873], [89.397421259, 26.872009587], [89.397841552, 26.871844207], [89.3983135, 26.87237472], [89.398894153, 26.872545232], [89.399373194, 26.873020919], [89.400194793, 26.873344818], [89.401686038, 26.873351139], [89.402386744, 26.873033693], [89.400459896, 26.873150911], [89.399839133, 26.873036829], [89.399266372, 26.872658262], [89.3991463, 26.871863691], [89.398837838, 26.871444452], [89.398793889, 26.870942753], [89.399140191, 26.870080511], [89.398941056, 26.86955029], [89.398228295, 26.869212916], [89.397764807, 26.868737292], [89.396913776, 26.866465539], [89.396336093, 26.866637737], [89.396871357, 26.866409635], [89.396594944, 26.865809427], [89.395517697, 26.866163318], [89.396594944, 26.865809427], [89.396598809, 26.865812926], [89.396525842, 26.865659374], [89.395357027, 26.864919525], [89.394883624, 26.864123438], [89.392748423, 26.864016767], [89.392669496, 26.864253252], [89.392740657, 26.864016733], [89.392220262, 26.864024945]]]}, "properties": {"saz_id": 100, "town": "Phuentsholing", "db_town": "Phuentshogling Thromde", "dzongkhag": "Chhukha", "lap_name": "Lap 5", "area_code": "17", "zone_type": "lap", "local_area_group": "Kabraytar LAP", "division": null, "index": 67.7733, "has_data": true, "category": "High Liveable", "color": "#91cf60"}}, {"type": "Feature", "geometry": {"type": "Polygon", "coordinates": [[[89.389947252, 26.842006489], [89.385243068, 26.854691117], [89.385153938, 26.855376826], [89.38609789, 26.856021749], [89.388255181, 26.856323647], [89.388609708, 26.856826693], [89.388436914, 26.85718815], [89.388591406, 26.857342058], [89.389584007, 26.857611033], [89.388556524, 26.858052383], [89.388075342, 26.857994578], [89.387347829, 26.857531707], [89.386972218, 26.858059454], [89.387064507, 26.858227024], [89.388688073, 26.859585351], [89.389366839, 26.860451999], [89.390403676, 26.86116695], [89.390591019, 26.860875752], [89.390955991, 26.861359138], [89.391591094, 26.861682284], [89.392240319, 26.862270174], [89.393016784, 26.862301371], [89.393248802, 26.862483469], [89.393632653, 26.86332097], [89.394333169, 26.863031424], [89.394744722, 26.861584372], [89.39525921, 26.86122437], [89.395786192, 26.861435587], [89.395850393, 26.861045796], [89.39661324, 26.860714712], [89.396953025, 26.861078365], [89.397310264, 26.861079889], [89.397003462, 26.860354173], [89.397415118, 26.858879252], [89.39728323, 26.857388082], [89.397625884, 26.85720844], [89.397865126, 26.856025331], [89.397539483, 26.855926427], [89.397713352, 26.855356], [89.397314395, 26.854868733], [89.398445712, 26.853806255], [89.398521872, 26.85335513], [89.398182252, 26.852963619], [89.39797979, 26.85233456], [89.398275636, 26.851458171], [89.398718257, 26.851461359], [89.398874743, 26.85123913], [89.39871072, 26.850683372], [89.398929144, 26.850496233], [89.399282515, 26.850488592], [89.399906387, 26.849989727], [89.400120143, 26.850687181], [89.399838974, 26.850992468], [89.400984142, 26.851777456], [89.401737652, 26.850992242], [89.40158003, 26.850693366], [89.40185534, 26.849884099], [89.402175686, 26.849651065], [89.402087847, 26.848633735], [89.402305931, 26.848509278], [89.402369736, 26.848189136], [89.401796577, 26.847908094], [89.401393965, 26.844730136], [89.400126387, 26.84361029], [89.399541255, 26.842660503], [89.397498426, 26.841314445], [89.389947252, 26.842006489]]]}, "properties": {"saz_id": 102, "town": "Phuentsholing", "db_town": "Phuentshogling Thromde", "dzongkhag": "Chhukha", "lap_name": "Lap 6", "area_code": "18", "zone_type": "lap", "local_area_group": "Rinchending", "division": null, "index": 67.63, "has_data": true, "category": "High Liveable", "color": "#91cf60"}}, {"type": "Feature", "geometry": {"type": "Polygon", "coordinates": [[[89.393657057, 26.86352329], [89.393779534, 26.863858157], [89.394927604, 26.864113831], [89.395512953, 26.865035775], [89.39622568, 26.865373162], [89.396657047, 26.866043687], [89.397823079, 26.868779115], [89.398131825, 26.869142633], [89.398906276, 26.869563855], [89.399182783, 26.870150128], [89.398869759, 26.870594586], [89.398833977, 26.871486011], [89.399174095, 26.871793937], [89.399231518, 26.872685758], [89.399758046, 26.872994474], [89.401124429, 26.873111718], [89.402274368, 26.873033], [89.402337528, 26.872838235], [89.402897621, 26.872673431], [89.401850564, 26.870913711], [89.400614497, 26.869654694], [89.399319857, 26.867726735], [89.39867469, 26.866358764], [89.399361373, 26.865748724], [89.398523341, 26.865605851], [89.398121997, 26.865130492], [89.397533674, 26.864765783], [89.396041507, 26.864954449], [89.395642397, 26.864061165], [89.39682612, 26.863453261], [89.396828927, 26.862923899], [89.397425358, 26.861756246], [89.397211156, 26.861142373], [89.396281594, 26.860692618], [89.395751432, 26.861080418], [89.395749804, 26.861386891], [89.395347153, 26.861162275], [89.394848791, 26.861410899], [89.394657807, 26.862273798], [89.394408104, 26.862495623], [89.394249813, 26.863052181], [89.393845229, 26.863189755], [89.393657057, 26.86352329]]]}, "properties": {"saz_id": 103, "town": "Phuentsholing", "db_town": "Phuentshogling Thromde", "dzongkhag": "Chhukha", "lap_name": "Lap 7", "area_code": "19", "zone_type": "lap", "local_area_group": "Kareyphu LAP", "division": null, "index": null, "has_data": false, "category": "Data not available", "color": "#FFFFFF"}}, {"type": "Feature", "geometry": {"type": "Polygon", "coordinates": [[[89.407727261, 26.840593781], [89.397395945, 26.841364236], [89.39778083, 26.841632305], [89.397322287, 26.841710455], [89.399321288, 26.842533918], [89.399812259, 26.842933034], [89.400874247, 26.844384614], [89.401335416, 26.845285112], [89.40161513, 26.8478374], [89.402190634, 26.848411002], [89.401971525, 26.848730488], [89.402126229, 26.849584412], [89.40151169, 26.850525633], [89.401636851, 26.851090366], [89.400926259, 26.851836145], [89.401800401, 26.851738846], [89.402480474, 26.850888452], [89.403100014, 26.85047314], [89.403245645, 26.850097619], [89.403933879, 26.849908971], [89.404371799, 26.850067539], [89.404497648, 26.850503411], [89.404138016, 26.8509651], [89.404207138, 26.851482577], [89.405017083, 26.851409367], [89.406397842, 26.850955449], [89.407065913, 26.851283016], [89.407049747, 26.851777497], [89.407221158, 26.852041162], [89.40759155, 26.852121076], [89.408269028, 26.851948469], [89.408468119, 26.852303235], [89.408708324, 26.852405239], [89.409200443, 26.851850058], [89.408769134, 26.850790375], [89.409289285, 26.850443404], [89.409833492, 26.85032378], [89.410659166, 26.850584946], [89.411276963, 26.850500451], [89.411897077, 26.851094226], [89.412494366, 26.850845951], [89.414753654, 26.850940646], [89.415227281, 26.850576918], [89.415276539, 26.85043607], [89.414717189, 26.850103767], [89.413795975, 26.850298468], [89.413478367, 26.850147393], [89.412598335, 26.849321379], [89.412340589, 26.848669471], [89.411320533, 26.847707476], [89.411270096, 26.84694977], [89.40996115, 26.845547737], [89.409510565, 26.844838861], [89.408593573, 26.842733196], [89.408100649, 26.841957095], [89.407727261, 26.840593781]]]}, "properties": {"saz_id": 104, "town": "Phuentsholing", "db_town": "Phuentshogling Thromde", "dzongkhag": "Chhukha", "lap_name": "Lap 8", "area_code": "20", "zone_type": "lap", "local_area_group": "Ahlay LAP", "division": null, "index": null, "has_data": false, "category": "Data not available", "color": "#FFFFFF"}}, {"type": "Feature", "geometry": {"type": "Polygon", "coordinates": [[[89.418390312, 26.844303177], [89.420135721, 26.844644687], [89.420283752, 26.844547777], [89.420340697, 26.84403953], [89.420598535, 26.843727139], [89.420267589, 26.843147648], [89.420782729, 26.842627346], [89.420252191, 26.841978253], [89.420620376, 26.840961929], [89.421156283, 26.840936261], [89.421719412, 26.840137533], [89.422482045, 26.839806305], [89.422670516, 26.839389144], [89.4235026, 26.83914178], [89.423838487, 26.838746115], [89.425462373, 26.838536789], [89.42592013, 26.838608303], [89.426140347, 26.838051956], [89.429704101, 26.838099454], [89.430591067, 26.838517474], [89.431260066, 26.839047802], [89.433299036, 26.83968288], [89.434390322, 26.840397729], [89.436103284, 26.841017532], [89.439220697, 26.841844889], [89.4397775, 26.842306819], [89.440112311, 26.84290979], [89.439964919, 26.84209163], [89.439542585, 26.84152314], [89.439450507, 26.840905457], [89.439687015, 26.840181981], [89.439180011, 26.840646661], [89.432150008, 26.838093621], [89.422858341, 26.836036024], [89.413823289, 26.840378428], [89.407719113, 26.840574156], [89.408130365, 26.842122214], [89.408807949, 26.843225594], [89.409467126, 26.844886132], [89.411269527, 26.846965876], [89.411273581, 26.847683337], [89.412324571, 26.84866984], [89.412594929, 26.849323106], [89.413786749, 26.8502993], [89.414713788, 26.850104624], [89.415275056, 26.850441288], [89.415104219, 26.850062705], [89.413869815, 26.849814238], [89.413799319, 26.849178346], [89.413228155, 26.848503808], [89.413395318, 26.847710437], [89.413717084, 26.84742967], [89.414454164, 26.847551136], [89.415555287, 26.84709771], [89.416620145, 26.847089482], [89.417162802, 26.846888849], [89.417383186, 26.847259363], [89.41792094, 26.847637714], [89.418374799, 26.848478051], [89.419652692, 26.849144151], [89.420312066, 26.849279199], [89.420580624, 26.849151438], [89.420410021, 26.848342743], [89.419818983, 26.847751736], [89.419670883, 26.847099856], [89.419415877, 26.846855017], [89.419232731, 26.846223889], [89.418858148, 26.845826188], [89.418789229, 26.845256477], [89.418390312, 26.844303177]]]}, "properties": {"saz_id": 105, "town": "Phuentsholing", "db_town": "Phuentshogling Thromde", "dzongkhag": "Chhukha", "lap_name": "Lap 9", "area_code": "21", "zone_type": "lap", "local_area_group": "Pasakha Lap", "division": null, "index": 68.45, "has_data": true, "category": "High Liveable", "color": "#91cf60"}}, {"type": "Feature", "geometry": {"type": "Polygon", "coordinates": [[[89.443168467, 26.840517829], [89.443180235, 26.839699428], [89.443410902, 26.838577147], [89.442391897, 26.838156945], [89.441165716, 26.839607898], [89.440866143, 26.840526161], [89.440715088, 26.841243011], [89.440864704, 26.842399876], [89.441411854, 26.842171856], [89.440069078, 26.842736297], [89.440523028, 26.843587885], [89.441442132, 26.84459455], [89.441351212, 26.845715637], [89.440786103, 26.846939332], [89.442903938, 26.846850589], [89.440836542, 26.846946497], [89.440770433, 26.847757716], [89.441877088, 26.849322359], [89.442051199, 26.850239009], [89.442432246, 26.850717331], [89.44256765, 26.851419086], [89.443697865, 26.852147948], [89.443634106, 26.852482041], [89.442894391, 26.85447126], [89.440634264, 26.856106194], [89.44007218, 26.856703001], [89.439836118, 26.857328961], [89.440360016, 26.858180825], [89.440308759, 26.859127928], [89.440802152, 26.859868222], [89.441158226, 26.860106457], [89.441856145, 26.860318178], [89.442557345, 26.859861222], [89.442836581, 26.859931978], [89.442772405, 26.860349654], [89.445690548, 26.860751193], [89.447523416, 26.860744436], [89.44796136, 26.860119252], [89.448233719, 26.858406804], [89.449043739, 26.857922378], [89.448766327, 26.857475505], [89.44877193, 26.856319254], [89.448108599, 26.85538329], [89.448034659, 26.854616797], [89.447600254, 26.854517584], [89.447138714, 26.853610265], [89.446009615, 26.852644608], [89.446107413, 26.851697683], [89.445816057, 26.850930337], [89.44650077, 26.850654398], [89.448490202, 26.850355689], [89.448239795, 26.850342582], [89.448488269, 26.85035394], [89.448722952, 26.849999614], [89.449151127, 26.849778386], [89.449593853, 26.849759214], [89.451321424, 26.849006687], [89.451418939, 26.848736176], [89.451337072, 26.848982368], [89.453235137, 26.848296651], [89.454038764, 26.849125168], [89.455190947, 26.849331611], [89.455395662, 26.849555296], [89.455955017, 26.849505207], [89.456114639, 26.84941527], [89.455876693, 26.848021253], [89.455631187, 26.847396895], [89.454479247, 26.846333699], [89.454170338, 26.845169267], [89.453932176, 26.843219745], [89.453275641, 26.841885926], [89.452726482, 26.841438009], [89.449284576, 26.840254445], [89.448857902, 26.841924348], [89.44926524, 26.840238697], [89.447109663, 26.839610358], [89.444499215, 26.839438], [89.443418768, 26.838556282], [89.44317234, 26.840519585], [89.44300453, 26.840710399], [89.443168467, 26.840517829]]]}, "properties": {"saz_id": 107, "town": "Phuentsholing", "db_town": "Phuentshogling Thromde", "dzongkhag": "Chhukha", "lap_name": "Lap 10", "area_code": "22", "zone_type": "lap", "local_area_group": "Pasakha Lap", "division": null, "index": 68.45, "has_data": true, "category": "High Liveable", "color": "#91cf60"}}, {"type": "Feature", "geometry": {"type": "Polygon", "coordinates": [[[89.462772882, 26.835542766], [89.463016962, 26.834826243], [89.462747871, 26.834261014], [89.462353075, 26.834008755], [89.461662415, 26.833929508], [89.460565208, 26.834440778], [89.457698679, 26.834743268], [89.455825534, 26.833517109], [89.451144221, 26.833062116], [89.446846785, 26.833956815], [89.44513138, 26.835440718], [89.445130023, 26.835719334], [89.445933655, 26.836516552], [89.446993054, 26.839010868], [89.447874504, 26.839780517], [89.452758215, 26.841471218], [89.453438306, 26.842142537], [89.45373083, 26.842673046], [89.454048602, 26.844415651], [89.454545695, 26.844389707], [89.454303828, 26.843009602], [89.453441049, 26.841571375], [89.45243304, 26.840711627], [89.451831362, 26.839639182], [89.451941007, 26.839444572], [89.4516485, 26.83891406], [89.452024755, 26.838177173], [89.455208963, 26.83803623], [89.455626118, 26.838483629], [89.456992222, 26.838586397], [89.457630115, 26.838338085], [89.459648445, 26.838443326], [89.460645416, 26.837792371], [89.460572497, 26.836917203], [89.460679412, 26.837377182], [89.461053099, 26.83716964], [89.46202202, 26.83587774], [89.462772882, 26.835542766]]]}, "properties": {"saz_id": 108, "town": "Phuentsholing", "db_town": "Phuentshogling Thromde", "dzongkhag": "Chhukha", "lap_name": "Lap 11", "area_code": "23", "zone_type": "lap", "local_area_group": "Pekarzhing LAP", "division": null, "index": null, "has_data": false, "category": "Data not available", "color": "#FFFFFF"}}, {"type": "Feature", "geometry": {"type": "MultiPolygon", "coordinates": [[[[89.455741091, 26.849554884], [89.455746708, 26.849552545], [89.455748956, 26.849534018], [89.455741091, 26.849554884]]], [[[89.455746708, 26.849552545], [89.455692366, 26.850000489], [89.458704595, 26.853432115], [89.459980699, 26.854537544], [89.4611903, 26.854932226], [89.462861576, 26.854590309], [89.462832881, 26.854088684], [89.461868235, 26.852803362], [89.461354437, 26.851429201], [89.460298495, 26.849753453], [89.457798776, 26.84959065], [89.457511212, 26.848826824], [89.457460525, 26.848972905], [89.457739924, 26.848089357], [89.457571579, 26.847566298], [89.455746283, 26.846033839], [89.455287375, 26.846192279], [89.455117809, 26.845926936], [89.455058957, 26.84524409], [89.454485778, 26.844942363], [89.45452684, 26.844475832], [89.454061074, 26.844446173], [89.454275964, 26.845784381], [89.454594777, 26.846503058], [89.455646538, 26.847405661], [89.456110727, 26.849392617], [89.456444607, 26.849429967], [89.455746708, 26.849552545]]]]}, "properties": {"saz_id": 109, "town": "Phuentsholing", "db_town": "Phuentshogling Thromde", "dzongkhag": "Chhukha", "lap_name": "Lap 11a", "area_code": "24", "zone_type": "lap", "local_area_group": "Pasakha Industrail Estate", "division": null, "index": null, "has_data": false, "category": "Data not available", "color": "#FFFFFF"}}, {"type": "Feature", "geometry": {"type": "Polygon", "coordinates": [[[91.506332753, 26.793206071], [91.502221358, 26.792555448], [91.50149532, 26.792740973], [91.501012203, 26.792343375], [91.49985063, 26.792204009], [91.499917842, 26.792883215], [91.500518372, 26.792903003], [91.500938035, 26.793792908], [91.501579041, 26.794230673], [91.501461423, 26.794592799], [91.501592071, 26.795392731], [91.501316634, 26.796100612], [91.501541525, 26.796582014], [91.501474593, 26.796810234], [91.501780744, 26.797044958], [91.501970736, 26.796867733], [91.502729125, 26.796702783], [91.504347804, 26.796587529], [91.505349839, 26.796116628], [91.504515614, 26.795612942], [91.504645433, 26.795455967], [91.504522933, 26.79561548], [91.505403016, 26.796061146], [91.505615585, 26.79582876], [91.506156484, 26.794421335], [91.506672702, 26.793793458], [91.506281804, 26.793761006], [91.505774019, 26.793703645], [91.506573504, 26.793784053], [91.507165171, 26.793573782], [91.506332753, 26.793206071]]]}, "properties": {"saz_id": 1502, "town": "Samdrup Jongkhar", "db_town": "Samdrupjongkhar Thromde", "dzongkhag": "Samdrup Jongkhar", "lap_name": "Lap 1", "area_code": "01", "zone_type": "lap", "local_area_group": "Core", "division": null, "index": 70.104, "has_data": true, "category": "High Liveable", "color": "#91cf60"}}, {"type": "Feature", "geometry": {"type": "Polygon", "coordinates": [[[91.50454147, 26.798366485], [91.504517864, 26.797262941], [91.504215329, 26.796610776], [91.502458385, 26.796771464], [91.501774609, 26.797042493], [91.501450705, 26.796826792], [91.501178599, 26.798055216], [91.501339245, 26.798321346], [91.502569856, 26.798024226], [91.503050216, 26.797987339], [91.501339325, 26.798327432], [91.501540801, 26.798860961], [91.502225245, 26.799669374], [91.50224862, 26.800413782], [91.501802833, 26.800558515], [91.50146422, 26.800943566], [91.501190509, 26.80144967], [91.501135993, 26.802074684], [91.500249226, 26.802043503], [91.499939692, 26.802233454], [91.500060991, 26.802516234], [91.499741376, 26.803315003], [91.498698501, 26.804137663], [91.498713426, 26.80492883], [91.498238083, 26.805579095], [91.498314271, 26.80587047], [91.499100749, 26.806182731], [91.499271921, 26.805787285], [91.499598912, 26.805548453], [91.500239094, 26.806255891], [91.500811454, 26.806448669], [91.500928876, 26.806264811], [91.500799353, 26.805529644], [91.500904632, 26.805110546], [91.501241382, 26.804926391], [91.501716964, 26.804982218], [91.50284913, 26.804759183], [91.502751468, 26.804179289], [91.502886565, 26.803825429], [91.504342574, 26.803298647], [91.504343976, 26.802890797], [91.505474388, 26.801852088], [91.505099338, 26.801415031], [91.505474335, 26.801848031], [91.505848841, 26.801442299], [91.506007704, 26.80114437], [91.505916883, 26.800431116], [91.50454147, 26.798366485]]]}, "properties": {"saz_id": 128, "town": "Samdrup Jongkhar", "db_town": "Samdrupjongkhar Thromde", "dzongkhag": "Samdrup Jongkhar", "lap_name": "Lap 2", "area_code": "02", "zone_type": "lap", "local_area_group": "Service Center", "division": null, "index": 67.635, "has_data": true, "category": "High Liveable", "color": "#91cf60"}}, {"type": "Feature", "geometry": {"type": "Polygon", "coordinates": [[[91.506447929, 26.80148282], [91.506678804, 26.800871054], [91.505887056, 26.800497679], [91.505986327, 26.801173924], [91.506112207, 26.801225168], [91.505986344, 26.801175231], [91.505660775, 26.80167817], [91.50434275, 26.802885303], [91.504342375, 26.803298487], [91.502886478, 26.803831733], [91.502790751, 26.804528355], [91.502834647, 26.804763245], [91.503006608, 26.804774634], [91.501253592, 26.804936761], [91.500917791, 26.805107686], [91.50079509, 26.805527397], [91.50092725, 26.806268673], [91.500801932, 26.806489667], [91.501540224, 26.806785184], [91.502156787, 26.807573621], [91.502330794, 26.807509013], [91.502899502, 26.808203811], [91.503145099, 26.808263965], [91.504206208, 26.807844743], [91.505251521, 26.806557642], [91.506335497, 26.806661014], [91.506615388, 26.806229166], [91.506031948, 26.805743744], [91.506082026, 26.804681497], [91.506431754, 26.804683006], [91.508653564, 26.803890518], [91.508524112, 26.803797756], [91.508577958, 26.803462455], [91.507552618, 26.802615639], [91.507157176, 26.802682611], [91.506494679, 26.801946985], [91.506447929, 26.80148282]]]}, "properties": {"saz_id": 129, "town": "Samdrup Jongkhar", "db_town": "Samdrupjongkhar Thromde", "dzongkhag": "Samdrup Jongkhar", "lap_name": "Lap 3a", "area_code": "03", "zone_type": "lap", "local_area_group": "Service Center", "division": null, "index": 67.635, "has_data": true, "category": "High Liveable", "color": "#91cf60"}}, {"type": "Feature", "geometry": {"type": "Polygon", "coordinates": [[[91.506301469, 26.794327745], [91.50572229, 26.795712128], [91.505958183, 26.796111368], [91.505850578, 26.796226519], [91.50595704, 26.796110366], [91.50571189, 26.795694992], [91.50533304, 26.796112943], [91.504193287, 26.796611011], [91.504496247, 26.797252518], [91.50442918, 26.797995858], [91.505619639, 26.800009702], [91.506120067, 26.79975571], [91.50563093, 26.800008567], [91.506090713, 26.800667171], [91.506667548, 26.80085785], [91.506406764, 26.801656006], [91.506510528, 26.801979548], [91.507162141, 26.802694948], [91.507556789, 26.802615671], [91.508547234, 26.803475575], [91.508652509, 26.803912724], [91.509036644, 26.80355152], [91.508845017, 26.803423705], [91.509040595, 26.800946201], [91.509658481, 26.799967707], [91.509818772, 26.799095542], [91.509241876, 26.798387474], [91.50911581, 26.798429725], [91.509237341, 26.798386508], [91.508579674, 26.797286522], [91.509323559, 26.796487428], [91.509553146, 26.795726122], [91.509060869, 26.795431072], [91.509570874, 26.795015771], [91.509246972, 26.79445921], [91.509447862, 26.793921404], [91.509881257, 26.793868086], [91.509792408, 26.793304962], [91.508271939, 26.79373306], [91.507094331, 26.793416895], [91.507139911, 26.793615255], [91.506435059, 26.794000156], [91.506173905, 26.794427003], [91.506299161, 26.794324219], [91.506431766, 26.794337664], [91.506301469, 26.794327745]]]}, "properties": {"saz_id": 130, "town": "Samdrup Jongkhar", "db_town": "Samdrupjongkhar Thromde", "dzongkhag": "Samdrup Jongkhar", "lap_name": "Lap 3b", "area_code": "04", "zone_type": "lap", "local_area_group": "Football ground side a and b", "division": null, "index": 67.75, "has_data": true, "category": "High Liveable", "color": "#91cf60"}}, {"type": "Feature", "geometry": {"type": "Polygon", "coordinates": [[[91.493334555, 26.81132154], [91.494086204, 26.81256969], [91.495197976, 26.813243084], [91.496057583, 26.81301831], [91.495923676, 26.812512217], [91.495450122, 26.811984339], [91.495419681, 26.81181972], [91.495786773, 26.811777778], [91.49677047, 26.812389075], [91.498081154, 26.812058016], [91.498718206, 26.81211471], [91.500053219, 26.812826936], [91.500233661, 26.812301657], [91.500131855, 26.812087045], [91.501530767, 26.813087225], [91.502352626, 26.813218067], [91.502574155, 26.812860461], [91.502400649, 26.812570486], [91.502590219, 26.81193409], [91.502466346, 26.811386664], [91.502915668, 26.811147171], [91.503514296, 26.811239143], [91.504376105, 26.810915965], [91.504528953, 26.809908843], [91.505054155, 26.80925936], [91.505557219, 26.809342824], [91.505861992, 26.809133407], [91.505324484, 26.808047985], [91.504077695, 26.807858236], [91.50292276, 26.808200384], [91.502319447, 26.807483591], [91.502150966, 26.807574192], [91.501631651, 26.806793066], [91.500124561, 26.806161974], [91.499536415, 26.805521133], [91.499106333, 26.806147386], [91.498324938, 26.805863842], [91.498236446, 26.805585649], [91.497815659, 26.805843856], [91.498317472, 26.806371429], [91.498115081, 26.807109457], [91.498232851, 26.807463466], [91.497983043, 26.807821365], [91.496780534, 26.808849102], [91.495989651, 26.808920902], [91.495391203, 26.80857197], [91.495174153, 26.809272087], [91.494796924, 26.809618639], [91.494809319, 26.810294128], [91.494494874, 26.810306964], [91.49431474, 26.810587996], [91.493848352, 26.810605607], [91.493470283, 26.810888726], [91.493334555, 26.81132154]]]}, "properties": {"saz_id": 131, "town": "Samdrup Jongkhar", "db_town": "Samdrupjongkhar Thromde", "dzongkhag": "Samdrup Jongkhar", "lap_name": "Lap 4", "area_code": "05", "zone_type": "lap", "local_area_group": "Behind Dzong", "division": null, "index": null, "has_data": false, "category": "Data not available", "color": "#FFFFFF"}}, {"type": "Feature", "geometry": {"type": "Polygon", "coordinates": [[[91.451567874, 26.8597231], [91.45266279, 26.859058433], [91.453805233, 26.858792933], [91.454859873, 26.858851866], [91.455182988, 26.859229173], [91.456841126, 26.858362015], [91.457928194, 26.858192211], [91.458331633, 26.858765342], [91.4590299, 26.858612228], [91.460343546, 26.859562932], [91.461256952, 26.860739796], [91.462004673, 26.861131728], [91.462378222, 26.861578278], [91.464633617, 26.861675052], [91.465746706, 26.862253902], [91.466123092, 26.862370531], [91.466130857, 26.86187563], [91.465340152, 26.861991675], [91.466341264, 26.861188311], [91.466602973, 26.860640024], [91.466461157, 26.860064205], [91.46582086, 26.859227112], [91.465834309, 26.858624306], [91.465549342, 26.857916749], [91.464530071, 26.857857529], [91.463078535, 26.85828491], [91.462959181, 26.857804012], [91.463139218, 26.857503987], [91.4629659, 26.857226651], [91.461409896, 26.857230057], [91.460980541, 26.857393091], [91.460233893, 26.856531695], [91.460271819, 26.855078557], [91.459889856, 26.855076158], [91.45861099, 26.855730089], [91.45788307, 26.855775661], [91.457353, 26.856358419], [91.456789762, 26.856560884], [91.4560998, 26.856257142], [91.455569485, 26.856268947], [91.455474292, 26.856568089], [91.455131417, 26.856857093], [91.454406408, 26.857130997], [91.451883962, 26.857334554], [91.450005072, 26.858641647], [91.450191015, 26.859356598], [91.451567874, 26.8597231]]]}, "properties": {"saz_id": 132, "town": "Samdrup Jongkhar", "db_town": "Samdrupjongkhar Thromde", "dzongkhag": "Samdrup Jongkhar", "lap_name": "Lap 5a", "area_code": "06", "zone_type": "lap", "local_area_group": "Deothang 5a, 5b, 5ba, 5c", "division": null, "index": 65.5425, "has_data": true, "category": "High Liveable", "color": "#91cf60"}}, {"type": "Feature", "geometry": {"type": "Polygon", "coordinates": [[[91.468345395, 26.856154315], [91.468716198, 26.855517617], [91.468349678, 26.854679373], [91.467504351, 26.85469338], [91.467011002, 26.854871095], [91.466449471, 26.854735706], [91.465688062, 26.854021843], [91.465100484, 26.854127306], [91.464725411, 26.855339354], [91.464380237, 26.85570381], [91.463926327, 26.856681317], [91.463893323, 26.857288355], [91.463718409, 26.857290166], [91.463135478, 26.858211475], [91.46424993, 26.858037802], [91.464527369, 26.857846643], [91.464951863, 26.857980843], [91.465569118, 26.857914299], [91.465861165, 26.858630415], [91.465810409, 26.859216716], [91.466220673, 26.859829617], [91.467242741, 26.858315927], [91.467338117, 26.858482176], [91.467243572, 26.858321878], [91.466207874, 26.859854593], [91.466443322, 26.860024745], [91.466625966, 26.860645822], [91.466341884, 26.861202578], [91.465337259, 26.861981825], [91.466134781, 26.861874183], [91.466129593, 26.86237633], [91.467393586, 26.863168654], [91.468201875, 26.863442687], [91.46889093, 26.863966386], [91.470130133, 26.86509367], [91.470313039, 26.865708922], [91.470627554, 26.86612929], [91.471446111, 26.866293365], [91.471895571, 26.865875505], [91.472098507, 26.865334689], [91.472439547, 26.865101011], [91.47297273, 26.86484441], [91.474098347, 26.864853595], [91.474504329, 26.863782416], [91.473962273, 26.863578865], [91.474274828, 26.863622676], [91.474297913, 26.863379235], [91.474823221, 26.863415596], [91.474483478, 26.863073952], [91.473892068, 26.862886606], [91.472810777, 26.862921412], [91.471555791, 26.86260237], [91.471370742, 26.862722847], [91.471714786, 26.862271217], [91.469947534, 26.860867414], [91.471727914, 26.862271734], [91.472787404, 26.862129946], [91.474321107, 26.862582053], [91.475546058, 26.862383602], [91.476151094, 26.862497578], [91.476830838, 26.862302193], [91.477424507, 26.861990027], [91.477809553, 26.861554518], [91.478019388, 26.861547094], [91.479061962, 26.862571751], [91.479220785, 26.862677307], [91.479411428, 26.862539328], [91.479411248, 26.86230136], [91.478538084, 26.861748259], [91.478181942, 26.860818408], [91.477898614, 26.860779529], [91.47777594, 26.859865541], [91.47835296, 26.859843817], [91.478377225, 26.85969189], [91.478126063, 26.859435626], [91.478012244, 26.858754285], [91.477589595, 26.858539039], [91.477510788, 26.858756912], [91.477727977, 26.85886709], [91.47751829, 26.859109867], [91.476993466, 26.858660331], [91.476691663, 26.859892562], [91.476431155, 26.860039112], [91.476315555, 26.85966898], [91.475839552, 26.859611189], [91.475857753, 26.85944102], [91.475402395, 26.859401318], [91.475265986, 26.859224917], [91.474893733, 26.859257567], [91.475058865, 26.858879275], [91.474241477, 26.85857661], [91.474060292, 26.858319608], [91.473467586, 26.858030285], [91.473237653, 26.858286342], [91.472373084, 26.858167212], [91.471702455, 26.857713944], [91.471426253, 26.85777435], [91.47132665, 26.858188567], [91.471190142, 26.858229214], [91.470165101, 26.858101279], [91.470095423, 26.858575331], [91.469808834, 26.858057913], [91.469145938, 26.857750995], [91.46910375, 26.85741932], [91.468512006, 26.857203188], [91.468391011, 26.856187184], [91.466930394, 26.857094381], [91.468345395, 26.856154315]]]}, "properties": {"saz_id": 133, "town": "Samdrup Jongkhar", "db_town": "Samdrupjongkhar Thromde", "dzongkhag": "Samdrup Jongkhar", "lap_name": "Lap 5b", "area_code": "07", "zone_type": "lap", "local_area_group": "Deothang 5a, 5b, 5ba, 5c", "division": null, "index": 65.5425, "has_data": true, "category": "High Liveable", "color": "#91cf60"}}, {"type": "Feature", "geometry": {"type": "Polygon", "coordinates": [[[91.465685163, 26.854014658], [91.465767796, 26.854115303], [91.466558652, 26.854015116], [91.467076432, 26.852484045], [91.467489594, 26.852438522], [91.468600793, 26.851678409], [91.468706937, 26.851134907], [91.468422, 26.850703312], [91.468558013, 26.85055599], [91.469191697, 26.851431204], [91.467813304, 26.852860201], [91.468919208, 26.851963747], [91.469409376, 26.851857152], [91.469774778, 26.851399768], [91.469628101, 26.850995286], [91.469785081, 26.850828714], [91.470941603, 26.851114848], [91.471522302, 26.850899459], [91.471932734, 26.851190176], [91.472188965, 26.850768814], [91.472480131, 26.850860939], [91.47274647, 26.850674194], [91.472883124, 26.851123184], [91.472475523, 26.851051303], [91.472210414, 26.851333193], [91.472447554, 26.851622541], [91.473142753, 26.851510626], [91.473503614, 26.85124994], [91.474065681, 26.851507351], [91.474577674, 26.851175304], [91.474544496, 26.850525405], [91.474890055, 26.850176061], [91.474022973, 26.849848879], [91.47417349, 26.849729948], [91.474564108, 26.849855924], [91.475155071, 26.849615038], [91.475075352, 26.849466789], [91.475382384, 26.849146393], [91.474372854, 26.848468615], [91.474674789, 26.847209383], [91.475029507, 26.847294497], [91.475283828, 26.847000027], [91.475291062, 26.846467068], [91.475728493, 26.846113592], [91.476174394, 26.846140657], [91.476386199, 26.845840285], [91.476278402, 26.845708189], [91.476441902, 26.845500307], [91.476342322, 26.844911368], [91.475788342, 26.844730007], [91.477317394, 26.844298519], [91.477937506, 26.843854314], [91.479085275, 26.843471199], [91.479082521, 26.841082768], [91.478808624, 26.840413184], [91.479690846, 26.839461895], [91.480661713, 26.839074275], [91.480639443, 26.838449639], [91.48022073, 26.838063874], [91.479118631, 26.837875573], [91.478717263, 26.837191461], [91.479989778, 26.833898379], [91.479620815, 26.833258337], [91.479835878, 26.831850923], [91.479716673, 26.830840325], [91.479432616, 26.830475352], [91.480065788, 26.828594118], [91.480796177, 26.828209015], [91.480970468, 26.828289661], [91.481166617, 26.828148043], [91.481104995, 26.828031326], [91.481453109, 26.827884945], [91.481315505, 26.827363017], [91.480478161, 26.826591487], [91.480539667, 26.825883503], [91.481003965, 26.825428229], [91.481093623, 26.824710434], [91.481734991, 26.82427868], [91.482046505, 26.823222337], [91.484629661, 26.820416646], [91.485212576, 26.820385154], [91.486523588, 26.820882067], [91.487674507, 26.820489341], [91.489912344, 26.821569625], [91.490359165, 26.822484778], [91.491525383, 26.822450286], [91.49160436, 26.819842132], [91.493384484, 26.818637057], [91.495082183, 26.816811135], [91.495063092, 26.816433878], [91.494731576, 26.815955248], [91.495864159, 26.815518243], [91.49597871, 26.814819209], [91.495710532, 26.814587322], [91.496085838, 26.813016425], [91.495201365, 26.813231947], [91.495294974, 26.81363062], [91.495527095, 26.813808967], [91.495119456, 26.814263687], [91.495193689, 26.81480213], [91.494715684, 26.815013354], [91.493727483, 26.814329137], [91.493246983, 26.814350067], [91.493092287, 26.814954365], [91.493359502, 26.815652541], [91.494349833, 26.816228893], [91.494549649, 26.816639133], [91.493989839, 26.817352383], [91.492466154, 26.818700669], [91.490908274, 26.819059659], [91.490389734, 26.819417205], [91.490227317, 26.820243616], [91.487677132, 26.819607517], [91.486324464, 26.819710546], [91.484599215, 26.819436839], [91.481859691, 26.822450342], [91.48093465, 26.824176042], [91.48022025, 26.824973329], [91.479635943, 26.825988115], [91.479790962, 26.827578803], [91.478106352, 26.827992905], [91.477446783, 26.828659557], [91.477674273, 26.829297911], [91.478750826, 26.828886999], [91.479059623, 26.829251715], [91.478709298, 26.830045188], [91.478605111, 26.830734586], [91.479051462, 26.831345274], [91.479146171, 26.832647947], [91.478572732, 26.832869633], [91.478224975, 26.833317338], [91.479389857, 26.833987125], [91.478751663, 26.835484604], [91.477875802, 26.836924298], [91.47703399, 26.83771973], [91.476062381, 26.838050238], [91.475723479, 26.838364623], [91.475965616, 26.83904089], [91.477203267, 26.839592572], [91.477786571, 26.839583306], [91.477797472, 26.839878182], [91.47740616, 26.840513483], [91.477614846, 26.841063219], [91.478059794, 26.841562906], [91.478050849, 26.842235447], [91.477696699, 26.843009926], [91.475862415, 26.843352617], [91.473355406, 26.844447699], [91.473161889, 26.844795455], [91.471457089, 26.845583984], [91.471056949, 26.845540568], [91.470342004, 26.845763695], [91.470060558, 26.84560168], [91.46910516, 26.845551342], [91.468903995, 26.84640351], [91.468381685, 26.846757847], [91.4681111, 26.847163492], [91.468210436, 26.84773658], [91.46844678, 26.847965677], [91.467530834, 26.848508071], [91.469085622, 26.848967716], [91.469604527, 26.848622927], [91.469901381, 26.849155898], [91.469306818, 26.849666414], [91.469164583, 26.850153197], [91.46828958, 26.850580981], [91.468535607, 26.851285767], [91.468447402, 26.851575329], [91.467514689, 26.852190851], [91.4668904, 26.852317863], [91.466401641, 26.853905727], [91.465685163, 26.854014658]]]}, "properties": {"saz_id": 134, "town": "Samdrup Jongkhar", "db_town": "Samdrupjongkhar Thromde", "dzongkhag": "Samdrup Jongkhar", "lap_name": "Lap 5ba", "area_code": "08", "zone_type": "lap", "local_area_group": "Deothang 5a, 5b, 5ba, 5c", "division": null, "index": 65.5425, "has_data": true, "category": "High Liveable", "color": "#91cf60"}}, {"type": "Feature", "geometry": {"type": "Polygon", "coordinates": [[[91.474297657, 26.862572491], [91.472769818, 26.862122938], [91.471693107, 26.862285826], [91.471581367, 26.862663558], [91.471788352, 26.862886298], [91.473876017, 26.862885466], [91.474487854, 26.863063056], [91.475855736, 26.863846351], [91.474695741, 26.863197261], [91.474778051, 26.863473599], [91.474304405, 26.863373937], [91.474278438, 26.863620024], [91.473997274, 26.863523584], [91.474040259, 26.863690499], [91.47451994, 26.863805789], [91.474090364, 26.864856294], [91.474864775, 26.864764533], [91.475288257, 26.86504254], [91.475752168, 26.866413218], [91.476518903, 26.867525762], [91.47762134, 26.868273261], [91.479588101, 26.868833227], [91.479724097, 26.868528456], [91.479562032, 26.868174506], [91.479634884, 26.867499059], [91.479354195, 26.866543767], [91.480197612, 26.867048607], [91.481368221, 26.867376299], [91.481675382, 26.867676426], [91.482102677, 26.867797468], [91.482450419, 26.867631687], [91.482952151, 26.867647344], [91.483173887, 26.867909659], [91.482991199, 26.868517093], [91.483197367, 26.869121622], [91.483468459, 26.869338441], [91.484531752, 26.869484179], [91.485917442, 26.87020183], [91.486242986, 26.871014302], [91.486679582, 26.870507621], [91.486591655, 26.870027377], [91.486712551, 26.869461254], [91.486063619, 26.868892768], [91.485463573, 26.867602011], [91.485630573, 26.866993564], [91.486364482, 26.866033969], [91.486439003, 26.865489255], [91.486636019, 26.865393041], [91.486676511, 26.864921906], [91.486510925, 26.864745824], [91.486621933, 26.864315788], [91.486248218, 26.864277877], [91.485421665, 26.86350205], [91.482890661, 26.864386364], [91.482306838, 26.863440608], [91.481550694, 26.8626954], [91.481605185, 26.862401942], [91.481172434, 26.861412756], [91.480631115, 26.861041859], [91.479813879, 26.860977195], [91.479648309, 26.860801105], [91.479468628, 26.860436877], [91.479423031, 26.859621456], [91.479695275, 26.859032834], [91.479470995, 26.858825977], [91.479017714, 26.858945782], [91.477973769, 26.85848599], [91.477624756, 26.8585524], [91.478118323, 26.858840127], [91.478115226, 26.859499154], [91.478350623, 26.859664056], [91.47832934, 26.859821183], [91.477770288, 26.859879329], [91.477898725, 26.860788027], [91.478191342, 26.860868649], [91.478540804, 26.861733194], [91.47941163, 26.862330776], [91.479402963, 26.862560991], [91.479189655, 26.86284593], [91.479358294, 26.862601338], [91.479230767, 26.862660204], [91.478589443, 26.862222355], [91.478014964, 26.861543217], [91.477810892, 26.861545351], [91.477443168, 26.861967604], [91.476846754, 26.862292874], [91.476178807, 26.862498596], [91.475541702, 26.862384955], [91.474297657, 26.862572491]]]}, "properties": {"saz_id": 135, "town": "Samdrup Jongkhar", "db_town": "Samdrupjongkhar Thromde", "dzongkhag": "Samdrup Jongkhar", "lap_name": "lap 5c", "area_code": "09", "zone_type": "lap", "local_area_group": "Deothang 5a, 5b, 5ba, 5c", "division": null, "index": 65.5425, "has_data": true, "category": "High Liveable", "color": "#91cf60"}}, {"type": "Feature", "geometry": {"type": "Polygon", "coordinates": [[[89.621281519, 27.499755943], [89.621611611, 27.500593771], [89.621993335, 27.501119329], [89.622634099, 27.501420261], [89.622853733, 27.501782488], [89.62350875, 27.502225962], [89.623634297, 27.502515743], [89.623450247, 27.503896273], [89.626743822, 27.503782707], [89.631238792, 27.509620105], [89.631771823, 27.515069925], [89.6322834, 27.516056189], [89.632507106, 27.516342432], [89.637119316, 27.521325742], [89.636916907, 27.522570308], [89.635943508, 27.525461048], [89.636008156, 27.527030448], [89.635914127, 27.527128697], [89.635990231, 27.527489099], [89.636456923, 27.528360785], [89.637346477, 27.529717294], [89.636116449, 27.53438705], [89.638565908, 27.538013745], [89.645687147, 27.544524403], [89.650574298, 27.54779787], [89.651103103, 27.547345257], [89.650732745, 27.546975384], [89.65055437, 27.54617239], [89.650678335, 27.546013881], [89.651078347, 27.544925354], [89.650868711, 27.544490708], [89.649799536, 27.54397571], [89.648456244, 27.543044247], [89.648135801, 27.542669761], [89.648084376, 27.542054757], [89.648414554, 27.54031348], [89.648292072, 27.539268342], [89.649127834, 27.538011791], [89.648829574, 27.536313958], [89.648709484, 27.535978409], [89.648821383, 27.535024905], [89.6486028, 27.534577992], [89.648567948, 27.534073092], [89.64876516, 27.53343081], [89.648698445, 27.531789243], [89.649039661, 27.531163546], [89.649072857, 27.530793436], [89.648884111, 27.53054425], [89.648530826, 27.530333105], [89.647644144, 27.530169926], [89.647534387, 27.529933249], [89.6474669, 27.529387899], [89.647128309, 27.528829192], [89.646833898, 27.528661828], [89.645853378, 27.527655819], [89.645011497, 27.525588143], [89.645267082, 27.524558227], [89.645278426, 27.523988818], [89.645367746, 27.523948371], [89.645383565, 27.523688436], [89.645537503, 27.523813525], [89.64572282, 27.522934291], [89.645675624, 27.521984636], [89.64553511, 27.521398979], [89.645542574, 27.520539298], [89.64577178, 27.51812781], [89.645530572, 27.516270169], [89.645484375, 27.514211228], [89.649160762, 27.513780954], [89.649150841, 27.511421196], [89.64697638, 27.510972439], [89.645347736, 27.510278928], [89.643831987, 27.509333355], [89.643596754, 27.50913841], [89.643665582, 27.509019963], [89.643208908, 27.508719434], [89.642711609, 27.508569447], [89.642059342, 27.508241871], [89.642156295, 27.50779734], [89.642912324, 27.506924548], [89.643262155, 27.506129795], [89.6432951, 27.505814562], [89.643108539, 27.504694972], [89.643161238, 27.504128109], [89.643034219, 27.503919468], [89.642846938, 27.503801547], [89.642978584, 27.503042497], [89.642842793, 27.502675558], [89.642845545, 27.502275772], [89.64298167, 27.501993634], [89.643014632, 27.501660284], [89.642829055, 27.501410918], [89.642743033, 27.501073059], [89.64291862, 27.500824939], [89.642918492, 27.500585432], [89.64244718, 27.50016529], [89.642689121, 27.499581522], [89.643118017, 27.499388718], [89.643266644, 27.499241318], [89.643045988, 27.498705101], [89.642632275, 27.498179447], [89.642628338, 27.497280517], [89.642280145, 27.496295103], [89.642318624, 27.495911078], [89.643826591, 27.493004483], [89.64457085, 27.491966367], [89.64524272, 27.491521934], [89.645421592, 27.491255959], [89.645271964, 27.490765477], [89.64475662, 27.490547764], [89.640865222, 27.490382425], [89.639263072, 27.490031893], [89.639117613, 27.490112109], [89.6390321, 27.49104183], [89.638877704, 27.491439435], [89.638409867, 27.491299992], [89.63801929, 27.491427843], [89.637441713, 27.49142449], [89.637208859, 27.491169869], [89.637095453, 27.491203063], [89.637195518, 27.492351976], [89.636955872, 27.492438078], [89.637273207, 27.493245657], [89.637364364, 27.493963252], [89.636393808, 27.493583782], [89.636037754, 27.493314917], [89.635830479, 27.492980478], [89.635322436, 27.493282935], [89.63523585, 27.493526207], [89.635505102, 27.493999494], [89.635533195, 27.494456166], [89.635406481, 27.494921682], [89.635598953, 27.495599869], [89.635592911, 27.49577245], [89.635224726, 27.496555767], [89.635196005, 27.496780615], [89.635697479, 27.498126124], [89.635721167, 27.498665602], [89.635497321, 27.498915977], [89.634982561, 27.498997821], [89.634599382, 27.499156934], [89.634077872, 27.499012244], [89.633691779, 27.49809161], [89.633413179, 27.497159373], [89.633223376, 27.496952511], [89.633075127, 27.496832141], [89.633023898, 27.496866417], [89.633072303, 27.497275749], [89.632131532, 27.497277028], [89.632106158, 27.497214912], [89.63234934, 27.496980243], [89.632346667, 27.496801506], [89.631723252, 27.496801701], [89.630374106, 27.497941905], [89.630855076, 27.498702617], [89.630829712, 27.498763099], [89.628990128, 27.498800257], [89.628424667, 27.498741879], [89.625681559, 27.499310675], [89.624811114, 27.500061561], [89.623233562, 27.499872804], [89.621281519, 27.499755943]], [[89.644867094, 27.524618922], [89.644921919, 27.524528796], [89.64492698, 27.524608434], [89.644867094, 27.524618922]], [[89.642222818, 27.516219088], [89.642277797, 27.516256093], [89.642212396, 27.516337798], [89.642080501, 27.516328926], [89.642222818, 27.516219088]], [[89.639520531, 27.500871297], [89.64022702, 27.499868449], [89.640742754, 27.500206843], [89.641466319, 27.500918176], [89.641764741, 27.501344712], [89.641841497, 27.501636189], [89.641808574, 27.502524571], [89.64143728, 27.503685795], [89.641317834, 27.504418682], [89.641483119, 27.505660789], [89.641487402, 27.50660034], [89.641336785, 27.50693644], [89.640954447, 27.507187847], [89.640232974, 27.507400583], [89.63976211, 27.506557752], [89.640072752, 27.506567422], [89.640354726, 27.506786836], [89.640745865, 27.506773974], [89.641026293, 27.506598656], [89.641138174, 27.506210792], [89.640956466, 27.505526076], [89.641023968, 27.5038461], [89.639925137, 27.50376175], [89.63967691, 27.502677803], [89.639774525, 27.501592084], [89.639520531, 27.500871297]], [[89.636223547, 27.50469541], [89.636233906, 27.504447133], [89.636518769, 27.504154778], [89.636583258, 27.502703627], [89.636521088, 27.50180089], [89.636595958, 27.501610276], [89.636781522, 27.501686224], [89.63678348, 27.503982843], [89.637433658, 27.504479319], [89.637247947, 27.504792614], [89.636582317, 27.504600157], [89.636223547, 27.50469541]], [[89.633380862, 27.504100223], [89.633379563, 27.504022916], [89.633551894, 27.504041991], [89.633510188, 27.504101029], [89.633380862, 27.504100223]]]}, "properties": {"saz_id": null, "town": "Thimphu", "db_town": "Thimphu Thromde", "dzongkhag": "Thimphu", "lap_name": "Northern Thimphu", "area_code": "01", "zone_type": "division \u00b7 17 LAPs", "local_area_group": "Northern Thimphu", "division": "Northern Thimphu", "index": 60.5, "has_data": true, "category": "Moderate liveable", "color": "#fee08b"}}, {"type": "Feature", "geometry": {"type": "Polygon", "coordinates": [[[89.598532797, 27.47349452], [89.598766841, 27.479304322], [89.601998837, 27.479587991], [89.606255085, 27.480415125], [89.608173493, 27.480488365], [89.611283981, 27.480914154], [89.611760024, 27.480739051], [89.612826966, 27.480767009], [89.613289786, 27.480842116], [89.613841424, 27.481102258], [89.614345075, 27.481561816], [89.615168052, 27.481576113], [89.615834184, 27.481457766], [89.616721778, 27.481428024], [89.618707815, 27.481500701], [89.621419578, 27.481469706], [89.621431768, 27.481398447], [89.624834051, 27.480447314], [89.626560568, 27.480757606], [89.627927118, 27.480873484], [89.628361414, 27.482653089], [89.629366885, 27.483511237], [89.630173555, 27.485259176], [89.628442, 27.486202451], [89.627712944, 27.486769234], [89.628214817, 27.488037996], [89.627101358, 27.489238318], [89.627929386, 27.49041284], [89.628785821, 27.491181906], [89.629261462, 27.492039837], [89.630198928, 27.493208706], [89.630594997, 27.493997578], [89.630721675, 27.495700612], [89.631082558, 27.496016208], [89.631762782, 27.495716491], [89.631873685, 27.495087525], [89.631934397, 27.495060514], [89.631935812, 27.495683216], [89.632323249, 27.496205267], [89.63268134, 27.496425499], [89.633432109, 27.497177964], [89.634082195, 27.49902744], [89.634581262, 27.499161594], [89.635234169, 27.49891902], [89.635511811, 27.498922952], [89.635709553, 27.498661934], [89.635706123, 27.498197334], [89.635193811, 27.496750042], [89.6352114, 27.496530065], [89.635522236, 27.495990555], [89.635611929, 27.495596263], [89.635405719, 27.494975376], [89.635518973, 27.494471261], [89.635501808, 27.493959254], [89.635282679, 27.493678692], [89.63526414, 27.493394409], [89.635813741, 27.492999133], [89.636021645, 27.493309708], [89.636396193, 27.493580573], [89.637375654, 27.494010876], [89.637369407, 27.493604653], [89.636965227, 27.492443227], [89.637224969, 27.49239558], [89.637108236, 27.49122073], [89.637238421, 27.491174458], [89.63738001, 27.491406256], [89.637525238, 27.491440341], [89.638011791, 27.491435745], [89.638399255, 27.491308121], [89.638662503, 27.491449717], [89.63889042, 27.491437578], [89.639041139, 27.491084652], [89.639118917, 27.490117958], [89.63981218, 27.489474424], [89.640009084, 27.488925317], [89.640013552, 27.488241541], [89.638991384, 27.48584153], [89.639007396, 27.485200638], [89.639797411, 27.483897614], [89.640592971, 27.481382736], [89.640390168, 27.480493855], [89.640457105, 27.479677369], [89.640644167, 27.4790704], [89.641655778, 27.477609827], [89.642835632, 27.476522132], [89.642932516, 27.47610276], [89.643988032, 27.476117355], [89.644707923, 27.474867786], [89.64521099, 27.473746834], [89.645266733, 27.473138036], [89.645035348, 27.472359495], [89.645322407, 27.469806797], [89.647141476, 27.468699565], [89.651169751, 27.47022764], [89.651804677, 27.470671841], [89.652034743, 27.470744679], [89.652323769, 27.470567683], [89.65238129, 27.470235985], [89.651991103, 27.469982149], [89.651603316, 27.469332963], [89.651496574, 27.468621994], [89.651606883, 27.468358824], [89.651908156, 27.468068445], [89.652146187, 27.466489388], [89.652345347, 27.465779372], [89.653326912, 27.464848947], [89.653260498, 27.464568999], [89.653159809, 27.464487527], [89.652878341, 27.464486435], [89.652739718, 27.463884727], [89.65238212, 27.463115471], [89.651845021, 27.462343317], [89.651333824, 27.462027368], [89.649675416, 27.462358781], [89.648973094, 27.462238927], [89.648968136, 27.46196933], [89.648332212, 27.46185797], [89.64787676, 27.461512953], [89.647226525, 27.461367678], [89.64751923, 27.46105265], [89.648413045, 27.460524305], [89.650025946, 27.458888861], [89.651021963, 27.458422054], [89.652268612, 27.457577349], [89.653145404, 27.456877275], [89.653839429, 27.45652892], [89.654220533, 27.456528628], [89.655367548, 27.45610322], [89.655898438, 27.455753307], [89.656183123, 27.455682244], [89.656339983, 27.455524507], [89.657360345, 27.455084168], [89.657375517, 27.454900783], [89.65725061, 27.454791563], [89.656982455, 27.454780674], [89.656818681, 27.454619441], [89.65679564, 27.454450766], [89.656449072, 27.454235494], [89.656778249, 27.453618485], [89.655959671, 27.453099381], [89.655024506, 27.452887585], [89.655036666, 27.451605074], [89.654970464, 27.451496534], [89.654164555, 27.452249537], [89.653840362, 27.452445417], [89.653376534, 27.45255317], [89.653087122, 27.452471153], [89.653002506, 27.452841332], [89.652750391, 27.453217207], [89.652444652, 27.453557477], [89.652340608, 27.453548178], [89.652705562, 27.453124395], [89.653003935, 27.452199638], [89.653016108, 27.451365924], [89.653193173, 27.450949474], [89.653733298, 27.45044138], [89.65487069, 27.450211727], [89.657493457, 27.447642946], [89.659700566, 27.446205793], [89.660013864, 27.44505371], [89.659906901, 27.444767668], [89.659351213, 27.444374984], [89.658742301, 27.444191242], [89.65844407, 27.443884706], [89.657486718, 27.4421317], [89.653506328, 27.442658976], [89.652107455, 27.443465285], [89.650415169, 27.44465966], [89.640589173, 27.451850929], [89.639197764, 27.452943782], [89.633769827, 27.455727094], [89.632040491, 27.456507721], [89.631827574, 27.456518897], [89.631295727, 27.456743452], [89.626944755, 27.45973071], [89.62546909, 27.46019207], [89.625701921, 27.461166541], [89.626838959, 27.462933991], [89.627604875, 27.463661334], [89.627416789, 27.4656308], [89.626895359, 27.466699105], [89.62671743, 27.466709461], [89.626287928, 27.466930861], [89.626337029, 27.467262517], [89.626280051, 27.467902248], [89.626370382, 27.468123215], [89.627118298, 27.46882935], [89.627361892, 27.4693212], [89.627148075, 27.469538045], [89.626639091, 27.469665162], [89.626305716, 27.469975079], [89.626083353, 27.470072042], [89.625911558, 27.470463931], [89.622207835, 27.471204804], [89.622422059, 27.47173153], [89.620911309, 27.471954678], [89.620492406, 27.471855548], [89.620022502, 27.471332627], [89.619675172, 27.471310664], [89.619881592, 27.471580134], [89.620041844, 27.472012213], [89.61994904, 27.472591466], [89.620228049, 27.47291587], [89.61981273, 27.473134452], [89.619253832, 27.473752633], [89.61831501, 27.474277932], [89.617393443, 27.475540704], [89.615315182, 27.475718237], [89.614612081, 27.475590514], [89.614136587, 27.475282779], [89.611959672, 27.47498298], [89.610936354, 27.474532519], [89.608641272, 27.473804646], [89.60709381, 27.47372051], [89.606005244, 27.472680724], [89.604517514, 27.47273918], [89.603078659, 27.472151052], [89.598532797, 27.47349452]], [[89.651952731, 27.454613699], [89.651813722, 27.454757438], [89.652126633, 27.454013132], [89.652193988, 27.453997327], [89.651952731, 27.454613699]], [[89.648322674, 27.45939484], [89.648258712, 27.45935342], [89.64836749, 27.459246849], [89.648410762, 27.45931346], [89.648322674, 27.45939484]], [[89.636980784, 27.475311655], [89.636946746, 27.475254801], [89.637172557, 27.474864167], [89.637192858, 27.474916542], [89.636980784, 27.475311655]], [[89.635152099, 27.480297788], [89.635156416, 27.480221915], [89.63533574, 27.480247337], [89.635240656, 27.480322379], [89.635152099, 27.480297788]], [[89.629714138, 27.479366443], [89.62971412, 27.479295246], [89.629866341, 27.479281262], [89.630103009, 27.479347813], [89.63012689, 27.479457569], [89.632410338, 27.479774937], [89.634765048, 27.48026839], [89.634027128, 27.480323027], [89.633413536, 27.480053726], [89.632739534, 27.480082359], [89.632199465, 27.479834073], [89.631002792, 27.47985827], [89.630707345, 27.479699129], [89.630082634, 27.479603006], [89.629714138, 27.479366443]], [[89.634151389, 27.475739249], [89.634055178, 27.475752165], [89.634046771, 27.475428064], [89.634151389, 27.475739249]], [[89.633968681, 27.47396642], [89.633890059, 27.47397714], [89.633918219, 27.473711425], [89.633966132, 27.47374227], [89.633968681, 27.47396642]], [[89.633804683, 27.471435194], [89.633930053, 27.471431048], [89.633886361, 27.472220639], [89.633845506, 27.472182831], [89.633804683, 27.471435194]], [[89.629564227, 27.476170286], [89.629568277, 27.476080527], [89.629661734, 27.476125665], [89.629564227, 27.476170286]], [[89.627327627, 27.479347921], [89.627308841, 27.479282535], [89.627423667, 27.479252497], [89.62816465, 27.479480893], [89.627859992, 27.479513192], [89.627327627, 27.479347921]], [[89.626894567, 27.479358666], [89.626878626, 27.479281284], [89.627039633, 27.479297841], [89.627014926, 27.479350359], [89.626894567, 27.479358666]], [[89.62588294, 27.479478516], [89.62584935, 27.479409282], [89.626020808, 27.479347146], [89.626203494, 27.479386871], [89.62588294, 27.479478516]], [[89.617779504, 27.476516052], [89.617788208, 27.476430378], [89.617897871, 27.476473677], [89.617870623, 27.476524051], [89.617779504, 27.476516052]], [[89.616979346, 27.477077356], [89.616915241, 27.477032897], [89.617043719, 27.476945251], [89.617061645, 27.476998056], [89.616979346, 27.477077356]], [[89.614267667, 27.477768323], [89.614315534, 27.477872722], [89.614231108, 27.477812627], [89.614267667, 27.477768323]]]}, "properties": {"saz_id": null, "town": "Thimphu", "db_town": "Thimphu Thromde", "dzongkhag": "Thimphu", "lap_name": "Central Thimphu", "area_code": "02", "zone_type": "division \u00b7 43 LAPs", "local_area_group": "Central Thimphu", "division": "Central Thimphu", "index": 60.3, "has_data": true, "category": "Moderate liveable", "color": "#fee08b"}}, {"type": "Feature", "geometry": {"type": "Polygon", "coordinates": [[[89.642051577, 27.430119056], [89.642210383, 27.430311572], [89.645506979, 27.431531832], [89.647866823, 27.434152373], [89.648543509, 27.434593098], [89.649017429, 27.434728823], [89.650019798, 27.436062913], [89.651441586, 27.436938868], [89.655671403, 27.438840994], [89.655665856, 27.439014173], [89.656334447, 27.439926518], [89.65767197, 27.441478661], [89.657501293, 27.442167235], [89.658114802, 27.443259395], [89.658182069, 27.443561794], [89.658370969, 27.443533984], [89.658999521, 27.444026153], [89.659910846, 27.444261257], [89.660123346, 27.444470788], [89.660202569, 27.444642594], [89.660189158, 27.445068474], [89.660100182, 27.445110801], [89.659487836, 27.446805404], [89.65912922, 27.446621369], [89.657966251, 27.447295557], [89.655702095, 27.449364936], [89.654979575, 27.450149555], [89.654774071, 27.450277604], [89.653775295, 27.450428183], [89.653502206, 27.450781467], [89.653209627, 27.450941], [89.653023966, 27.451236005], [89.653000344, 27.452430351], [89.653363941, 27.45257008], [89.653830748, 27.452451779], [89.654946671, 27.451558464], [89.654966738, 27.452808603], [89.655977813, 27.45310125], [89.656748487, 27.453601021], [89.65641459, 27.454245366], [89.656783116, 27.454464985], [89.656977041, 27.45479042], [89.657250411, 27.454797414], [89.657376587, 27.455012148], [89.655759101, 27.455877335], [89.656142286, 27.456336239], [89.658102213, 27.456030824], [89.659209746, 27.456208855], [89.6625755, 27.458183057], [89.662659221, 27.458570436], [89.663260313, 27.459451007], [89.664859751, 27.459869761], [89.665427075, 27.460510913], [89.666554689, 27.460982154], [89.667081361, 27.461615544], [89.667478581, 27.461705653], [89.66814412, 27.462176916], [89.668693978, 27.462419672], [89.66932348, 27.462400583], [89.670305319, 27.462138128], [89.671155395, 27.460961485], [89.671497251, 27.459943704], [89.671365404, 27.457275518], [89.671593248, 27.457055101], [89.671499396, 27.456830523], [89.671724862, 27.456435671], [89.671329802, 27.455597353], [89.672115811, 27.451349845], [89.672100023, 27.450821244], [89.672511373, 27.4501677], [89.67196181, 27.449785977], [89.675908471, 27.444590331], [89.681335551, 27.436762937], [89.681378734, 27.436110667], [89.679845031, 27.432629198], [89.679598171, 27.430536687], [89.675477369, 27.430879271], [89.674119093, 27.429933841], [89.673993985, 27.428205562], [89.6731912, 27.427747384], [89.671540351, 27.427860099], [89.67072307, 27.429084789], [89.670145301, 27.429185527], [89.668734016, 27.43018308], [89.667038248, 27.430001653], [89.667840193, 27.432758141], [89.666941667, 27.433565494], [89.667188483, 27.434761623], [89.666687807, 27.434498736], [89.666431041, 27.434712161], [89.66676698, 27.435350059], [89.666672028, 27.435495388], [89.666177122, 27.435504509], [89.666042934, 27.435279494], [89.664644233, 27.43553759], [89.663966147, 27.436379096], [89.663734208, 27.436354098], [89.663351096, 27.435283131], [89.662562657, 27.434440545], [89.662198324, 27.434471457], [89.661382936, 27.433845101], [89.659734452, 27.433324285], [89.659233583, 27.433015972], [89.659675751, 27.432258517], [89.65990919, 27.431505191], [89.660504009, 27.430947868], [89.660831888, 27.429820575], [89.661411553, 27.42947982], [89.662351834, 27.427849689], [89.661013562, 27.426547084], [89.660200372, 27.425986018], [89.656109694, 27.423865001], [89.655377749, 27.422581112], [89.655212054, 27.42173061], [89.655242919, 27.420854316], [89.65553363, 27.420472325], [89.65561557, 27.419764496], [89.655279776, 27.41847195], [89.65560585, 27.418321084], [89.655418676, 27.418055318], [89.655877914, 27.417640676], [89.655728429, 27.416770957], [89.655392335, 27.416739677], [89.655322113, 27.416574294], [89.655694779, 27.416210401], [89.655549534, 27.415785122], [89.656185836, 27.413608108], [89.65645391, 27.413293222], [89.657063579, 27.413259852], [89.657425409, 27.412570083], [89.657756664, 27.412345099], [89.657867143, 27.411770383], [89.65852234, 27.411614525], [89.658665283, 27.411351563], [89.659918014, 27.410990348], [89.660111782, 27.410761812], [89.658780816, 27.409745551], [89.65757799, 27.410017465], [89.65651443, 27.409102123], [89.655936367, 27.409765505], [89.654846946, 27.410401004], [89.654714033, 27.41119957], [89.654335422, 27.411286235], [89.654020499, 27.411612652], [89.653790847, 27.411994346], [89.653785367, 27.412486476], [89.65347682, 27.412834099], [89.652965662, 27.413027311], [89.652972421, 27.413130851], [89.652561183, 27.413510535], [89.65242013, 27.414033566], [89.652165404, 27.414329227], [89.652228911, 27.414569247], [89.652026215, 27.41509263], [89.651290823, 27.415723492], [89.650963264, 27.416806837], [89.650060993, 27.417140125], [89.649361886, 27.418758213], [89.648881537, 27.419397167], [89.648567722, 27.42087891], [89.647845642, 27.421819374], [89.647091051, 27.42239201], [89.646621894, 27.423457323], [89.644236032, 27.425061843], [89.644074033, 27.425511167], [89.643696665, 27.425646912], [89.643680378, 27.425974652], [89.643775775, 27.425757173], [89.643899206, 27.425839526], [89.643971548, 27.42704311], [89.643768269, 27.427171732], [89.643342927, 27.428057998], [89.643375693, 27.428135471], [89.643289916, 27.428148407], [89.642051577, 27.430119056]], [[89.672394098, 27.441942212], [89.672459718, 27.441903], [89.672502782, 27.442045278], [89.672445258, 27.442045924], [89.672394098, 27.441942212]], [[89.669164511, 27.441445543], [89.669216075, 27.441536722], [89.669144968, 27.441506682], [89.669164511, 27.441445543]], [[89.667421683, 27.430363099], [89.667464474, 27.430296865], [89.66758659, 27.430450047], [89.667531736, 27.430463182], [89.667421683, 27.430363099]], [[89.665963404, 27.444151887], [89.665945581, 27.444086272], [89.666025952, 27.444073165], [89.666191328, 27.444167878], [89.665963404, 27.444151887]], [[89.6658854, 27.450203221], [89.665814651, 27.450185579], [89.66586773, 27.450088801], [89.665914411, 27.450121952], [89.6658854, 27.450203221]], [[89.665600677, 27.44766576], [89.665573958, 27.447594844], [89.665722206, 27.447545379], [89.665869454, 27.447608322], [89.665600677, 27.44766576]], [[89.665634557, 27.436873602], [89.665711524, 27.43689307], [89.665601257, 27.437093196], [89.665567986, 27.437046802], [89.665634557, 27.436873602]], [[89.663393193, 27.447884556], [89.663350408, 27.447970337], [89.663333463, 27.447909047], [89.663393193, 27.447884556]], [[89.662828107, 27.448792257], [89.662902012, 27.448753105], [89.662905264, 27.448875009], [89.662850043, 27.448873252], [89.662828107, 27.448792257]], [[89.662265035, 27.44304062], [89.662253488, 27.442967579], [89.662421586, 27.442940952], [89.662915863, 27.443122153], [89.662836488, 27.443236317], [89.662265035, 27.44304062]], [[89.659106942, 27.437709828], [89.659095532, 27.437639354], [89.660092582, 27.436928812], [89.66051859, 27.43701318], [89.660271185, 27.437331504], [89.660795663, 27.437390047], [89.661439815, 27.437242681], [89.661609421, 27.437936799], [89.661412851, 27.43810442], [89.660341678, 27.438209592], [89.660142481, 27.437992062], [89.660117162, 27.437633192], [89.659901417, 27.437431408], [89.659727312, 27.437441932], [89.659297567, 27.437719639], [89.659106942, 27.437709828]], [[89.659953151, 27.443377914], [89.659992405, 27.443327046], [89.661521673, 27.443276968], [89.6612569, 27.443494766], [89.661043238, 27.443524828], [89.660640997, 27.443402382], [89.660040619, 27.443459264], [89.659953151, 27.443377914]], [[89.659018511, 27.453142502], [89.659065643, 27.453082499], [89.659198793, 27.453202433], [89.659231761, 27.453366732], [89.659018511, 27.453142502]], [[89.658806753, 27.437472137], [89.65887173, 27.437427367], [89.65894076, 27.437591186], [89.658859726, 27.437577913], [89.658806753, 27.437472137]], [[89.653937481, 27.425436726], [89.653928872, 27.42535731], [89.654372831, 27.425324614], [89.654214088, 27.42542141], [89.653937481, 27.425436726]], [[89.650811707, 27.431598788], [89.650619625, 27.431504387], [89.65070207, 27.431497789], [89.650811707, 27.431598788]], [[89.645905445, 27.427254705], [89.646356762, 27.42736127], [89.646385812, 27.427410422], [89.646119889, 27.427573726], [89.645930644, 27.427590265], [89.645787298, 27.427413377], [89.645905445, 27.427254705]], [[89.645029667, 27.427980981], [89.645094667, 27.427937186], [89.645143147, 27.428114402], [89.645087373, 27.428113172], [89.645029667, 27.427980981]], [[89.644856016, 27.427326071], [89.644908565, 27.427482362], [89.644870198, 27.427525858], [89.644763325, 27.427326955], [89.644856016, 27.427326071]]]}, "properties": {"saz_id": null, "town": "Thimphu", "db_town": "Thimphu Thromde", "dzongkhag": "Thimphu", "lap_name": "Southern Thimphu", "area_code": "03", "zone_type": "division \u00b7 17 LAPs", "local_area_group": "Southern Thimphu", "division": "Southern Thimphu", "index": 58.8, "has_data": true, "category": "Moderate liveable", "color": "#fee08b"}}]}